{"type": "FeatureCollection", "features": [{"type": "Feature", "properties": {"rule": "METRIC_GUARD_ONLY", "selected": true}, "geometry": {"type": "Polygon", "coordinates": [[[9.320737210206811, 45.747932325320335], [9.320648178399612, 45.748404256715034], [9.320604851878644, 45.74954362270283], [9.320731852242501, 45.75067991903764], [9.321027798739031, 45.751800699841404], [9.321132429904232, 45.75210643728174], [9.321523286320245, 45.753056060398634], [9.322035515821689, 45.75397696846167], [9.322664905591214, 45.75486157696987], [9.323406277185324, 45.75570260003531], [9.323729647216528, 45.756034702429865], [9.32467858251325, 45.756910715350784], [9.325748880829222, 45.757715287367496], [9.326929636446918, 45.75844021667119], [9.328208816214117, 45.759078113036935], [9.32957338221228, 45.75962247325996], [9.331009424737733, 45.76006774754696], [9.33250230423555, 45.760409396180904], [9.334036800731923, 45.760643935877155], [9.335597269231878, 45.76076897535492], [9.337167799486458, 45.76078323975816], [9.337830044201494, 45.760742330461646], [9.337973803122672, 45.7607419053069], [9.339038947902038, 45.760713192977775], [9.340350151645875, 45.76064629044193], [9.341707311467713, 45.76053491721599], [9.34304526882022, 45.76034061298258], [9.34435369891192, 45.76006487720075], [9.345244492731794, 45.75984685222438], [9.345365654691562, 45.75985614005726], [9.346131850015427, 45.759853972868804], [9.34677658083657, 45.760302849606674], [9.346811066234553, 45.760324666027785], [9.347433734238566, 45.760825152644195], [9.34859423846392, 45.76158513028331], [9.349859475301432, 45.7622582729338], [9.351216242770324, 45.762837554941555], [9.352650382184382, 45.763316930090994], [9.35284221478138, 45.76336493175893], [9.35318955793405, 45.76357657331042], [9.354429108317246, 45.76419396124973], [9.355748901967326, 45.764723660321025], [9.357136318014485, 45.76516060434897], [9.358578087819042, 45.765500614190145], [9.360060422028, 45.76574043776661], [9.361569142652144, 45.76587778122124], [9.363089818891195, 45.765911330893985], [9.364607905397493, 45.76584076590758], [9.36495493407289, 45.765812653103694], [9.366505131856256, 45.76563113200836], [9.368021243879546, 45.765341069079746], [9.36948779434628, 45.76494542528761], [9.370889814222867, 45.76444823928824], [9.372212994237021, 45.76385458613186], [9.373443831087958, 45.76317052537869], [9.373612672289733, 45.76305543785452], [9.374445141573055, 45.762667028746776], [9.37567251690581, 45.76195753314388], [9.37579833327277, 45.7618681775534], [9.377201193535656, 45.762044448329135], [9.378739695997304, 45.762129032267424], [9.380282602480298, 45.762106508554616], [9.381814726766393, 45.761977098909405], [9.383320988954205, 45.76174207707515], [9.38478656413486, 45.76140375626051], [9.386197028536124, 45.76096546633268], [9.38653339284665, 45.76083158598656], [9.38659112224923, 45.76082903162709], [9.388149309081946, 45.76064775715434], [9.389166978424504, 45.76045346768217], [9.390022496903788, 45.76061409947374], [9.391508372423074, 45.760787504446796], [9.39301124627479, 45.76085950445512], [9.394517023664637, 45.76082942427093], [9.396011582527228, 45.76069754602938], [9.397480906200997, 45.760465106576824], [9.397655033374198, 45.76042483331101], [9.399003846131754, 45.76034108202135], [9.400512266807421, 45.76014108310818], [9.401325306141992, 45.75997377758378], [9.401538959302519, 45.75993946808019], [9.40286920676139, 45.759681877272904], [9.403324839397877, 45.75956232647365], [9.403768154571498, 45.75949418531154], [9.404159737300796, 45.75958156395327], [9.404952971655542, 45.75974246052112], [9.405339263786207, 45.7598130902792], [9.406864296115167, 45.76003549776947], [9.40841346536686, 45.76015003055185], [9.4099712338683, 45.76015553992882], [9.411521977556982, 45.760051970673864], [9.41305014295891, 45.75984036158489], [9.413079282060183, 45.75983415320114], [9.41279448338044, 45.76025371051547], [9.412487646783342, 45.760735490926955], [9.412390927570243, 45.76089781357915], [9.412035871300025, 45.76149377083336], [9.411928776765283, 45.76167349717986], [9.411362991179912, 45.762790487297664], [9.410973940445942, 45.7639438913307], [9.410823929839431, 45.76452948683299], [9.410601590000503, 45.765873923903015], [9.410531223428931, 45.766801225717366], [9.41051665704475, 45.767713113365886], [9.410611152262938, 45.76862265678168], [9.410732326957854, 45.769360291642585], [9.410986089452809, 45.77043126055456], [9.411390959709456, 45.77147922705893], [9.411942922566803, 45.77249377674286], [9.412320343708934, 45.77309544312008], [9.413129700287229, 45.774207696192896], [9.414115637704517, 45.77524783292326], [9.414916780514488, 45.77599605976851], [9.415769856859999, 45.77679806788375], [9.416624506568409, 45.77753254624478], [9.416960368926611, 45.77779682028313], [9.417032743324189, 45.77787549200276], [9.417317479914521, 45.7781740723238], [9.418185882207444, 45.779052948826575], [9.418765943502668, 45.77957108340968], [9.418898002850533, 45.78044401629362], [9.419167451213783, 45.781399132572716], [9.419812816288468, 45.78324749240898], [9.419938586710597, 45.78365677288606], [9.420319221348025, 45.784660055075484], [9.420834665796097, 45.78563342376014], [9.421480243377822, 45.78656803449467], [9.422250094129048, 45.78745539457885], [9.423137227857973, 45.788287440287995], [9.424133587517886, 45.7890566102165], [9.425230122322148, 45.78975591406482], [9.426416869940141, 45.790378996241664], [9.427683047028424, 45.79092019369997], [9.429017147273678, 45.79137458747781], [9.43040704605389, 45.79173804747245], [9.431840110762137, 45.792007270037594], [9.433303315784409, 45.792179808059636], [9.434783361079027, 45.79225409323726], [9.436266793271516, 45.79222945036014], [9.436951797152798, 45.792195163008586], [9.438411986793028, 45.79207335119907], [9.439849222603005, 45.79185568594863], [9.441250674165389, 45.79154411045628], [9.442004181090034, 45.79134872026228], [9.443384532913795, 45.79093680302618], [9.444701753590486, 45.79043380753306], [9.445943598651422, 45.789844410189126], [9.447098525440866, 45.78917409052195], [9.44815580048443, 45.788429080165194], [9.449105599282417, 45.78761630484921], [9.449939097598797, 45.78674331994019], [9.450648553397695, 45.78581824013091], [9.451227378668346, 45.784849663939994], [9.45167020047537, 45.78384659372507], [9.451781149289776, 45.783469728787296], [9.45217245559857, 45.78286991923534], [9.45264297518213, 45.78189726205595], [9.452969036533583, 45.78147182628815], [9.453546374120108, 45.780505692501706], [9.454174310919997, 45.779294229626245], [9.454217050197126, 45.77923737583376], [9.45469296727194, 45.77851825418217], [9.454899159109015, 45.77823476156312], [9.455184174537829, 45.77790813716469], [9.45575894176003, 45.777189725958515], [9.456254491160507, 45.77644298233332], [9.456504769438558, 45.77602516924218], [9.45683786741404, 45.77546917864065], [9.45755026178732, 45.77399109859323], [9.458041039126046, 45.772666025038816], [9.45805097816653, 45.77263904744381], [9.4583684048448, 45.77177285885029], [9.458720591134295, 45.77117746959752], [9.458800262028296, 45.77104014304803], [9.459446854910086, 45.76990347090694], [9.459965402475106, 45.76883336294798], [9.460322706412537, 45.767731411493486], [9.460514929416133, 45.76660948072127], [9.460540011996013, 45.765479649204224], [9.460535922970616, 45.765400985619664], [9.461262911292376, 45.76485503250753], [9.462188757156156, 45.76400634523176], [9.46299138015956, 45.7630982739315], [9.463663068538013, 45.76213955052296], [9.464197370609813, 45.76113939352762], [9.46466083907469, 45.760122374423666], [9.46531159330962, 45.75948310425497], [9.465971280272841, 45.75877894033815], [9.466608037936641, 45.75803828863113], [9.467233514752287, 45.7572364135567], [9.467598684154703, 45.75671762473056], [9.467964222793572, 45.75627614268884], [9.468861312122092, 45.75548036981563], [9.469756550184838, 45.75447994776761], [9.470049182163114, 45.754109726462055], [9.470839653677093, 45.75295391829518], [9.471430691015488, 45.75174110984529], [9.471619517111417, 45.75126329286363], [9.471624545350117, 45.75125053884714], [9.471876298125624, 45.75061044999189], [9.472013977491246, 45.750234314931525], [9.472252317101836, 45.74953127620756], [9.47255721071799, 45.74834130031342], [9.472671823445527, 45.74713499721129], [9.472688480440322, 45.7460638369002], [9.472616563363434, 45.74489256153757], [9.472365247185634, 45.74373348426955], [9.471937454876969, 45.74260003521975], [9.471338153427066, 45.74150534676761], [9.47096038954944, 45.74091286872795], [9.470445881122407, 45.74018086365172], [9.469854570441624, 45.739477878537116], [9.469401528662868, 45.7389826681298], [9.469295929688052, 45.738867260833246], [9.46848186932925, 45.73806059914492], [9.467566807480976, 45.7373088936408], [9.467004563618174, 45.736887330348395], [9.466221601378743, 45.73628710992043], [9.465216116712455, 45.7355837061268], [9.464736547936136, 45.73527755698827], [9.464635598494468, 45.7352136977745], [9.46456440366461, 45.734974031534456], [9.464505613533735, 45.73481144128886], [9.464357389687692, 45.734322524242266], [9.463820205100115, 45.733184646909415], [9.463761836283282, 45.73308060088568], [9.463740893229081, 45.73304903233054], [9.463479519124492, 45.732522764210806], [9.463390677481382, 45.73236909341633], [9.463293256159114, 45.73220446623048], [9.463238789686534, 45.732114513713405], [9.463234946898284, 45.73210874872562], [9.463519813857546, 45.73164181956478], [9.464127129089217, 45.73046273858711], [9.464316875814761, 45.7300151577136], [9.46452733386033, 45.729725056566885], [9.4651336814535, 45.728780528077436], [9.465609171086092, 45.727799933272664], [9.46594950955405, 45.72679214033041], [9.466151626468832, 45.72576626291823], [9.46621370176861, 45.72473157774483], [9.466135181905102, 45.723697440654774], [9.46591678456953, 45.72267320202564], [9.4655728934846, 45.72170310691002], [9.465592909736657, 45.72152354944742], [9.465593796846877, 45.72068316315531], [9.46552732508759, 45.719453684413836], [9.465514988339148, 45.71796821069697], [9.46555087489798, 45.716803058817476], [9.465511757723185, 45.715761203675825], [9.465330659053137, 45.71472673802939], [9.465009245035713, 45.71370913473602], [9.464733542565453, 45.71299918305739], [9.464250675228698, 45.71196338033369], [9.463622500245478, 45.71096656117115], [9.462855311891033, 45.71001870170532], [9.461956794553608, 45.70912928760237], [9.460935945628268, 45.708307219212436], [9.45980298533249, 45.707560722592845], [9.458569254350964, 45.70689726728659], [9.45724710033615, 45.70632349167458], [9.455849754399665, 45.70584513664363], [9.454391198827135, 45.7054669882296], [9.452886027334182, 45.70519282980535], [9.451349299253547, 45.7050254042883], [9.449796389102007, 45.70496638674249], [9.448242833020412, 45.7050163676473], [9.447042197527264, 45.70514003295131], [9.446484688092973, 45.70515910873782], [9.445153895412114, 45.70528595876955], [9.445134365190174, 45.70528904224161], [9.445077370708688, 45.705293650503805], [9.444811788385858, 45.70530132097839], [9.444637195827474, 45.70531073859192], [9.443048294503075, 45.70545444964879], [9.441488932023978, 45.705711963811616], [9.439975664584935, 45.70608054708606], [9.438524559813793, 45.70655628618863], [9.437151026412542, 45.707134130026276], [9.435869650737889, 45.70780794324154], [9.434694042046042, 45.708570571259536], [9.434585076548856, 45.70865748369574], [9.43452980029282, 45.70867250564015], [9.433158842389615, 45.70915910479462], [9.431863140698653, 45.7097381534652], [9.430744612480654, 45.710354789346276], [9.430675453137225, 45.71032057103123], [9.4299148644246, 45.709981420186296], [9.428254602157653, 45.70933727771837], [9.42649470619026, 45.70883964953089], [9.426404507912716, 45.70881853007464], [9.42584919206677, 45.708688562719765], [9.424317234205406, 45.7083900757753], [9.422749779815138, 45.70820277321358], [9.421163220569902, 45.70812861376628], [9.41957414759405, 45.70816837297742], [9.418754680389695, 45.708248119112895], [9.418365841958241, 45.70797413083525], [9.41721993667892, 45.70730819453295], [9.415988382223075, 45.70672210413925], [9.414989294222675, 45.70633891434637], [9.414939371059642, 45.70539423760714], [9.414743979783717, 45.704365667211434], [9.414409776999818, 45.703354792921644], [9.41393980345564, 45.702370789842895], [9.413338331588998, 45.70142258871809], [9.41261082651982, 45.700518794917954], [9.411763896251982, 45.69966761039836], [9.41080523154383, 45.69887675933045], [9.409743535998441, 45.69815341807594], [9.409375054940584, 45.697925257142906], [9.409366373229235, 45.697919738635946], [9.409239804152403, 45.69784016520428], [9.409011323349754, 45.697698092557516], [9.408645227771226, 45.69747044746037], [9.40751712754128, 45.69683230710825], [9.406309103147336, 45.69627059250205], [9.405329978300383, 45.69586005294768], [9.405249344659225, 45.69582981199232], [9.405201666669052, 45.69579418903459], [9.404092277890525, 45.69510921741664], [9.402895047987865, 45.69450121236293], [9.401620810914604, 45.69397567451845], [9.400281096285935, 45.6935373583077], [9.398888025158799, 45.69319022898568], [9.39745420050231, 45.69293742682133], [9.395992593343447, 45.69278123873482], [9.39451642561063, 45.692723077643215], [9.393039050726664, 45.69276346969988], [9.391573833022193, 45.69290204954209], [9.390134027051118, 45.69313756358957], [9.388732657890182, 45.693467881364256], [9.388066038661613, 45.69365017060075], [9.386645381589588, 45.69409733742022], [9.38529569625038, 45.69464188598107], [9.384672913000335, 45.69495519231008], [9.383933319776487, 45.69524898099714], [9.382726068571362, 45.69584091570977], [9.381604208769131, 45.6965102949889], [9.380737493615642, 45.69713586189263], [9.380245187055502, 45.697223906619456], [9.378828440412034, 45.6975827424229], [9.377467904539717, 45.6980359913611], [9.376176356705407, 45.69857939732258], [9.374965927350898, 45.699207857459236], [9.373847986269208, 45.6999154700336], [9.37283303587223, 45.70069558976415], [9.372282627795101, 45.70121116117108], [9.37186653376194, 45.70151630367179], [9.370892809532716, 45.702394534164284], [9.370572755703243, 45.702753556946675], [9.370404874220295, 45.70286811831041], [9.369156516547656, 45.70382804846044], [9.368080068554535, 45.70488525819362], [9.367898156090337, 45.705088546838816], [9.367270276102184, 45.705292559484825], [9.36602501782882, 45.70580017119287], [9.364852160380762, 45.70638636757001], [9.364663338166517, 45.70650061823185], [9.36439085032279, 45.70662491304852], [9.363565953654629, 45.7070908569439], [9.362572628848923, 45.70736696680154], [9.361898874907206, 45.70761273592154], [9.361849248276968, 45.707619954477856], [9.36050814497639, 45.7078590957197], [9.35920269838261, 45.70818083798119], [9.357943249599789, 45.708582632756666], [9.357319985150973, 45.70883052998444], [9.357319547306131, 45.708830439930885], [9.355833704184729, 45.708632163328176], [9.354327396520473, 45.70853597487296], [9.352814877227779, 45.708542784740736], [9.35131045790083, 45.70865252852009], [9.349828373630878, 45.70886416782019], [9.348382648540856, 45.70917570007859], [9.346986963298875, 45.709584177477204], [9.345654525854044, 45.710085734789274], [9.344397946608686, 45.71067562589564], [9.343229119200446, 45.71134826862795], [9.342159108016574, 45.712097297517374], [9.34119804350079, 45.7129156239533], [9.34035502624171, 45.713795503186596], [9.33963804075085, 45.71472860754706], [9.339053879748878, 45.715706105185916], [9.338825273557108, 45.71614782336138], [9.338614643472491, 45.71664271468813], [9.338089953504744, 45.71725047708409], [9.337679723304207, 45.71780159624296], [9.337427773902931, 45.717965210699965], [9.336441654034028, 45.718740403434765], [9.335565374714273, 45.71957784582612], [9.334806902934941, 45.720469928837694], [9.334173136288971, 45.72140854659264], [9.3336698401421, 45.72238516996285], [9.333543048461161, 45.72267356357385], [9.333179064284735, 45.7236648798375], [9.332991036029544, 45.72449303193689], [9.332620474728449, 45.724938048233646], [9.331980815543135, 45.725917304486636], [9.331482343174827, 45.72693601563836], [9.331266724785246, 45.72757736448601], [9.330639378833087, 45.728268150899424], [9.329944551294338, 45.72923263577806], [9.329389556170849, 45.73024058251018], [9.328979860713652, 45.731282075752006], [9.328719503576295, 45.73234686960012], [9.328611054780277, 45.733424488342266], [9.328655590101718, 45.73450432949073], [9.328665418878412, 45.73455776256839], [9.328554020884319, 45.734780572512896], [9.328539505714652, 45.734796690771084], [9.327785087705847, 45.73573405706998], [9.327166416489844, 45.736718975124255], [9.326689536794575, 45.737741833404904], [9.326455033542583, 45.73848760081325], [9.32611106126878, 45.738794995105], [9.325548804493957, 45.73913273460138], [9.324486078901959, 45.739911210434485], [9.323538321101417, 45.74075936438373], [9.322714800315444, 45.74166890620709], [9.32202357261126, 45.742630945212866], [9.321471401982533, 45.74363607708561], [9.321063694007874, 45.74467447574639], [9.320804442742142, 45.745735989352816], [9.32069619136964, 45.746810239503205], [9.320693725128454, 45.7468925537701], [9.32072732581797, 45.74787188311594], [9.320737210206811, 45.747932325320335]]]}}, {"type": "Feature", "properties": {"rule": "ADJACENCY_1_PLUS_V1_WALK_GUARD", "selected": false}, "geometry": {"type": "Polygon", "coordinates": [[[9.307117012007346, 45.73382839533985], [9.307095010310523, 45.73410107895771], [9.307166043789955, 45.73520472511514], [9.307355424143825, 45.7361033044667], [9.307247337616468, 45.73676223160819], [9.307229229294908, 45.73696056982087], [9.307201334906805, 45.73711592446876], [9.307079952379022, 45.73851636281642], [9.307081777842738, 45.73884937706954], [9.307163501882572, 45.73992332182784], [9.307396106510907, 45.740986385748776], [9.307777331767479, 45.74202820141513], [9.308050975415163, 45.742553719448566], [9.307911296381178, 45.74308667128184], [9.307713369393941, 45.744116493711005], [9.307656514155392, 45.745154835601745], [9.307741256060709, 45.74619224485137], [9.307966831477408, 45.74721927732891], [9.308331194413658, 45.74822658285921], [9.308831034871636, 45.74920499037045], [9.309461808728761, 45.75014559142822], [9.310217778883878, 45.75103982139461], [9.310241700253824, 45.75106279725923], [9.310199544716447, 45.75157728462833], [9.310268010375022, 45.752675013598555], [9.31049413567697, 45.75376232579984], [9.310875627822126, 45.75482815275375], [9.311408611844984, 45.755861644078266], [9.31172468142037, 45.75632274258161], [9.311775563657099, 45.75640860052632], [9.312407908564603, 45.757346678513656], [9.313164900556878, 45.75823838705401], [9.31403967660394, 45.75907563499277], [9.314667947305622, 45.75957027149731], [9.314558711000672, 45.76000238070692], [9.314440490838782, 45.76103619040488], [9.314463297860888, 45.762073183408795], [9.314626933047586, 45.76310395564223], [9.314929920087547, 45.76411915893149], [9.315055113002947, 45.764401225676686], [9.315122380233026, 45.76465373185335], [9.315559212491788, 45.76569951326425], [9.316143178151428, 45.76670950983861], [9.316868438920237, 45.76767361055681], [9.317727740930525, 45.768582163358836], [9.31871248713697, 45.769426071853225], [9.319812823221993, 45.77019688647657], [9.321017736154031, 45.770886889186336], [9.322315164415143, 45.771489170834215], [9.323692118794652, 45.7719977004411], [9.325134812536978, 45.77240738567495], [9.326628799535383, 45.7727141239218], [9.32798219038363, 45.772891638253924], [9.328112358054005, 45.77293776537926], [9.328719540260922, 45.77323758464543], [9.330057176335572, 45.77376813245334], [9.331463118330882, 45.77420370909076], [9.33236334547557, 45.77441103051604], [9.332518745332882, 45.774461306731745], [9.33377726337351, 45.774770023691225], [9.333867388026, 45.774894039773784], [9.33472042199482, 45.77582166513775], [9.33570320679263, 45.77668414185351], [9.33680566212253, 45.77747261862112], [9.33801647810285, 45.77817900322744], [9.339323231287633, 45.778796045697625], [9.340712512188851, 45.77931741280316], [9.342170062989206, 45.77973775315772], [9.34368092402681, 45.7800527522275], [9.34522958754016, 45.780259176687096], [9.345589985093797, 45.780294087267045], [9.347026767282099, 45.78038601835308], [9.347037766402174, 45.78038600646521], [9.347121862603332, 45.78045459108645], [9.348198120311347, 45.78117860475161], [9.34936859459233, 45.781827126632585], [9.35062251441372, 45.78239418719174], [9.3519483395379, 45.78287456656637], [9.352112220372206, 45.78292061149521], [9.352720717728934, 45.783281352519204], [9.353976566448193, 45.78388870066019], [9.35526561827346, 45.7843892480189], [9.356143872946799, 45.78501848765487], [9.357287603751233, 45.78569395374454], [9.358518797695229, 45.78628943300363], [9.358774707248719, 45.786389268732115], [9.358975940726122, 45.786541915898376], [9.360040101258985, 45.78721317450991], [9.361187999231998, 45.78781312348427], [9.361433183219146, 45.787929362463764], [9.362482304813213, 45.78838532227351], [9.363359414916411, 45.78873356117412], [9.364704275262381, 45.78920883735772], [9.366108533254033, 45.78959091526137], [9.367559028119484, 45.78987621378295], [9.369042165003117, 45.79006205886497], [9.370544042581296, 45.79014670859899], [9.372050583574687, 45.79012936957959], [9.372518505285047, 45.7900921259876], [9.372623639069486, 45.79035421612547], [9.373126046389045, 45.79127615266384], [9.373438174499327, 45.79177917189131], [9.373605892883484, 45.79202288540694], [9.3735974144915, 45.792161305879254], [9.373667587924775, 45.793160644420084], [9.373868576711592, 45.79415126001556], [9.374198691178503, 45.795124790828474], [9.374365161444818, 45.79547061201058], [9.37442300163188, 45.795843164838516], [9.374797964035661, 45.79702126794788], [9.374968056477172, 45.7974437521888], [9.375459075159904, 45.798466273603324], [9.37609231641624, 45.7994498007331], [9.376861574085762, 45.80038468307849], [9.377759306298799, 45.80126174698619], [9.378776709288465, 45.802072385744715], [9.379903803643836, 45.802808644127715], [9.381129532162479, 45.80346329655175], [9.38224830863371, 45.80394634734323], [9.382816736560132, 45.80453186332995], [9.383762149154927, 45.80533021680618], [9.384811835903843, 45.80606207956773], [9.385956286688923, 45.80672081830202], [9.387185131359917, 45.80730046224814], [9.388487233742305, 45.80779575738741], [9.388560782465712, 45.807817681742236], [9.38944236515725, 45.80828600614756], [9.390726462550086, 45.808839916771234], [9.39208120197596, 45.80930431193739], [9.393493862553187, 45.80967483051805], [9.394951178586478, 45.80994799290897], [9.394952400687794, 45.80994813517356], [9.39548195441616, 45.81016393018934], [9.395641051389585, 45.81021576601816], [9.395886684169167, 45.810919669942145], [9.396383161550904, 45.81191357797735], [9.397014574914321, 45.81286931492953], [9.397775028889809, 45.81377794711747], [9.398657420901923, 45.814630980751964], [9.399653507395294, 45.81542044140412], [9.400753980777296, 45.816138948628556], [9.401948556361939, 45.81677978503981], [9.403226068503956, 45.81733695919293], [9.404574575023817, 45.81780526167645], [9.405981468944844, 45.81818031388976], [9.407433596493163, 45.81845860904565], [9.408917380250843, 45.8186375450114], [9.410418946302748, 45.81871544867944], [9.411924254179082, 45.81869159163705], [9.41341922836846, 45.81856619698839], [9.414889890161222, 45.81834043726351], [9.41632248857943, 45.81801642343483], [9.417703629158957, 45.81759718514452], [9.418454580981699, 45.81730602644256], [9.418699143598511, 45.81741516883181], [9.418967714195425, 45.817519566563846], [9.420244921896922, 45.81796376578172], [9.421574911982521, 45.81832438139278], [9.422946523370282, 45.81859838695664], [9.4243482450946, 45.818783482869726], [9.425508248103947, 45.81886078640477], [9.426909090806625, 45.81898471662441], [9.428528136303532, 45.819009421349584], [9.428729948832942, 45.818997794445096], [9.429455120611282, 45.81974273978674], [9.430423511591973, 45.82055518670516], [9.431115325302741, 45.82103260765444], [9.431159823999009, 45.821086306538184], [9.432084128875491, 45.82197939224975], [9.433132859693417, 45.822802561504005], [9.434295272070631, 45.823547376773334], [9.435559454927995, 45.824206203351636], [9.436912452566855, 45.82477228771293], [9.438340397526245, 45.82523982683616], [9.439828652853988, 45.82560402778038], [9.441361962326473, 45.82586115689533], [9.442924607067798, 45.82600857815891], [9.443179773779391, 45.82602350633933], [9.443882367107006, 45.82609398665048], [9.44541794851345, 45.82614102686037], [9.445791282495367, 45.82613957092628], [9.44663230197964, 45.82612039748212], [9.447108502940383, 45.82610052575542], [9.44882748404216, 45.82596146126906], [9.449290498796147, 45.82590563243263], [9.450505924745883, 45.82572389256839], [9.450865882327731, 45.825659468396005], [9.452202973439919, 45.825374897457024], [9.452498470200892, 45.82530172709833], [9.45384324774306, 45.82491851839814], [9.455131117685154, 45.824449407568366], [9.456350883125715, 45.823898473696474], [9.456695892692412, 45.82370860469642], [9.45721507377771, 45.823582901863055], [9.458240523388442, 45.82323133997096], [9.458835645884475, 45.823262818594], [9.460390318604253, 45.823234295170884], [9.460424647900362, 45.823235854839325], [9.461873529322702, 45.82320727627198], [9.463312333238756, 45.82308464378797], [9.464728594285422, 45.82286901986946], [9.466110042748413, 45.82256227263293], [9.467444711032385, 45.82216705961643], [9.46766710310167, 45.8220924911091], [9.468145485160257, 45.821924961198874], [9.468562712928074, 45.82177252278028], [9.46986508971657, 45.821238970686906], [9.471087458649023, 45.82061976976141], [9.472218337536505, 45.81992073784597], [9.47324710496514, 45.8191484426159], [9.474164100081241, 45.81831013979387], [9.47496071329556, 45.81741370490231], [9.475629467055697, 45.81646755919866], [9.476164085931288, 45.8154805904931], [9.476559555358968, 45.81446206959601], [9.476812168502592, 45.81342156318277], [9.476919560797343, 45.81236884389695], [9.476880731863407, 45.8113137985382], [9.476696054594408, 45.810266335198214], [9.4763672713467, 45.80923629021753], [9.4758974772769, 45.80823333583646], [9.475291090995379, 45.80726688940679], [9.474553812821672, 45.806346025014705], [9.472998384535797, 45.804606646837414], [9.472944068063576, 45.80450765792582], [9.472466388120647, 45.80384903730956], [9.472620823710093, 45.80346573907372], [9.472961076808346, 45.80314808656603], [9.47373436792894, 45.802261022142794], [9.474383262690235, 45.80132645269988], [9.474901860540117, 45.80035288567898], [9.475086620152593, 45.799869444377244], [9.475109778343745, 45.79982897788889], [9.475543728849418, 45.798772518525766], [9.475692982553207, 45.79819485808196], [9.47726520582052, 45.79819746286263], [9.478884687103761, 45.798081219289], [9.479543805045687, 45.79798445462308], [9.479917789960803, 45.79794635840643], [9.481315830912418, 45.79771012221913], [9.482676727008311, 45.797384640302624], [9.483988859778018, 45.79697269160858], [9.485241027766266, 45.796477793260244], [9.486422542278403, 45.79590417047633], [9.487523318713892, 45.7952567204434], [9.487685973374484, 45.79515170506536], [9.487923474471323, 45.795063078798115], [9.489144031950806, 45.79449870857258], [9.49028343667573, 45.793856670081865], [9.491331624243994, 45.79314263614872], [9.492279337256432, 45.79236291548882], [9.493118207080357, 45.79152439690223], [9.493606236173125, 45.79098418644911], [9.494349712448797, 45.79006539607149], [9.494962498496866, 45.78910055653498], [9.495438840729504, 45.788098737803566], [9.495774268970006, 45.78706935696962], [9.495965638215754, 45.78602208968603], [9.49601115791606, 45.78496677918611], [9.495910408500265, 45.78391334374817], [9.495664345012017, 45.782871683475314], [9.495275287827148, 45.781851587266786], [9.494746900553897, 45.780862640854686], [9.49462135116969, 45.78065842660707], [9.493966484493658, 45.77971994266052], [9.493186178758052, 45.77882965871584], [9.49228761327675, 45.77799575939764], [9.491279053460964, 45.77722591062636], [9.490169774731392, 45.77652718921986], [9.488969977197442, 45.775906017915716], [9.48769069188902, 45.77536810640804], [9.486799573739757, 45.7750706043475], [9.486572574120423, 45.77497052104261], [9.485224440567535, 45.774496906576545], [9.484653585354462, 45.77434273652349], [9.484873747826384, 45.774244424172345], [9.486065191951457, 45.77365563863591], [9.486381731306961, 45.773483100029736], [9.486703715999264, 45.77334475172117], [9.4869855942854, 45.7732175406768], [9.488072227011411, 45.77267974399687], [9.489089201141713, 45.77207893309666], [9.489370568409559, 45.771897727543916], [9.490508877520908, 45.77108367572266], [9.491519440381195, 45.770190870151886], [9.492391206456714, 45.769229079310094], [9.492543860543822, 45.76903940535323], [9.493225944023965, 45.76808543679032], [9.493396570068464, 45.76777383677703], [9.493463602679572, 45.76770684578045], [9.49347746168336, 45.7676929724213], [9.493745034720295, 45.76742467677381], [9.49382524634475, 45.767345109400374], [9.494623200637603, 45.7664673515417], [9.495297819668872, 45.76554030684561], [9.495842951913625, 45.76457243720237], [9.496253628593006, 45.76357257669784], [9.496526108805197, 45.762549850931435], [9.496657913418355, 45.76151359368918], [9.496647847425173, 45.760473261734035], [9.496496010564849, 45.75943834849234], [9.496431605826677, 45.759213530200476], [9.496431128443598, 45.759203299800994], [9.496235549889155, 45.758154554811256], [9.496042305587984, 45.757568807025564], [9.496693476181514, 45.75773924223327], [9.497724177476975, 45.75796876877793], [9.498353672175313, 45.75809877682494], [9.498566777497592, 45.75813938828491], [9.498903566220996, 45.75820363673793], [9.499829228844542, 45.75835909000279], [9.500369996721737, 45.75843773863324], [9.50212143371734, 45.758620405688404], [9.50264895254653, 45.75865408547971], [9.503006731733366, 45.7586658840271], [9.503996570800195, 45.75891486901224], [9.505458041098814, 45.75917394204136], [9.506948481757734, 45.75933277209944], [9.508453891064432, 45.759389867105305], [9.509960126449448, 45.75934469071672], [9.511453037578825, 45.759197667376405], [9.512918599519798, 45.758950178316454], [9.514343044717828, 45.75860454855911], [9.51571299253479, 45.75816402503696], [9.517015575121727, 45.75763274604008], [9.518238558435389, 45.75701570227933], [9.519370457254736, 45.756318689934524], [9.519971102223444, 45.75591101648686], [9.521116419332117, 45.75502999969358], [9.521141923893865, 45.7550285609351], [9.522508688101624, 45.75490862576785], [9.523854931577555, 45.754704517460326], [9.525170095247418, 45.75441783696908], [9.526443864229224, 45.75405083287729], [9.527666248854086, 45.753606383728425], [9.528229821306034, 45.753378744735414], [9.52935154246138, 45.752879761764405], [9.530408311933414, 45.75231556769091], [9.530446724449838, 45.752293179745756], [9.531047219053546, 45.752065440521086], [9.531852113593754, 45.75168452244856], [9.532533889386114, 45.75146069803732], [9.533827509184857, 45.75092369984444], [9.535040987309909, 45.7503017491935], [9.536162980026623, 45.74960066162279], [9.537183000179658, 45.74882699240125], [9.538091515239572, 45.74798797515691], [9.538880036368473, 45.74709145416526], [9.539541197673316, 45.74614581093445], [9.540068824909271, 45.745159885776864], [9.540320659114615, 45.74460969835017], [9.540673773466494, 45.74370623110621], [9.540914692466634, 45.74278486030678], [9.541041639341096, 45.74185240235773], [9.541064402333024, 45.74154628122164], [9.541074221640594, 45.74056644288934], [9.541058593443779, 45.740278494222515], [9.541039372272154, 45.740123975391214], [9.541252978041355, 45.73989537660997], [9.54196261560263, 45.73894244400462], [9.542534643588478, 45.73794517321393], [9.542963497923923, 45.73691327766815], [9.543081297368806, 45.73647119959053], [9.54323505211732, 45.73625215889776], [9.543304228465201, 45.73616408539452], [9.543830387128295, 45.73542989909672], [9.544276011496839, 45.73467002820049], [9.54442743278371, 45.734381284670036], [9.544897121626018, 45.73332167768588], [9.545210412537813, 45.73223410339131], [9.545364062878754, 45.73112985032094], [9.545356487377477, 45.73002037946186], [9.545187774195904, 45.728917205282414], [9.544859683619242, 45.72783177623342], [9.54437562940164, 45.7267753559624], [9.543740642976996, 45.725758906472095], [9.542961320921309, 45.72479297443351], [9.542868684924922, 45.72469069492956], [9.54270051323695, 45.724505066824825], [9.541817701939884, 45.7236291089009], [9.540816219414689, 45.722818189309095], [9.540070386006187, 45.72232249691696], [9.539756655904249, 45.722069901032256], [9.539742749556925, 45.721479187752976], [9.539589507020365, 45.720488957205134], [9.539307755658124, 45.71951267379034], [9.538899858487584, 45.718558502542216], [9.538369233053944, 45.717634423156895], [9.538199686048458, 45.71737420325705], [9.537503738013667, 45.716430742822595], [9.537208339556274, 45.716111068886875], [9.537007102215277, 45.71559205824812], [9.53688898245217, 45.71533159457598], [9.536544707559047, 45.714651402145996], [9.536455630225722, 45.714492347108504], [9.5364531782032, 45.71448588333492], [9.536400253271779, 45.71433167228214], [9.536335434052452, 45.71417549627575], [9.536280545507422, 45.71403080255133], [9.536238012754595, 45.713940766796675], [9.535992365886308, 45.71334888942439], [9.535454602286002, 45.7123972672758], [9.534791717258155, 45.71148520846763], [9.534492613955463, 45.71111749303527], [9.53368442132002, 45.710227120374014], [9.532757060672138, 45.709395711419006], [9.53171923885567, 45.708631067639146], [9.530580698015935, 45.70794036372097], [9.529352124139255, 45.707330080328], [9.528045046792219, 45.706805943373375], [9.526671730999952, 45.70637287037215], [9.525245062274545, 45.70603492437274], [9.523778425866807, 45.70579527589681], [9.52228558136727, 45.70565617324187], [9.52078053382424, 45.70561892142278], [9.519277402578416, 45.70568386994853], [9.51779028903419, 45.70585040954751], [9.516333144597398, 45.70611697787233], [9.514919640007747, 45.70648107413067], [9.51356303728164, 45.70693928250658], [9.513208901330362, 45.70709008409863], [9.513188938081681, 45.70709515630242], [9.51213896309704, 45.70743947672092], [9.511373156297463, 45.70743584739702], [9.511077758477485, 45.70744618263062], [9.509630214828057, 45.70754454207912], [9.508202118181156, 45.7077372345092], [9.50790095119513, 45.70779878727116], [9.50770356933464, 45.70768085586428], [9.507342074304429, 45.70748444829289], [9.506151973404766, 45.7068981854457], [9.50488887857739, 45.70639242861902], [9.503563849977622, 45.70597160574357], [9.502188489148448, 45.705639401065596], [9.501416279743053, 45.705480780753625], [9.499955033182438, 45.70523367797278], [9.499577072433702, 45.70519633435554], [9.49919870716439, 45.705085064805544], [9.497721356722185, 45.704767202746005], [9.496206271042912, 45.70455367928263], [9.495794809563973, 45.704510469621596], [9.495593487769925, 45.70449026986098], [9.495233485977048, 45.70445583035971], [9.493595762749136, 45.7043605751852], [9.49201935201107, 45.70438590798709], [9.492017230973548, 45.70422070925594], [9.491853205220979, 45.70315515759995], [9.491540510547225, 45.70210606038824], [9.49108218292919, 45.70108357582254], [9.490482667814979, 45.700097603880884], [9.48974777680342, 45.699157690513616], [9.488884631136546, 45.698272935284635], [9.48833053377172, 45.697810158254384], [9.48790716434256, 45.69688435335681], [9.487287197996668, 45.69588527238294], [9.486527916744716, 45.69493459037078], [9.485636923250864, 45.694041817943], [9.484623136573749, 45.693215885966026], [9.483496702793873, 45.69246505629824], [9.482268893432135, 45.691796839238606], [9.480951992678058, 45.69121791849699], [9.479559174555373, 45.69073408443201], [9.478104371250472, 45.690350176219546], [9.476602133915014, 45.690070033526375], [9.476074928432526, 45.68999126638062], [9.473891277818382, 45.68977708557435], [9.47374311435131, 45.68977000749982], [9.473555904435974, 45.68975767833597], [9.472980078443188, 45.68972730648787], [9.472568971540056, 45.68971099794454], [9.471155532461207, 45.68970004415311], [9.470925961284259, 45.68970558578064], [9.470923858291162, 45.689704065136546], [9.469781749194777, 45.68902364583155], [9.46855143803478, 45.688423502306065], [9.46724437010498, 45.687909216325046], [9.465872703529566, 45.68748557098324], [9.464449196288541, 45.68715650628625], [9.462987087707411, 45.68692508256457], [9.462020929265677, 45.686839566124], [9.461737125311132, 45.68680207826365], [9.46037832186108, 45.68666582273208], [9.459007667017012, 45.68661412771449], [9.457635850169936, 45.68664739639281], [9.457109546252058, 45.68667650863423], [9.455454520868209, 45.68683110580143], [9.45383270192723, 45.687109246921885], [9.453722065652077, 45.68713270080458], [9.453139856807699, 45.68722312691058], [9.452942464563028, 45.68726943378527], [9.451620770829475, 45.687013893485435], [9.450125884895268, 45.68683241517865], [9.448612878910287, 45.68675395531615], [9.447096167518826, 45.68677926143078], [9.44579651642761, 45.686890443956734], [9.445409884498517, 45.686679133145674], [9.444066053773769, 45.686088391488575], [9.444040866709013, 45.68607968780172], [9.443959696535686, 45.68592381320276], [9.443790327466216, 45.68561843702006], [9.443715398239162, 45.68548591173982], [9.443505267053641, 45.685121241387364], [9.443041711582897, 45.68423838930954], [9.442394054897552, 45.68329561831557], [9.442016447437055, 45.68285889597957], [9.441817132325752, 45.68213695109195], [9.44141771323683, 45.68117486695509], [9.440893855475299, 45.68024258309077], [9.440662208374546, 45.67988017161108], [9.440256868875682, 45.67924599873494], [9.439814242970513, 45.678627417833134], [9.439631606665138, 45.678121811896276], [9.439114653062804, 45.677116962943195], [9.438815416870941, 45.67661406354839], [9.438139836172187, 45.67562261683293], [9.4373252162067, 45.6746839285715], [9.43637985257851, 45.67380755009896], [9.435880502141224, 45.673430564627125], [9.435691748694751, 45.67323185382925], [9.434730820884878, 45.672407689867356], [9.4336597470961, 45.67165321658948], [9.433547657384599, 45.67158162245443], [9.433491521029993, 45.671545942095385], [9.43315204486405, 45.67133122412319], [9.431941370375828, 45.67063957912223], [9.430637787353255, 45.670036636960006], [9.429254467322261, 45.66952848860191], [9.42780538610078, 45.669120267257], [9.42630518275806, 45.66881609660157], [9.425242138989905, 45.66867974040504], [9.425195611118234, 45.668645162324], [9.424024668521696, 45.6679328174806], [9.422758311895619, 45.66730583753807], [9.421409151526495, 45.66677046450549], [9.41999062084547, 45.66633202822721], [9.419319803983353, 45.66617857804872], [9.419291314433956, 45.666162853428936], [9.418631125819626, 45.66559883613822], [9.41757984402183, 45.66485846196097], [9.416432249181241, 45.6641921104437], [9.415198900053138, 45.66360591071268], [9.413891143053386, 45.66310525448279], [9.412521007957087, 45.66269474653607], [9.411101097358355, 45.66237816243249], [9.409644470902583, 45.66215841383933], [9.408164525349093, 45.66203752179523], [9.406674871559064, 45.6620165981531], [9.40518920953096, 45.66209583537102], [9.404329699017874, 45.6621708822299], [9.402826706746593, 45.6623550507069], [9.401356722362948, 45.662641712333254], [9.399933923554915, 45.66302810245091], [9.398572033687817, 45.663510494509644], [9.39728418961886, 45.66408423594993], [9.396082815123377, 45.66474379300659], [9.394979501146732, 45.66548280400478], [9.39398489403211, 45.66629414063765], [9.393108592799766, 45.66716997663883], [9.392359056468417, 45.668101863191524], [9.391743522315032, 45.66908081035054], [9.391267935866106, 45.67009737369602], [9.390936893302536, 45.67114174538614], [9.39075359684243, 45.672203848733574], [9.39071982354255, 45.67327343539553], [9.390835907830946, 45.674340184241274], [9.391100737951577, 45.67539380094441], [9.391284441770964, 45.67596022714153], [9.3918698363926, 45.67733747745736], [9.39187492145816, 45.67734707520308], [9.391645281019649, 45.67785096912686], [9.391611736354553, 45.67795859266536], [9.391405425344068, 45.6783041087063], [9.390958235294868, 45.679322874562295], [9.390655244577271, 45.68036740292417], [9.390499363233847, 45.68142768968457], [9.390492092676688, 45.682493579243115], [9.39059166767868, 45.68324085035835], [9.390478958929556, 45.68318499617682], [9.389808863413844, 45.682780017489904], [9.388599813918217, 45.68217988308324], [9.387314740079386, 45.68166317540006], [9.386794376882433, 45.681497906788145], [9.386726888610225, 45.681453564608525], [9.385974683667039, 45.68078668211184], [9.384875332000604, 45.67999294877868], [9.384720136806123, 45.679901584664954], [9.384252395469238, 45.67952872445524], [9.383103299463391, 45.67878053398875], [9.382031132425736, 45.678212069295114], [9.381914850846522, 45.677972746090255], [9.381284688479045, 45.677000271843966], [9.380521690777458, 45.67607574006633], [9.379633200646676, 45.675208040573125], [9.37946862785139, 45.67507668293421], [9.378934494413015, 45.674559007047584], [9.377974834051706, 45.67379182810666], [9.376916994559148, 45.67309096849426], [9.375977552464514, 45.67257617183261], [9.375428321537967, 45.67186731469786], [9.375255033516948, 45.671668102014046], [9.375223873236836, 45.67163227849454], [9.374975487786777, 45.67134673210226], [9.37414695629726, 45.67048886457917], [9.37320593054079, 45.66969006448171], [9.37216092742574, 45.66895755762373], [9.371021403300855, 45.66829796987821], [9.369797668384892, 45.66771726731574], [9.3685007935223, 45.6672207023118], [9.367142510106735, 45.66681276610692], [9.365735104074213, 45.66649714824598], [9.364291304919698, 45.6662767032605], [9.363623236350138, 45.66619781557812], [9.362093406905373, 45.66607146013616], [9.360553252698379, 45.6660519447605], [9.359017911433321, 45.66613946128943], [9.357502473598911, 45.66633314956945], [9.356021834401863, 45.666631105894], [9.354590547602951, 45.66703040168224], [9.353222682680528, 45.66752711221564], [9.352277894483379, 45.667958339889395], [9.35164073516783, 45.668105996307965], [9.350258831333239, 45.668534642929615], [9.348942846189113, 45.66905538418191], [9.347705228754426, 45.66966329472283], [9.34655768790281, 45.670352624557175], [9.346045803951233, 45.67072640450922], [9.345665352941072, 45.670988163352284], [9.344517294468753, 45.67188990089838], [9.343876546610828, 45.6722336617013], [9.343777047848125, 45.67229800300734], [9.343145410277323, 45.672488681426046], [9.34137249423012, 45.67312106979879], [9.34004056508138, 45.673674087454025], [9.338672247366437, 45.67431714605593], [9.338621077025948, 45.67431912059523], [9.337632919001324, 45.67439404669044], [9.336053319632294, 45.6745718843694], [9.334734616901471, 45.67482003103174], [9.33468415153357, 45.674821955681686], [9.333152271773656, 45.674988839869485], [9.331651730984566, 45.675261900585305], [9.330197463056615, 45.67563842034864], [9.328803942139412, 45.67611465198679], [9.32852211108427, 45.676223483879106], [9.327191067557612, 45.676800551556745], [9.325949567955682, 45.67746855107263], [9.324810208118867, 45.67822070695505], [9.323784549246273, 45.67904938984895], [9.322826457128542, 45.67990718055016], [9.32275758914885, 45.67996929841554], [9.322310496795504, 45.680375584632515], [9.321470509395395, 45.68121832746161], [9.32074760373395, 45.682112827846986], [9.320461479903402, 45.682560741155605], [9.319390378693459, 45.683019411245034], [9.318105934836952, 45.68370736399523], [9.318077379550127, 45.683726256771116], [9.317070705883168, 45.68419194164036], [9.316302402745476, 45.68458110324786], [9.315138123458874, 45.68523257450008], [9.314068181228077, 45.68595919135451], [9.313558557042375, 45.68637875156181], [9.312802915774567, 45.686802782491185], [9.311620056328877, 45.687627048098435], [9.310570036631779, 45.688535417162406], [9.309664957866742, 45.68951742678601], [9.309141919722311, 45.69015789827674], [9.308437958879834, 45.69112965694555], [9.307876078838532, 45.69214585395888], [9.30746191262761, 45.69319631580418], [9.30719961522759, 45.694270525356046], [9.307091821654915, 45.695357727124964], [9.307139620236073, 45.69644703491572], [9.307342541352439, 45.697527540818946], [9.307698561782804, 45.69858842444504], [9.30801111077615, 45.69922558942413], [9.308006719032242, 45.69923604457323], [9.307932058145644, 45.69941378316752], [9.307574076492921, 45.700451190742434], [9.307362718950793, 45.701508168897576], [9.30730002353733, 45.7025745673236], [9.307386600829412, 45.70364014467249], [9.307435188869913, 45.70385815352832], [9.307396295677181, 45.70408018533799], [9.307285022148356, 45.70514497878766], [9.30732308325348, 45.70621228939833], [9.307510121705505, 45.70727186011154], [9.307656171913498, 45.707727043821386], [9.30774455568864, 45.708209583687896], [9.307755742364051, 45.70824321017557], [9.307807166844873, 45.70858365243798], [9.307876773112408, 45.70881675571958], [9.307889700465909, 45.7097337106671], [9.30805440717772, 45.7107968829456], [9.308093975325932, 45.71097173389766], [9.308410309942971, 45.712028034906574], [9.308874346192646, 45.713057212012814], [9.309481533940396, 45.71404915589677], [9.309575069093246, 45.71416789747633], [9.30988797652661, 45.714661749636505], [9.310630304552522, 45.71558110721056], [9.310646982314323, 45.715597759485135], [9.310645086315525, 45.71595604091729], [9.310647356351586, 45.71599354106613], [9.310782539130733, 45.71703702445276], [9.31080688942794, 45.717127299452926], [9.310829688334632, 45.71751197749061], [9.310861127633332, 45.71774851383642], [9.311041629618451, 45.71867421731418], [9.311334741744055, 45.71958567686877], [9.31148669331812, 45.71997869717495], [9.311913804115658, 45.72090311269588], [9.311691145726082, 45.72101560741819], [9.310564329810855, 45.72170984399421], [9.309538283999887, 45.72247692591063], [9.308622566878046, 45.723309710297535], [9.30782571081693, 45.72420044214908], [9.307155142414603, 45.72514082646353], [9.306617113181632, 45.726122105420835], [9.306216641123996, 45.727135139881995], [9.305957463773764, 45.72817049445436], [9.305842003113424, 45.72921852533287], [9.305871342730217, 45.73026947010108], [9.306045217423815, 45.73131353865648], [9.306362015375273, 45.732341004414124], [9.306818792868233, 45.733342294938296], [9.307117012007346, 45.73382839533985]]]}}, {"type": "Feature", "properties": {"rule": "ADJACENCY_2_PLUS_V1_WALK_GUARD_SENSITIVITY", "selected": false}, "geometry": {"type": "Polygon", "coordinates": [[[9.276272204286084, 45.717570738900335], [9.276066620989974, 45.71824218484688], [9.27604009466249, 45.718354097715235], [9.27595373205594, 45.71871815840971], [9.275777602518897, 45.71978163274197], [9.275751388032006, 45.72085208171806], [9.275875350484684, 45.7219191611729], [9.276148300424321, 45.7229725589205], [9.276567608224429, 45.72400209442446], [9.277129229186704, 45.72499781721828], [9.277827742346313, 45.72595010312223], [9.277894376864657, 45.72603090758876], [9.277929534766997, 45.7260733209836], [9.278483353633675, 45.72673796983197], [9.27925656696686, 45.72757531421327], [9.280135918911116, 45.72835960964142], [9.281114038833092, 45.72908427844945], [9.281778953789303, 45.729494275086644], [9.281879897991448, 45.73000939139389], [9.28227566896061, 45.73113011746766], [9.28250394070448, 45.73157010199662], [9.282754395989006, 45.73248853044699], [9.283180788467865, 45.73350416520871], [9.28374599132397, 45.7344860088321], [9.284444670284417, 45.73542478251536], [9.285270228721066, 45.73631161403608], [9.286012506407653, 45.736961067848355], [9.286039868269011, 45.73702657758836], [9.286625826844752, 45.73803936329485], [9.287353797885002, 45.73900592955363], [9.288216457813292, 45.73991654302898], [9.289205125492105, 45.7407620333786], [9.290309849476788, 45.741533885691524], [9.291519508128314, 45.74222432633512], [9.29221736716951, 45.74254693357293], [9.292683456934597, 45.74280382674769], [9.293041361137893, 45.74296562470244], [9.292711371331096, 45.74310737982002], [9.291685845456925, 45.74363315614391], [9.290827032132313, 45.74411238351478], [9.289709753261478, 45.74479945315804], [9.288691258024725, 45.74555807172816], [9.288491699780202, 45.745721725175706], [9.288385180936817, 45.7458090788539], [9.288140783357496, 45.746009501770956], [9.287210914471629, 45.74685222190345], [9.28640301760974, 45.74775448796077], [9.285724820625555, 45.74870767617441], [9.285182812741752, 45.749702675617364], [9.284782182313057, 45.750729975223365], [9.284526766980527, 45.75177975464649], [9.28441901670269, 45.75284197809545], [9.284459970027607, 45.75390649024748], [9.284482671724042, 45.75403322486796], [9.284450245937373, 45.75473508816984], [9.284467212881477, 45.75554510124674], [9.284579736530697, 45.75670252935621], [9.284605211226546, 45.7568036674182], [9.284366937622215, 45.75731485952496], [9.28406010260503, 45.758239747974365], [9.284029044861388, 45.75839294174941], [9.28388573281458, 45.758725813858355], [9.283588790837507, 45.759787453618785], [9.283443776926308, 45.76086447581827], [9.283452130590254, 45.76194625442123], [9.283613778266782, 45.763022115855186], [9.283927133698484, 45.764081444325065], [9.284389113243034, 45.76511378658128], [9.284995165978405, 45.766108955106844], [9.285739318318962, 45.76705712870341], [9.286614232713534, 45.76794894948136], [9.287611279855776, 45.76877561529315], [9.288720623701803, 45.76952896669411], [9.289931318461106, 45.77020156756819], [9.290615591059728, 45.770544358127836], [9.290911928679712, 45.77075601681156], [9.292113624960516, 45.77145720960972], [9.293409885649659, 45.77207040231894], [9.294787604807913, 45.77258939389605], [9.29623285148814, 45.7730089357751], [9.297731010753273, 45.77332478502631], [9.2992669316657, 45.77353374733353], [9.300825080741582, 45.77363370935244], [9.302389699306442, 45.77362366011944], [9.303944963147591, 45.773503701292775], [9.305475142834903, 45.77327504612176], [9.306155697778996, 45.77312198154208], [9.307348952825489, 45.77307004104596], [9.308843933208678, 45.772901776615996], [9.310308457813557, 45.77263262286278], [9.31088653963705, 45.772505040597444], [9.310904058087878, 45.772500473560406], [9.311808419911154, 45.7729997914235], [9.313086479613013, 45.773573515410106], [9.314438375281316, 45.774057336923185], [9.315851233092262, 45.774446648051295], [9.317311597690052, 45.77473774091906], [9.31823309739117, 45.774855001364074], [9.318274079781265, 45.774915411890426], [9.319039787262737, 45.77581111205066], [9.319924535053135, 45.776651401122564], [9.320323124473102, 45.77696252046469], [9.320676576580505, 45.77772393632634], [9.320858568337245, 45.77805644138511], [9.320974394451401, 45.77824121315186], [9.321075245924458, 45.77861695422067], [9.321433021243838, 45.779662429649534], [9.321936378991557, 45.780678128542775], [9.322580421406808, 45.78165415232773], [9.323358878741855, 45.782580988589466], [9.324264170133798, 45.78344960384697], [9.32528747730644, 45.78425153167568], [9.326418830390516, 45.784978955314045], [9.327647205030091, 45.78562478394449], [9.328960629830407, 45.78618272190132], [9.330346303099137, 45.78664733012646], [9.331790717739812, 45.78701407926978], [9.332300934072398, 45.787124011571365], [9.333095102718287, 45.78730400084805], [9.334527882056559, 45.787576630642754], [9.335991281675309, 45.7877524995928], [9.336990428915183, 45.78780480208353], [9.337045110637705, 45.78797810619548], [9.33756208440736, 45.78906154061712], [9.338238437332745, 45.790101133085145], [9.338684225397746, 45.790700755578946], [9.339361394033899, 45.79152212309448], [9.34013814348857, 45.79229916774343], [9.340914449453551, 45.793007917492226], [9.341805269311164, 45.79375027616953], [9.342786936920898, 45.7944342827634], [9.343851677025999, 45.79505451745015], [9.344728757021254, 45.795479094677944], [9.345049956555666, 45.795735723458016], [9.345234235563897, 45.79585705423613], [9.345268735693882, 45.79588536327886], [9.345464874905536, 45.796195100316055], [9.346207592358112, 45.79711514125184], [9.346746919279424, 45.797653635661625], [9.345374737194021, 45.79797794332374], [9.344017108668833, 45.79840363618954], [9.342723743387502, 45.79891800903881], [9.341506446970934, 45.7995163675293], [9.340376331826606, 45.80019325067048], [9.3393437157785, 45.8009424805935], [9.338418027899053, 45.80175721886214], [9.337607722401417, 45.80263002881478], [9.336920201378655, 45.803552943370924], [9.33636174709773, 45.80451753768744], [9.335937464470765, 45.80551500600386], [9.335651234234904, 45.80653624197841], [9.335505677275815, 45.80757192178347], [9.33550376408146, 45.80813326605798], [9.335462673104402, 45.80821064375541], [9.335069062167399, 45.80926413545537], [9.334827831931069, 45.81033984790923], [9.334741402406328, 45.81142702905457], [9.33481064656374, 45.812514811572655], [9.335034881248008, 45.813592321506896], [9.335411873647047, 45.81464878697271], [9.335937863265427, 45.81567364587161], [9.336607599196286, 45.81665665153124], [9.337414392331894, 45.81758797521305], [9.338350182002092, 45.81845830445982], [9.33940561638355, 45.81925893629583], [9.339497052892378, 45.81931570026125], [9.339271831094305, 45.82005621327604], [9.338498335863145, 45.822302160049986], [9.338381648293218, 45.82266860032499], [9.338256140430897, 45.82309745048005], [9.338120601319497, 45.82356063432429], [9.337983541772706, 45.82402896477191], [9.337908037210063, 45.82428783730556], [9.337739236912602, 45.82486380159035], [9.337589532182632, 45.82546192376612], [9.337571865238834, 45.825520690285394], [9.33753948380199, 45.82558477506181], [9.337300419293072, 45.82609805630553], [9.33727559112408, 45.82615622142054], [9.336913532710271, 45.827184417906864], [9.336696004614323, 45.828232335189874], [9.336625071265306, 45.82929006747821], [9.336701411546413, 45.83034761564215], [9.336819602186583, 45.83090297546478], [9.33682251182758, 45.831296936029766], [9.336834652628884, 45.83145317352994], [9.336811679215943, 45.83155125202693], [9.33680618982336, 45.83157188931985], [9.336805558882169, 45.83157738100464], [9.336801640669517, 45.83159410865639], [9.336762963118465, 45.83185463744816], [9.336773615863407, 45.83185541026793], [9.336676907449087, 45.83269713531854], [9.3367149482621, 45.83382569120375], [9.336919913628984, 45.834945431186526], [9.3372896110996, 45.83604432348406], [9.337820077544666, 45.83711055963227], [9.337899228444636, 45.83724649217356], [9.338121463208703, 45.83762814551375], [9.338730112674787, 45.83854823716152], [9.339458539837576, 45.83942478354993], [9.340260662895467, 45.8402111936914], [9.340495865613574, 45.84047856109148], [9.340561053509907, 45.84055018441962], [9.340574037592084, 45.84056442588722], [9.340658899986765, 45.8406573471423], [9.34076027643405, 45.84076819425267], [9.340792715821769, 45.84080351250165], [9.34085859478229, 45.84087493468177], [9.341022814658748, 45.841049279725695], [9.341063728068846, 45.84109182213911], [9.341085884834781, 45.84111543622386], [9.342006099328517, 45.84199653138775], [9.343047842209371, 45.84280885588822], [9.344200662528912, 45.84354425645224], [9.345452993061606, 45.844195351591466], [9.346792266394418, 45.84475560578725], [9.348205041123197, 45.84521939518317], [9.349677136885488, 45.84558206412073], [9.351193776867994, 45.84583997194672], [9.352739736349513, 45.84599052961904], [9.354299495777541, 45.84603222573981], [9.355857396829654, 45.84596464175311], [9.356856083753856, 45.84585041813172], [9.357125011002058, 45.84587379161847], [9.35856761665838, 45.84590512142149], [9.359881527220239, 45.84584848154437], [9.360456355948104, 45.845997826173935], [9.361208947759547, 45.84613323014], [9.361546353624885, 45.84638145942222], [9.362773359741738, 45.847114664589114], [9.363755620362683, 45.84764258035704], [9.364984655807714, 45.84823972115243], [9.366290026504883, 45.84875168699258], [9.367659684447435, 45.849173751944996], [9.367980317973224, 45.849259951747484], [9.36887503423853, 45.84964119660014], [9.37015176038322, 45.85007907980905], [9.371480311423625, 45.85043378814615], [9.37156369961498, 45.85045305328891], [9.372117271868028, 45.85079933286587], [9.372908458479369, 45.85119194985103], [9.373837635010771, 45.85177182244211], [9.374978883672375, 45.852362844429315], [9.375746437333024, 45.8526891761816], [9.3766119956398, 45.85321589404918], [9.376907841587165, 45.8533789631998], [9.37709880173321, 45.853473730698745], [9.377160932096212, 45.85352336784819], [9.378317816865602, 45.85427738425116], [9.379578162735482, 45.85494555161713], [9.38092898117083, 45.855520982345475], [9.382356349664457, 45.85599774459405], [9.383845555367586, 45.85637092351739], [9.384541504460914, 45.85649135905525], [9.384821721457648, 45.856625322762326], [9.386187084280621, 45.857146704141016], [9.387620064287189, 45.857570349802444], [9.389106374327673, 45.85789203554387], [9.390631194617956, 45.858108553757724], [9.39217932072853, 45.85821774546758], [9.39373531544111, 45.8582185218916], [9.395283662946133, 45.858110875317], [9.3968089238305, 45.85789587917588], [9.398295889296477, 45.85757567732189], [9.399729733060964, 45.857153462615535], [9.401096159407976, 45.85663344503373], [9.40132672232285, 45.85653496563517], [9.402939812633845, 45.85584595313819], [9.404108378493504, 45.8552945513437], [9.405200817939333, 45.854671598955456], [9.40620818812496, 45.853982197075716], [9.40712224369976, 45.85323199073315], [9.40762247422663, 45.85278163628338], [9.407679326375641, 45.85272986514628], [9.407693072739386, 45.8527179564133], [9.407721476837168, 45.85269327603665], [9.408393671520816, 45.852107454080056], [9.409111648920192, 45.851429506745006], [9.409430577812508, 45.851073739847656], [9.409652864505913, 45.850834726725616], [9.410175706943539, 45.85024130279604], [9.410222046830713, 45.85018870653685], [9.410641163347266, 45.849683101498044], [9.41078808857249, 45.84949435487927], [9.410810529505023, 45.84946542208299], [9.410849746590241, 45.849414677070264], [9.411126355628465, 45.849039549337185], [9.411403730889766, 45.8486447742936], [9.411996418726137, 45.84768797482734], [9.412455450995559, 45.84669595052044], [9.4127766271095, 45.84567779496343], [9.412957010707542, 45.84464284078425], [9.412994956304107, 45.84360057407237], [9.412890124086012, 45.84256054741471], [9.41264348273565, 45.84153229234125], [9.412257300264583, 45.840525231982824], [9.411735122952075, 45.839548594741224], [9.411081742591648, 45.83861132976129], [9.410303152355032, 45.837722024978135], [9.409406491686028, 45.836888828487936], [9.40839998073577, 45.83611937396003], [9.407292844945138, 45.83542071077082], [9.407237203994038, 45.83539183791581], [9.407410030592795, 45.83496470059627], [9.407653797672932, 45.834012794226105], [9.407789645317134, 45.83399509812065], [9.409238569535907, 45.83370266294535], [9.410640238462108, 45.83331365435201], [9.411981512384024, 45.83283171935711], [9.413249818700798, 45.83226137606343], [9.4144332699067, 45.83160797123766], [9.415520775104198, 45.83087763011326], [9.416502143996228, 45.830077198892496], [9.417368182380674, 45.82921418049045], [9.41796435839841, 45.82855428626003], [9.41924576458404, 45.82713586328817], [9.419433142431947, 45.82764735651413], [9.419985270507397, 45.82869428771688], [9.420687758660048, 45.82969622440755], [9.420869659270824, 45.82992517388201], [9.421052801602709, 45.830149380993916], [9.421251953514256, 45.83038660984558], [9.421340311558795, 45.83049053501781], [9.421379991053886, 45.83053662083973], [9.421741299113016, 45.83130450610469], [9.422321211557946, 45.83223470496235], [9.423022474540188, 45.83312313261377], [9.423228087674543, 45.83333439236497], [9.423502755825504, 45.83390785164877], [9.424109849497407, 45.83486090235091], [9.42484463949469, 45.83576897014958], [9.425700387003523, 45.83662371966367], [9.426669241846398, 45.83741730457098], [9.427742314421213, 45.83814243970622], [9.428909757233049, 45.83879246801464], [9.430160855272062, 45.83936142174229], [9.431484124407786, 45.83984407729851], [9.434008851166341, 45.84065986202139], [9.43592291779444, 45.84117436719726], [9.437306058906893, 45.84147476059305], [9.437427343719193, 45.84150072264772], [9.43828394714622, 45.84168141944702], [9.438333215082103, 45.84169513747652], [9.440376903987811, 45.84225679828376], [9.440529784364491, 45.842303652745066], [9.440579768153595, 45.84231898126374], [9.444684149541988, 45.843577536659666], [9.445149129635078, 45.84372004097529], [9.44606536107531, 45.84430056629], [9.447282158979244, 45.844932537012994], [9.448536898284097, 45.84546027924675], [9.448796112179876, 45.845581310785285], [9.449069497592378, 45.84569600236421], [9.45025609341157, 45.846141662947765], [9.450850535093958, 45.84637777322804], [9.452260938619913, 45.84681528345919], [9.453726361601339, 45.84715314580699], [9.455232427746155, 45.847388045579216], [9.456764361349695, 45.84751767820307], [9.458307132490974, 45.847540771872204], [9.458567095567826, 45.847535660624025], [9.45888764419155, 45.84751736684991], [9.459276931032292, 45.84752196245], [9.460050583233125, 45.84747866599664], [9.461598751454586, 45.84766237632219], [9.463284959573238, 45.84788161905907], [9.467657264601947, 45.84864930623783], [9.468924264390756, 45.84883302103017], [9.471703438666879, 45.8491524915003], [9.473211137105887, 45.849273441699374], [9.474728523314155, 45.84929131655197], [9.476241199191048, 45.84920594648187], [9.477734811418236, 45.8490181415711], [9.479195187888866, 45.84872968385885], [9.480608472402077, 45.848343310402456], [9.481961256334253, 45.84786268726261], [9.483240706028136, 45.84729237466168], [9.48443468468293, 45.846637783648525], [9.48553186758244, 45.84590512468396], [9.48652184956357, 45.845101348638565], [9.487395243703162, 45.84423408076601], [9.488143770286971, 45.84331154828264], [9.488760335218833, 45.842342502243966], [9.489239097130707, 45.84133613446273], [9.489575522563387, 45.84030199026032], [9.489766428702735, 45.839249877881635], [9.489810013275848, 45.83818977543504], [9.48970587133455, 45.83713173624168], [9.48945499877867, 45.836085793492714], [9.489059782597739, 45.83506186511863], [9.48852397793546, 45.8340696597725], [9.487935674874972, 45.83323618115596], [9.487934712765004, 45.83320427762298], [9.487937266214324, 45.833198419405434], [9.488025165719794, 45.832946044724494], [9.488323896799143, 45.83184423846733], [9.488333416430926, 45.83179553560803], [9.488484458132268, 45.83123731622187], [9.488620056964884, 45.83026742294391], [9.488633137610769, 45.830093961772015], [9.488634440397755, 45.83008216661006], [9.488661299612357, 45.82987480043927], [9.488720202988228, 45.829156445222694], [9.488730496106319, 45.82885938780553], [9.488727292490557, 45.828795351606956], [9.489220412896719, 45.82792090169025], [9.489630841872323, 45.82692388236616], [9.489903690509587, 45.825904082788554], [9.489987426821797, 45.8252525276621], [9.490044032322468, 45.82520271648213], [9.490503411063113, 45.824769021053335], [9.490579482359115, 45.82469721578554], [9.491362205810951, 45.82388429748536], [9.492037220251014, 45.823025474618404], [9.492240635370875, 45.82273658090784], [9.492792413565184, 45.821856364220025], [9.493133600265727, 45.82162691941662], [9.494090016534043, 45.82092373897775], [9.494953089100113, 45.82016381867537], [9.495112727701052, 45.82000961922562], [9.49607788805584, 45.81943892849224], [9.496115381172272, 45.81941415342435], [9.496194089049162, 45.81938447667715], [9.49760147139955, 45.81878452299911], [9.498075715984273, 45.81855744339515], [9.499122231967592, 45.818009852395804], [9.500099376816427, 45.81740282642444], [9.500380881396662, 45.817212579587604], [9.50151761650318, 45.81635727890902], [9.502075770274065, 45.81583472597194], [9.50262364392877, 45.81549790479984], [9.503640495195862, 45.814741043594644], [9.504549603895493, 45.81391989145909], [9.505342705915924, 45.813041917399154], [9.505804072219366, 45.81240360619708], [9.505874722444268, 45.81232849585634], [9.506704359365223, 45.81133605811298], [9.50694114632577, 45.81101502160397], [9.507071291532416, 45.81087103933044], [9.507798934526948, 45.80997473691373], [9.508402136472899, 45.8090343413379], [9.50887549989894, 45.80805827728509], [9.509001385281888, 45.80775170679733], [9.509410368680868, 45.80646792885432], [9.50945834298599, 45.8062584186669], [9.509688543594155, 45.80545720877729], [9.509840630970682, 45.80445392922049], [9.50985931335788, 45.8034451113019], [9.509843414967992, 45.803112167533264], [9.509815826450746, 45.80289576163856], [9.510383111974868, 45.80258374368842], [9.510701351242785, 45.8024039208756], [9.511106664201053, 45.80216867205075], [9.511641252025045, 45.80185844703073], [9.512044731506597, 45.8016242834323], [9.51307579174901, 45.80096925728336], [9.514019009314838, 45.80025239644444], [9.514522423587525, 45.79979344150444], [9.515550781887443, 45.79958168129785], [9.516051535734572, 45.79946242460739], [9.516908164865683, 45.79923856603134], [9.517293203979426, 45.799128826198604], [9.51859414153698, 45.79870821228597], [9.51983425204199, 45.79820569483112], [9.52021866340753, 45.79803291895461], [9.520677082341653, 45.797818762963395], [9.520843263794214, 45.79773811662359], [9.52117106127626, 45.79767388844182], [9.522628955957307, 45.797273944201365], [9.524022014948516, 45.79677356546475], [9.52533613982338, 45.79617781701127], [9.526558032317286, 45.79549272875558], [9.527675329011258, 45.794725234626775], [9.528676726486989, 45.793883102293854], [9.529191167363825, 45.793403299470796], [9.529803348485753, 45.792789458978305], [9.530036887040984, 45.79253723495884], [9.530243738798678, 45.79232055850805], [9.53032399638194, 45.79222879664202], [9.531183067697137, 45.791633389736276], [9.532135310171476, 45.79083347740003], [9.532304077285884, 45.790660452898436], [9.532902016933372, 45.790502279546764], [9.5342502871159, 45.790037159736066], [9.535528118088925, 45.78948321817018], [9.536723590560191, 45.78884562287247], [9.537825554700463, 45.788130322120914], [9.538823734193512, 45.78734398887879], [9.539562634926103, 45.78663435754056], [9.53997098461174, 45.786573610389006], [9.541391778940596, 45.78626038816989], [9.542763253540905, 45.78585356788359], [9.544072843043649, 45.78535687716894], [9.54530855001338, 45.784774867015464], [9.546459054976792, 45.78411287000078], [9.547513820193172, 45.783376951361326], [9.548463186212414, 45.782573853348346], [9.549298460334414, 45.78171093338222], [9.549740841960563, 45.7812031523169], [9.550378195262763, 45.780920715399475], [9.551748879838728, 45.780237968935644], [9.552644485032232, 45.77973868461749], [9.553812612136207, 45.779017720212174], [9.554871872759389, 45.7782186613385], [9.555811658962293, 45.77734951384198], [9.556622561146291, 45.77641898540006], [9.557296462191177, 45.77543639819268], [9.55782661858106, 45.774411595428184], [9.558207727712922, 45.773354842664986], [9.558435980722834, 45.77227672492117], [9.558509100312051, 45.77118804060565], [9.55842636320696, 45.77009969333556], [9.558188607041817, 45.76902258272461], [9.557798221609806, 45.767967495236675], [9.557259124584387, 45.766944996197054], [9.556618610305062, 45.765895103827575], [9.555894766882613, 45.764863103033186], [9.555019548220393, 45.76389025017664], [9.55455054317778, 45.76342528995527], [9.554478805561674, 45.76334038774599], [9.554362395111257, 45.76320262844738], [9.554318778162125, 45.7631513336054], [9.55388546767031, 45.762644904555174], [9.553608935641893, 45.76225982222438], [9.553483409940437, 45.7620887997983], [9.553423207716365, 45.762008528218594], [9.553454560138336, 45.761950275908404], [9.553552256269873, 45.76177186602807], [9.553627013606274, 45.76163059260917], [9.554064113082479, 45.76138619379518], [9.555169504526607, 45.76063087875186], [9.556162412221868, 45.75980255528246], [9.557033050421706, 45.758909391394404], [9.557772840307399, 45.75796019407096], [9.558374494422212, 45.75696432234685], [9.558832088315038, 45.755931594953324], [9.558879826443546, 45.75576794428243], [9.559244395331794, 45.75561626152955], [9.559760165825551, 45.75537643213891], [9.560581004880094, 45.75533888034071], [9.562107607695308, 45.75516116847895], [9.563601422091756, 45.75487814698922], [9.565047659432409, 45.754492617902216], [9.566432002894507, 45.75400839803117], [9.567740749392414, 45.75343028112301], [9.567948825513403, 45.753327893431965], [9.568198825412237, 45.75320656819508], [9.568226743190483, 45.753193022583844], [9.568716432448971, 45.75305605101494], [9.570098673444773, 45.75261343001507], [9.571412590329974, 45.75207847766883], [9.571873305973448, 45.75186916525027], [9.573034917821158, 45.75128663948921], [9.574115255354767, 45.75063194624441], [9.575105203255305, 45.74991061130233], [9.575204079901063, 45.74983159914232], [9.576215705599143, 45.74908490000618], [9.577160595942894, 45.74823222042072], [9.577980276995676, 45.74731824930435], [9.578666703670422, 45.74635196424007], [9.579213140866987, 45.7453428561924], [9.579614229398214, 45.74430083621541], [9.579866038355364, 45.743236138052005], [9.579966103408955, 45.742159217583826], [9.579913450680593, 45.7410806501217], [9.57970860596423, 45.74001102654623], [9.57935358921973, 45.738960849319206], [9.578851894406219, 45.737940429386555], [9.578461710245616, 45.737345767514], [9.578265200000713, 45.73668430830574], [9.577829916836361, 45.735698533853515], [9.577263380890809, 45.73474602742785], [9.576787677292565, 45.73412062337889], [9.576688758509556, 45.73370752092972], [9.576659926652404, 45.73360086195653], [9.576639290576438, 45.733328385753104], [9.576434262807712, 45.73234198661153], [9.576415027133018, 45.73227206465167], [9.576387072502182, 45.73202429957734], [9.576332149370566, 45.731682543421286], [9.576072713828268, 45.73058038955038], [9.57591323333005, 45.73006815439821], [9.575795420472758, 45.72971768332053], [9.575623444222202, 45.7292415092982], [9.575447499069796, 45.7287945787609], [9.575236786864396, 45.72830060930915], [9.575178884850672, 45.72817830973214], [9.575138542897996, 45.72751397188055], [9.574933987333656, 45.72648316652345], [9.574758642729945, 45.725967257527266], [9.57476604842765, 45.72578679989543], [9.574651153692619, 45.724683982616114], [9.574377197833664, 45.723595008795506], [9.573947013829564, 45.722531103173324], [9.573365044321513, 45.721503231475225], [9.572637295486306, 45.720521987442744], [9.572008727075191, 45.719850975021764], [9.572055134020909, 45.71973745459709], [9.572211100193401, 45.71932565501671], [9.572276502778413, 45.71913825391795], [9.57255492455784, 45.7181407309597], [9.572699366879723, 45.71712937010217], [9.572708578828676, 45.716112980937424], [9.572582487503254, 45.71510041638257], [9.57232219839591, 45.71410049556937], [9.571929985513146, 45.71312192704483], [9.571904687263617, 45.7130685204752], [9.571862570062423, 45.71298085473228], [9.571839306977546, 45.7129331048694], [9.571764582453167, 45.712779729564474], [9.571750827696656, 45.71275146828258], [9.57117436341274, 45.71173670634928], [9.570455741710328, 45.710767491347525], [9.569602194936584, 45.70985356805674], [9.56862231078487, 45.70900412488634], [9.567525945784954, 45.70822770158467], [9.566324126102256, 45.70753210347882], [9.565028936646655, 45.706924323103124], [9.564565412713229, 45.706751169495256], [9.564106364229632, 45.70648590067736], [9.562809673412758, 45.70587853281445], [9.56162459399908, 45.7054368003164], [9.561198961151181, 45.70519367777392], [9.559924617878536, 45.70460156451109], [9.55857343147526, 45.70410002888725], [9.557158472987094, 45.703693922002216], [9.556864091146354, 45.70362105625052], [9.555769435852563, 45.703316194549565], [9.55432733939543, 45.70302375469742], [9.55285171531567, 45.70283014111232], [9.551356322194342, 45.70273715904103], [9.549855102625653, 45.702745675458885], [9.548902794310871, 45.70281579770751], [9.548318860833705, 45.702626327854325], [9.546866082395665, 45.702272313155134], [9.545370494743233, 45.702020622659354], [9.543846736154837, 45.70187371979742], [9.542309720165699, 45.70183304238922], [9.542076480864813, 45.7018430625807], [9.542531960030214, 45.70152879254046], [9.54352808499773, 45.70068772240426], [9.544398854507675, 45.699780921176746], [9.545135501995931, 45.69881752471894], [9.545730613331504, 45.697807238593136], [9.546178201283663, 45.69676024020745], [9.546473765561494, 45.695687076224644], [9.546614337831802, 45.69459855627177], [9.546610774681774, 45.69435250577623], [9.546616923711818, 45.694323551628216], [9.546696243735878, 45.693317646826756], [9.546675855315472, 45.69293510447366], [9.54677325270042, 45.692382246650595], [9.546811921637927, 45.69132404599398], [9.546703820970787, 45.690268212729265], [9.54669923908414, 45.69024163716156], [9.5464542441302, 45.689226378441845], [9.546073548051812, 45.688231871679086], [9.545560560418036, 45.68726700531301], [9.544919872495948, 45.68634040242841], [9.544157216005797, 45.68546034373697], [9.543279411719121, 45.684634693631565], [9.54229430836525, 45.683870829971504], [9.54121071239662, 45.68317557822315], [9.54003830924349, 45.68255515054172], [9.538787576762765, 45.682015090335064], [9.538592910678913, 45.68193968816703], [9.538052733277851, 45.68173045886815], [9.536682165735865, 45.68125961276029], [9.53525232268449, 45.68088528188617], [9.533776996169934, 45.68061107676833], [9.532270416211894, 45.68043964215608], [9.530747113764773, 45.68037263155785], [9.529221780800597, 45.680410691318805], [9.527709128851926, 45.68055345439612], [9.526223747367334, 45.680799543891624], [9.525003857530374, 45.68109277030699], [9.52410571499108, 45.681258950870024], [9.52373671902967, 45.6813552784509], [9.523440556761125, 45.6804535478768], [9.522985427708873, 45.67948940690619], [9.522404176552977, 45.67855917147755], [9.521701862366504, 45.677670928387336], [9.520884595815687, 45.67683239901429], [9.519959485893102, 45.67605087225497], [9.519726718049665, 45.67587190960416], [9.51874323834996, 45.675180693246055], [9.51838164762986, 45.67494837410075], [9.517389994072937, 45.67436268773755], [9.517243905498862, 45.67428346924883], [9.516911743506109, 45.67410337390658], [9.516891866258296, 45.67409302763632], [9.516379771700223, 45.67369079119691], [9.516108337050593, 45.67349398513086], [9.514878624287181, 45.67269373192937], [9.513533009161417, 45.67199110543611], [9.512087185176991, 45.67139429814924], [9.512024863313119, 45.67137165616265], [9.511996189004076, 45.67135449303555], [9.511605105799505, 45.67112804043636], [9.511400530997909, 45.67101346920268], [9.511392321157935, 45.67100887088273], [9.511305917226874, 45.67095485578207], [9.510632850221198, 45.67057689436761], [9.51046875280805, 45.670474505152505], [9.509287822268865, 45.6698071430163], [9.508019713002183, 45.66922369426733], [9.50667651198812, 45.6687297189487], [9.505271020721024, 45.668329924330585], [9.503816633340644, 45.66802812012046], [9.502327209160038, 45.667827182216676], [9.50081694079678, 45.6677290253482], [9.499300219154568, 45.66773458485897], [9.497791496531283, 45.667843807809234], [9.496305149146698, 45.66805565347765], [9.494855340388495, 45.66836810326], [9.493455886068592, 45.66877817987043], [9.492120122963303, 45.669281975664276], [9.491737785533585, 45.6694619271639], [9.491331246634802, 45.66889047476086], [9.490520720145732, 45.66798568509032], [9.490016431139132, 45.66752911902291], [9.4895221607998, 45.66677258107466], [9.488711909127982, 45.665808200639155], [9.488073138400821, 45.66520054270364], [9.4875397746108, 45.66441217230501], [9.486767066889977, 45.663507816039704], [9.4858733011948, 45.66266007416597], [9.48486685459456, 45.661876887439306], [9.483757158448507, 45.66116559162075], [9.482554610002929, 45.660532848845016], [9.481270474996622, 45.659984585300535], [9.479916782186276, 45.659525935801376], [9.478506210776791, 45.659161195766636], [9.477051971806057, 45.65889378105381], [9.475567684588471, 45.65872619601934], [9.47406724936626, 45.65866001010322], [9.473392340841691, 45.65865318638445], [9.473195855115739, 45.6586495599322], [9.472486349861253, 45.658635034401435], [9.470789543640363, 45.65866534545802], [9.469107579703302, 45.65882529318224], [9.467460535868563, 45.659112968313025], [9.466653348148359, 45.65928729512615], [9.465059701208121, 45.659699608405646], [9.463784706966468, 45.66014576545319], [9.463512311169868, 45.66023608450335], [9.463387402816192, 45.660282510149784], [9.461999343570332, 45.660865277219294], [9.460705236505918, 45.661546115341515], [9.459519120243806, 45.66231764063641], [9.459466441227981, 45.66235567198482], [9.458407593953185, 45.663032925384925], [9.457414766445286, 45.66380139885494], [9.456883972174415, 45.664300414346094], [9.456489217485199, 45.66457161801145], [9.455594873220827, 45.665305744110064], [9.455212551980992, 45.665649305171506], [9.454328062263196, 45.66653079462112], [9.453572142400233, 45.6674692580975], [9.45295219996244, 45.66845550742225], [9.45247431221367, 45.669479886067755], [9.452429259583583, 45.669623078752004], [9.45174945672073, 45.669933864193325], [9.450663420907375, 45.670478375831244], [9.44964806776327, 45.671086249302704], [9.44955532805758, 45.671152229688005], [9.449272840534643, 45.671287792087], [9.447937694258542, 45.670776981385416], [9.446514780634597, 45.67035512627158], [9.445039153964657, 45.67003442615923], [9.443820412474192, 45.66981545839207], [9.443257034889186, 45.66962515533302], [9.443178403367243, 45.66959878441728], [9.44291484084001, 45.66951102819993], [9.442686750363766, 45.66943508068793], [9.441224504962829, 45.6690107478298], [9.44091277391928, 45.66894540169016], [9.440431634586396, 45.668741224827045], [9.439610815136314, 45.66845692575523], [9.438689170739565, 45.668085234368185], [9.438553744567049, 45.667735789208386], [9.43812288357043, 45.666810358359406], [9.437696174952679, 45.66600339963116], [9.437179933210317, 45.66522258194575], [9.436596039154939, 45.6644237427873], [9.43627117153692, 45.66402778672777], [9.4362404197229, 45.663934559666295], [9.435734628024857, 45.66289345578594], [9.435240060353854, 45.66202225526748], [9.434586737231175, 45.66102168980535], [9.433792776942461, 45.66007245634336], [9.432866290079382, 45.659184243457496], [9.431816738570575, 45.65836611646922], [9.430654838965866, 45.65762642501662], [9.429392452985796, 45.65697271793731], [9.428239428495905, 45.656493525043665], [9.428140580707062, 45.656434947748245], [9.42790859462892, 45.656309804398326], [9.426824464615509, 45.65577500922555], [9.425679274277238, 45.6553069784097], [9.424481362724109, 45.65490911954082], [9.424121177349608, 45.654802435724], [9.423778098260497, 45.654714645364066], [9.423512810626237, 45.65458063362302], [9.422937357572232, 45.65430349586287], [9.422737952914506, 45.6542120174665], [9.42196035900062, 45.65358985249315], [9.420845064111726, 45.65285724938261], [9.420605112405513, 45.652728186504106], [9.420038899317252, 45.65230839472811], [9.418897373382709, 45.65161224982255], [9.417664711729303, 45.65099728778898], [9.416352608503155, 45.65046934137915], [9.414973510218879, 45.6500334178805], [9.413722283688724, 45.649736754218054], [9.413181570124586, 45.64918953276923], [9.412171989428455, 45.64835942874407], [9.411049082008592, 45.64760432701547], [9.409824117384007, 45.64693180295178], [9.408509387572632, 45.64634860323436], [9.40711808381253, 45.64586057826685], [9.405664164326101, 45.6454726235709], [9.404162214448187, 45.645188630752514], [9.402627300513146, 45.64501144852668], [9.40107481895649, 45.64494285418856], [9.399520342133027, 45.64498353581489], [9.39797946238527, 45.64513308537267], [9.396467635912721, 45.64539000280379], [9.395000027994648, 45.64575171104503], [9.394452774437466, 45.6459085975531], [9.392488313821334, 45.64647191568714], [9.39112720280648, 45.6469172318957], [9.389833773845616, 45.64745268033384], [9.388620123691233, 45.648073254108574], [9.387497604171655, 45.648773150150085], [9.387124043907749, 45.64905588791932], [9.387052356449043, 45.649007571087914], [9.386834847387934, 45.64886097145341], [9.385904875743163, 45.64822974261425], [9.385340964034036, 45.64786544348884], [9.38498273509038, 45.64764522925782], [9.384800090749561, 45.64753244143779], [9.38380525161332, 45.646967398959795], [9.382747453586706, 45.64646174114091], [9.381633883970537, 45.646018902985745], [9.381411155224553, 45.645938649427485], [9.381302894236605, 45.64590001525377], [9.380445061009256, 45.645596838873196], [9.37907433648427, 45.64516929240416], [9.37765120436313, 45.64483650120802], [9.377248109096435, 45.64475718844797], [9.376482007031681, 45.644606447072725], [9.375015779801684, 45.64437100441302], [9.373523961675886, 45.64423615639876], [9.37202054432477, 45.64420316778214], [9.370519628024915, 45.644272347984504], [9.369035289643717, 45.644443048198504], [9.367581450841476, 45.64471366746178], [9.36617174771638, 45.64508166764598], [9.364819403104878, 45.6455435972218], [9.363537102725845, 45.646095123578874], [9.362336876322297, 45.646731073599966], [9.361229984908958, 45.6474454821117], [9.360226815178669, 45.6482316477609], [9.359711972789388, 45.648723653865595], [9.359705068595963, 45.64872006305837], [9.359673898526022, 45.64874954374705], [9.359618919637626, 45.64880425740599], [9.359509994605146, 45.64889344443044], [9.35895293066423, 45.6493768194485], [9.35818740074156, 45.65008127097006], [9.357485394749151, 45.65078288745823], [9.356864217257458, 45.651521045101674], [9.35680002981154, 45.65160467184715], [9.356232382817465, 45.65216004524374], [9.355890160013487, 45.652578704067714], [9.354907225410681, 45.652745113545436], [9.353509342876809, 45.65308321841796], [9.35216363029537, 45.65351301399289], [9.351759946681865, 45.65367608189736], [9.351422521982037, 45.653713387164046], [9.349940072275631, 45.65398443772092], [9.348502899463819, 45.65435658494036], [9.347124983055146, 45.65482620918662], [9.34581972712767, 45.65538874261796], [9.344599830091271, 45.65603871354713], [9.343477161261514, 45.656769799585874], [9.342991349426498, 45.65715532936307], [9.3421528957364, 45.65695238720506], [9.339127219283425, 45.65633134283554], [9.33891773512343, 45.65628945730346], [9.338399014907234, 45.65618849233819], [9.338255509770198, 45.655561441877786], [9.337839650330839, 45.654475674861374], [9.337266415758393, 45.653425754543846], [9.336541921741016, 45.65242286651104], [9.335673894263785, 45.65147769470454], [9.334671587034256, 45.65060030769252], [9.334148954604068, 45.65018831903701], [9.33392113563599, 45.65000874873744], [9.333349768716813, 45.6495521930785], [9.332058811017697, 45.64863607039188], [9.33062271054027, 45.64783323084393], [9.33014187014787, 45.64759560956195], [9.328911208472178, 45.64704621756169], [9.327612492473271, 45.646580236068615], [9.326257180045516, 45.64620177568187], [9.32485722754681, 45.64591417487463], [9.3234249844648, 45.6457199705913], [9.321973084643554, 45.645620875905294], [9.32051433502285, 45.645617764933], [9.319061602863565, 45.645710665135816], [9.317627702445355, 45.64589875707751], [9.316225282227474, 45.646180381639425], [9.316044730828553, 45.646223168424946], [9.31466784094982, 45.64660158381887], [9.313348498390068, 45.64707013654884], [9.312098665093677, 45.64762457899807], [9.310929673822493, 45.6482598847843], [9.309852125486513, 45.648970294261076], [9.308875793062322, 45.649749366663436], [9.308195745745302, 45.65034715822999], [9.307925923091375, 45.65058236652964], [9.307857936189777, 45.650650150210865], [9.30694949378807, 45.65092639665012], [9.30558304872782, 45.65146240641734], [9.304300477637963, 45.65209217327756], [9.303114814518475, 45.6528092987685], [9.302038110114854, 45.653606496595756], [9.301081309478082, 45.65447566656852], [9.300912287570819, 45.65464634668976], [9.300134932492238, 45.65551611534776], [9.29947777413538, 45.656433339665966], [9.29894665471537, 45.65738987380086], [9.298546297862302, 45.65837722237798], [9.298280266462951, 45.6593866158962], [9.29819135080094, 45.660089549125885], [9.298091637445333, 45.660226584214115], [9.297526009895696, 45.661244852818946], [9.297108737490975, 45.662297739897745], [9.296844029044147, 45.66337464680048], [9.296734558157992, 45.66446473247715], [9.29672808243662, 45.664690503751835], [9.29668284899167, 45.66474419112214], [9.295946366976313, 45.665730104794065], [9.295357214606442, 45.66676356779389], [9.295001593294439, 45.66749355559802], [9.29457563744404, 45.66853444622353], [9.294363699267882, 45.669351293025855], [9.294106403583474, 45.66948838699635], [9.293010709665099, 45.670198201096554], [9.29201715838443, 45.670978420134034], [9.291134913921319, 45.671821851107204], [9.290372115397682, 45.67272071791438], [9.289735801723765, 45.6736667329736], [9.289610502929241, 45.67391149868377], [9.289523329010356, 45.67396082416545], [9.289292970423148, 45.67410543051356], [9.288267337271394, 45.6748118628567], [9.287339235413093, 45.6755817350845], [9.286516615953214, 45.67640845510096], [9.285806527734787, 45.6772849437452], [9.28521505687541, 45.67820369535061], [9.284747274509604, 45.67915684196403], [9.28450621094717, 45.67973349269786], [9.284167991111914, 45.680706159090185], [9.28415683981428, 45.68075890383948], [9.28362765615034, 45.681062462526235], [9.282509695791614, 45.6818499970257], [9.281511983258044, 45.68271325840291], [9.280644902737947, 45.68364326681634], [9.27991748091677, 45.68463034764533], [9.279337292885554, 45.68566423203829], [9.278910383084439, 45.68673416365856], [9.278641202113429, 45.687829010521334], [9.278491412733626, 45.6887024635395], [9.278383470072054, 45.689784555632635], [9.278429651850187, 45.690868805802076], [9.278522963681867, 45.69137102560904], [9.278405312413273, 45.692290819013806], [9.27842452612484, 45.69339656185403], [9.278603646208678, 45.69449523900894], [9.2787394538337, 45.694930343754635], [9.278754496727668, 45.695869633212965], [9.278915644918937, 45.69691398284494], [9.27921962822818, 45.697942594924825], [9.27933527935796, 45.69820393604173], [9.279335936236478, 45.69823167873376], [9.279394936150435, 45.6988750861734], [9.27947488361909, 45.69948143763171], [9.279570663311736, 45.70003761701092], [9.279602793908163, 45.70022414143916], [9.279857501823773, 45.70127082146117], [9.280256470391867, 45.70229514657481], [9.280795914657102, 45.70328737923221], [9.28147071350058, 45.70423808646574], [9.281790138650564, 45.70459582662201], [9.280782263556068, 45.705196731686016], [9.279719159472469, 45.70596920144054], [9.278769686931177, 45.70681121486], [9.27794306568382, 45.707714600361044], [9.277247324411869, 45.70867059034861], [9.27668922264198, 45.709669906229], [9.27627418492598, 45.71070284839568], [9.276006247932056, 45.711759390317404], [9.275888020970356, 45.7128292758186], [9.275920660347207, 45.71390211860973], [9.2761038578091, 45.714967503102926], [9.276370790821911, 45.71580981545545], [9.2763353420313, 45.716029045297304], [9.27633106101534, 45.71607549886], [9.276286345230298, 45.71656196881857], [9.276272204286084, 45.717570738900335]]]}}]}