{
"type": "FeatureCollection",
"name": "settlement_destination_anchors",
"crs": { "type": "name", "properties": { "name": "urn:ogc:def:crs:OGC:1.3:CRS84" } },
"features": [
{ "type": "Feature", "properties": { "anchor_id": "OSM_node_526201954", "anchor_type": "DESTINATION", "name": "OSM amenity:pharmacy 526201954", "category": "amenity:pharmacy", "lat": 45.7239862, "lon": 9.4109305, "epistemic_status": "FACT_OSM_OBSERVATION", "source": "data/raw/osm/osm_pois_core.json", "x_utm32": 531977.13687387109, "y_utm32": 5063463.3136743633, "walk_graph_node_id": 19526, "walk_graph_connector_m": 12.207639347302354, "walk_graph_connector_min": 0.15259549184127943, "walk_graph_snap_ok": true, "current_walk_min": 2.3075916001982058, "current_gap_10min": false }, "geometry": { "type": "Point", "coordinates": [ 9.4109305, 45.7239862 ] } },
{ "type": "Feature", "properties": { "anchor_id": "OSM_node_526204028", "anchor_type": "DESTINATION", "name": "Calco", "category": "amenity:post_office", "lat": 45.7246063, "lon": 9.4155507, "epistemic_status": "FACT_OSM_OBSERVATION", "source": "data/raw/osm/osm_pois_core.json", "x_utm32": 532336.30634573242, "y_utm32": 5063534.0642778333, "walk_graph_node_id": 20634, "walk_graph_connector_m": 21.723148583423171, "walk_graph_connector_min": 0.27153935729278966, "walk_graph_snap_ok": true, "current_walk_min": 1.498048182975515, "current_gap_10min": false }, "geometry": { "type": "Point", "coordinates": [ 9.4155507, 45.7246063 ] } },
{ "type": "Feature", "properties": { "anchor_id": "OSM_node_1837069780", "anchor_type": "DESTINATION", "name": "OSM amenity:townhall 1837069780", "category": "amenity:townhall", "lat": 45.72823, "lon": 9.4032082, "epistemic_status": "FACT_OSM_OBSERVATION", "source": "data/raw/osm/osm_pois_core.json", "x_utm32": 531373.839646079, "y_utm32": 5063931.7491254061, "walk_graph_node_id": 17443, "walk_graph_connector_m": 19.847002253552844, "walk_graph_connector_min": 0.24808752816941054, "walk_graph_snap_ok": true, "current_walk_min": 3.1003830042187843, "current_gap_10min": false }, "geometry": { "type": "Point", "coordinates": [ 9.4032082, 45.72823 ] } },
{ "type": "Feature", "properties": { "anchor_id": "OSM_node_1837070077", "anchor_type": "DESTINATION", "name": "Scuola Primaria E. Gola", "category": "amenity:school", "lat": 45.7298587, "lon": 9.4000797, "epistemic_status": "FACT_OSM_OBSERVATION", "source": "data/raw/osm/osm_pois_core.json", "x_utm32": 531129.50476952887, "y_utm32": 5064111.4782417146, "walk_graph_node_id": 16775, "walk_graph_connector_m": 72.503854841765616, "walk_graph_connector_min": 0.9062981855220702, "walk_graph_snap_ok": true, "current_walk_min": 6.0621614741315213, "current_gap_10min": false }, "geometry": { "type": "Point", "coordinates": [ 9.4000797, 45.7298587 ] } },
{ "type": "Feature", "properties": { "anchor_id": "OSM_node_1837075017", "anchor_type": "DESTINATION", "name": "OSM leisure:sports_centre 1837075017", "category": "leisure:sports_centre", "lat": 45.7241181, "lon": 9.4007674, "epistemic_status": "FACT_OSM_OBSERVATION", "source": "data/raw/osm/osm_pois_core.json", "x_utm32": 531186.20782031375, "y_utm32": 5063473.9569715904, "walk_graph_node_id": 16910, "walk_graph_connector_m": 44.071757274266105, "walk_graph_connector_min": 0.55089696592832627, "walk_graph_snap_ok": true, "current_walk_min": 12.477809831323313, "current_gap_10min": true }, "geometry": { "type": "Point", "coordinates": [ 9.4007674, 45.7241181 ] } },
{ "type": "Feature", "properties": { "anchor_id": "OSM_node_1837075469", "anchor_type": "DESTINATION", "name": "Olgiate Molgora", "category": "amenity:post_office", "lat": 45.7282861, "lon": 9.4020441, "epistemic_status": "FACT_OSM_OBSERVATION", "source": "data/raw/osm/osm_pois_core.json", "x_utm32": 531283.22913867887, "y_utm32": 5063937.5261439718, "walk_graph_node_id": 17109, "walk_graph_connector_m": 21.447939712362334, "walk_graph_connector_min": 0.2680992464045292, "walk_graph_snap_ok": true, "current_walk_min": 2.6080620396998846, "current_gap_10min": false }, "geometry": { "type": "Point", "coordinates": [ 9.4020441, 45.7282861 ] } },
{ "type": "Feature", "properties": { "anchor_id": "OSM_node_3016606433", "anchor_type": "DESTINATION", "name": "Rovagnate", "category": "amenity:post_office", "lat": 45.7379799, "lon": 9.3715099, "epistemic_status": "FACT_OSM_OBSERVATION", "source": "data/raw/osm/osm_pois_core.json", "x_utm32": 528902.34956260538, "y_utm32": 5065003.0384329706, "walk_graph_node_id": 7102, "walk_graph_connector_m": 23.108520936069887, "walk_graph_connector_min": 0.28885651170087356, "walk_graph_snap_ok": true, "current_walk_min": 3.2424956056646019, "current_gap_10min": false }, "geometry": { "type": "Point", "coordinates": [ 9.3715099, 45.7379799 ] } },
{ "type": "Feature", "properties": { "anchor_id": "OSM_node_3016619233", "anchor_type": "DESTINATION", "name": "OSM amenity:post_office 3016619233", "category": "amenity:post_office", "lat": 45.7435223, "lon": 9.3717396, "epistemic_status": "FACT_OSM_OBSERVATION", "source": "data/raw/osm/osm_pois_core.json", "x_utm32": 528917.35818764044, "y_utm32": 5065618.8917136574, "walk_graph_node_id": 7196, "walk_graph_connector_m": 18.187600142808879, "walk_graph_connector_min": 0.22734500178511099, "walk_graph_snap_ok": true, "current_walk_min": 3.666281647491604, "current_gap_10min": false }, "geometry": { "type": "Point", "coordinates": [ 9.3717396, 45.7435223 ] } },
{ "type": "Feature", "properties": { "anchor_id": "OSM_node_3016774445", "anchor_type": "DESTINATION", "name": "OSM amenity:post_office 3016774445", "category": "amenity:post_office", "lat": 45.7425863, "lon": 9.4471676, "epistemic_status": "FACT_OSM_OBSERVATION", "source": "data/raw/osm/osm_pois_core.json", "x_utm32": 534785.42711649102, "y_utm32": 5065544.9328679135, "walk_graph_node_id": 27570, "walk_graph_connector_m": 6.546921425577569, "walk_graph_connector_min": 0.081836517819719609, "walk_graph_snap_ok": true, "current_walk_min": 1.9457052580582224, "current_gap_10min": false }, "geometry": { "type": "Point", "coordinates": [ 9.4471676, 45.7425863 ] } },
{ "type": "Feature", "properties": { "anchor_id": "OSM_node_4055226950", "anchor_type": "DESTINATION", "name": "OSM amenity:pharmacy 4055226950", "category": "amenity:pharmacy", "lat": 45.7376495, "lon": 9.3731838, "epistemic_status": "FACT_OSM_OBSERVATION", "source": "data/raw/osm/osm_pois_core.json", "x_utm32": 529032.74511622905, "y_utm32": 5064966.9365187399, "walk_graph_node_id": 7796, "walk_graph_connector_m": 62.13859978187385, "walk_graph_connector_min": 0.77673249727342308, "walk_graph_snap_ok": true, "current_walk_min": 4.6404909422560161, "current_gap_10min": false }, "geometry": { "type": "Point", "coordinates": [ 9.3731838, 45.7376495 ] } },
{ "type": "Feature", "properties": { "anchor_id": "OSM_node_5329242223", "anchor_type": "DESTINATION", "name": "Municipio della Valletta Brianza", "category": "amenity:townhall", "lat": 45.7404912, "lon": 9.3611589, "epistemic_status": "FACT_OSM_OBSERVATION", "source": "data/raw/osm/osm_pois_core.json", "x_utm32": 528095.81369192363, "y_utm32": 5065278.3608206781, "walk_graph_node_id": 4098, "walk_graph_connector_m": 5.2651031645923467, "walk_graph_connector_min": 0.065813789557404329, "walk_graph_snap_ok": true, "current_walk_min": 3.7305390887801804, "current_gap_10min": false }, "geometry": { "type": "Point", "coordinates": [ 9.3611589, 45.7404912 ] } },
{ "type": "Feature", "properties": { "anchor_id": "OSM_node_5655743203", "anchor_type": "DESTINATION", "name": "Biblioteca Comunale Pietro Frigerio", "category": "amenity:library", "lat": 45.7422468, "lon": 9.4470908, "epistemic_status": "FACT_OSM_OBSERVATION", "source": "data/raw/osm/osm_pois_core.json", "x_utm32": 534779.66360876267, "y_utm32": 5065507.1804330023, "walk_graph_node_id": 27529, "walk_graph_connector_m": 16.445704943848408, "walk_graph_connector_min": 0.20557131179810512, "walk_graph_snap_ok": true, "current_walk_min": 1.6889593542293848, "current_gap_10min": false }, "geometry": { "type": "Point", "coordinates": [ 9.4470908, 45.7422468 ] } },
{ "type": "Feature", "properties": { "anchor_id": "OSM_node_5749012579", "anchor_type": "DESTINATION", "name": "Mercato del Lunedì", "category": "amenity:marketplace", "lat": 45.7438297, "lon": 9.4487438, "epistemic_status": "FACT_OSM_OBSERVATION", "source": "data/raw/osm/osm_pois_core.json", "x_utm32": 534907.26563823374, "y_utm32": 5065683.763391301, "walk_graph_node_id": 27853, "walk_graph_connector_m": 3.5667853687393527, "walk_graph_connector_min": 0.044584817109241906, "walk_graph_snap_ok": true, "current_walk_min": 5.1775591192766992, "current_gap_10min": false }, "geometry": { "type": "Point", "coordinates": [ 9.4487438, 45.7438297 ] } },
{ "type": "Feature", "properties": { "anchor_id": "OSM_node_8666951932", "anchor_type": "DESTINATION", "name": "Farmacia Pallavicini", "category": "amenity:pharmacy", "lat": 45.7307703, "lon": 9.4034869, "epistemic_status": "FACT_OSM_OBSERVATION", "source": "data/raw/osm/osm_pois_core.json", "x_utm32": 531394.1022367687, "y_utm32": 5064214.0896030068, "walk_graph_node_id": 17568, "walk_graph_connector_m": 24.697287639634656, "walk_graph_connector_min": 0.30871609549543322, "walk_graph_snap_ok": true, "current_walk_min": 3.8160067557661574, "current_gap_10min": false }, "geometry": { "type": "Point", "coordinates": [ 9.4034869, 45.7307703 ] } },
{ "type": "Feature", "properties": { "anchor_id": "OSM_node_12857894068", "anchor_type": "DESTINATION", "name": "Esselunga", "category": "shop:supermarket", "lat": 45.7182049, "lon": 9.407649, "epistemic_status": "FACT_OSM_OBSERVATION", "source": "data/raw/osm/osm_pois_core.json", "x_utm32": 531725.05431081238, "y_utm32": 5062819.6974113556, "walk_graph_node_id": 18701, "walk_graph_connector_m": 18.182051067049059, "walk_graph_connector_min": 0.22727563833811323, "walk_graph_snap_ok": true, "current_walk_min": 12.029080089774098, "current_gap_10min": true }, "geometry": { "type": "Point", "coordinates": [ 9.407649, 45.7182049 ] } },
{ "type": "Feature", "properties": { "anchor_id": "OSM_way_143996275", "anchor_type": "DESTINATION", "name": "OSM amenity:townhall 143996275", "category": "amenity:townhall", "lat": 45.7365029, "lon": 9.3581706, "epistemic_status": "FACT_OSM_OBSERVATION", "source": "data/raw/osm/osm_pois_core.json", "x_utm32": 527865.32723573502, "y_utm32": 5064834.2087781522, "walk_graph_node_id": 3548, "walk_graph_connector_m": 15.951168749901617, "walk_graph_connector_min": 0.1993896093737702, "walk_graph_snap_ok": true, "current_walk_min": 10.554176093267953, "current_gap_10min": true }, "geometry": { "type": "Point", "coordinates": [ 9.3581706, 45.7365029 ] } },
{ "type": "Feature", "properties": { "anchor_id": "OSM_way_190241834", "anchor_type": "DESTINATION", "name": "Scuola media Emilio Gola", "category": "amenity:school", "lat": 45.7271918, "lon": 9.3994914, "epistemic_status": "FACT_OSM_OBSERVATION", "source": "data/raw/osm/osm_pois_core.json", "x_utm32": 531085.20948782004, "y_utm32": 5063814.9529647725, "walk_graph_node_id": 16363, "walk_graph_connector_m": 32.393199114816994, "walk_graph_connector_min": 0.40491498893521244, "walk_graph_snap_ok": true, "current_walk_min": 4.3352354324665079, "current_gap_10min": false }, "geometry": { "type": "Point", "coordinates": [ 9.3994914, 45.7271918 ] } },
{ "type": "Feature", "properties": { "anchor_id": "OSM_way_193847317", "anchor_type": "DESTINATION", "name": "Scuola Media Don Piero Pointinger", "category": "amenity:school", "lat": 45.7388885, "lon": 9.3702344, "epistemic_status": "FACT_OSM_OBSERVATION", "source": "data/raw/osm/osm_pois_core.json", "x_utm32": 528802.65238500247, "y_utm32": 5065103.5254313154, "walk_graph_node_id": 6622, "walk_graph_connector_m": 24.359771338723288, "walk_graph_connector_min": 0.30449714173404108, "walk_graph_snap_ok": true, "current_walk_min": 2.7740203141798552, "current_gap_10min": false }, "geometry": { "type": "Point", "coordinates": [ 9.3702344, 45.7388885 ] } },
{ "type": "Feature", "properties": { "anchor_id": "OSM_way_193847356", "anchor_type": "DESTINATION", "name": "Scuole elementari", "category": "amenity:school", "lat": 45.7384684, "lon": 9.3692596, "epistemic_status": "FACT_OSM_OBSERVATION", "source": "data/raw/osm/osm_pois_core.json", "x_utm32": 528727.03256831144, "y_utm32": 5065056.5011197189, "walk_graph_node_id": 6211, "walk_graph_connector_m": 22.29036509649049, "walk_graph_connector_min": 0.27862956370613112, "walk_graph_snap_ok": true, "current_walk_min": 2.6921002698530052, "current_gap_10min": false }, "geometry": { "type": "Point", "coordinates": [ 9.3692596, 45.7384684 ] } },
{ "type": "Feature", "properties": { "anchor_id": "OSM_way_193977000", "anchor_type": "DESTINATION", "name": "Scuola dell'Infanzia Gorizia", "category": "amenity:kindergarten", "lat": 45.7431604, "lon": 9.3751151, "epistemic_status": "FACT_OSM_OBSERVATION", "source": "data/raw/osm/osm_pois_core.json", "x_utm32": 529180.12437321071, "y_utm32": 5065579.9097093344, "walk_graph_node_id": 8372, "walk_graph_connector_m": 22.05294948639575, "walk_graph_connector_min": 0.2756618685799469, "walk_graph_snap_ok": true, "current_walk_min": 1.4105467442762514, "current_gap_10min": false }, "geometry": { "type": "Point", "coordinates": [ 9.3751151, 45.7431604 ] } },
{ "type": "Feature", "properties": { "anchor_id": "OSM_way_194064674", "anchor_type": "DESTINATION", "name": "OSM amenity:townhall 194064674", "category": "amenity:townhall", "lat": 45.7435994, "lon": 9.3715869, "epistemic_status": "FACT_OSM_OBSERVATION", "source": "data/raw/osm/osm_pois_core.json", "x_utm32": 528905.43997822818, "y_utm32": 5065627.4024744574, "walk_graph_node_id": 7028, "walk_graph_connector_m": 14.272924644432258, "walk_graph_connector_min": 0.17841155805540324, "walk_graph_snap_ok": true, "current_walk_min": 3.9190543772398283, "current_gap_10min": false }, "geometry": { "type": "Point", "coordinates": [ 9.3715869, 45.7435994 ] } },
{ "type": "Feature", "properties": { "anchor_id": "OSM_way_198149309", "anchor_type": "DESTINATION", "name": "OSM amenity:school 198149309", "category": "amenity:school", "lat": 45.7456245, "lon": 9.3741547, "epistemic_status": "FACT_OSM_OBSERVATION", "source": "data/raw/osm/osm_pois_core.json", "x_utm32": 529104.13461737114, "y_utm32": 5065853.3258004077, "walk_graph_node_id": 8053, "walk_graph_connector_m": 36.466453346227411, "walk_graph_connector_min": 0.45583066682784262, "walk_graph_snap_ok": true, "current_walk_min": 3.325455510081476, "current_gap_10min": false }, "geometry": { "type": "Point", "coordinates": [ 9.3741547, 45.7456245 ] } },
{ "type": "Feature", "properties": { "anchor_id": "OSM_way_235418043", "anchor_type": "DESTINATION", "name": "Punto Gioco", "category": "amenity:kindergarten", "lat": 45.7367036, "lon": 9.4143695, "epistemic_status": "FACT_OSM_OBSERVATION", "source": "data/raw/osm/osm_pois_core.json", "x_utm32": 532237.43025144213, "y_utm32": 5064877.6161546279, "walk_graph_node_id": 20337, "walk_graph_connector_m": 32.708192063429735, "walk_graph_connector_min": 0.40885240079287166, "walk_graph_snap_ok": true, "current_walk_min": 5.340010901455825, "current_gap_10min": false }, "geometry": { "type": "Point", "coordinates": [ 9.4143695, 45.7367036 ] } },
{ "type": "Feature", "properties": { "anchor_id": "OSM_way_297320961", "anchor_type": "DESTINATION", "name": "Municipio di Calco", "category": "amenity:townhall", "lat": 45.7256051, "lon": 9.4181961, "epistemic_status": "FACT_OSM_OBSERVATION", "source": "data/raw/osm/osm_pois_core.json", "x_utm32": 532541.5795859244, "y_utm32": 5063646.1047715256, "walk_graph_node_id": 21215, "walk_graph_connector_m": 15.466195288914783, "walk_graph_connector_min": 0.19332744111143479, "walk_graph_snap_ok": true, "current_walk_min": 4.3324908392452501, "current_gap_10min": false }, "geometry": { "type": "Point", "coordinates": [ 9.4181961, 45.7256051 ] } },
{ "type": "Feature", "properties": { "anchor_id": "OSM_way_297778222", "anchor_type": "DESTINATION", "name": "OSM amenity:townhall 297778222", "category": "amenity:townhall", "lat": 45.7422524, "lon": 9.447187, "epistemic_status": "FACT_OSM_OBSERVATION", "source": "data/raw/osm/osm_pois_core.json", "x_utm32": 534787.14362630667, "y_utm32": 5065507.8444312345, "walk_graph_node_id": 27529, "walk_graph_connector_m": 22.489736559362417, "walk_graph_connector_min": 0.28112170699203021, "walk_graph_snap_ok": true, "current_walk_min": 1.76450974942331, "current_gap_10min": false }, "geometry": { "type": "Point", "coordinates": [ 9.447187, 45.7422524 ] } },
{ "type": "Feature", "properties": { "anchor_id": "OSM_way_297778232", "anchor_type": "DESTINATION", "name": "OSM amenity:post_office 297778232", "category": "amenity:post_office", "lat": 45.7367452, "lon": 9.4283243, "epistemic_status": "FACT_OSM_OBSERVATION", "source": "data/raw/osm/osm_pois_core.json", "x_utm32": 533323.0710613539, "y_utm32": 5064887.9556520898, "walk_graph_node_id": 23642, "walk_graph_connector_m": 14.779807054115462, "walk_graph_connector_min": 0.18474758817644327, "walk_graph_snap_ok": true, "current_walk_min": 1.3759080280286873, "current_gap_10min": false }, "geometry": { "type": "Point", "coordinates": [ 9.4283243, 45.7367452 ] } },
{ "type": "Feature", "properties": { "anchor_id": "OSM_way_340266670", "anchor_type": "DESTINATION", "name": "OSM amenity:school 340266670", "category": "amenity:school", "lat": 45.7261153, "lon": 9.4120898, "epistemic_status": "FACT_OSM_OBSERVATION", "source": "data/raw/osm/osm_pois_core.json", "x_utm32": 532066.13124313299, "y_utm32": 5063700.3236202579, "walk_graph_node_id": 19949, "walk_graph_connector_m": 33.317927870971182, "walk_graph_connector_min": 0.41647409838713978, "walk_graph_snap_ok": true, "current_walk_min": 4.19137638151002, "current_gap_10min": false }, "geometry": { "type": "Point", "coordinates": [ 9.4120898, 45.7261153 ] } },
{ "type": "Feature", "properties": { "anchor_id": "OSM_way_592640676", "anchor_type": "DESTINATION", "name": "Oratorio San Giovanni Bosco", "category": "amenity:community_centre", "lat": 45.7370312, "lon": 9.4279669, "epistemic_status": "FACT_OSM_OBSERVATION", "source": "data/raw/osm/osm_pois_core.json", "x_utm32": 533295.09584707441, "y_utm32": 5064919.5819227854, "walk_graph_node_id": 23595, "walk_graph_connector_m": 35.858956275283603, "walk_graph_connector_min": 0.44823695344104503, "walk_graph_snap_ok": true, "current_walk_min": 0.49304374239918736, "current_gap_10min": false }, "geometry": { "type": "Point", "coordinates": [ 9.4279669, 45.7370312 ] } },
{ "type": "Feature", "properties": { "anchor_id": "OSM_way_606385949", "anchor_type": "DESTINATION", "name": "Casa di riposo Carlo e Elisa Frigerio", "category": "amenity:social_facility", "lat": 45.7426071, "lon": 9.4446596, "epistemic_status": "FACT_OSM_OBSERVATION", "source": "data/raw/osm/osm_pois_core.json", "x_utm32": 534590.3155914204, "y_utm32": 5065546.1562759327, "walk_graph_node_id": 27101, "walk_graph_connector_m": 40.773468025709356, "walk_graph_connector_min": 0.50966835032136693, "walk_graph_snap_ok": true, "current_walk_min": 1.4438444914837785, "current_gap_10min": false }, "geometry": { "type": "Point", "coordinates": [ 9.4446596, 45.7426071 ] } },
{ "type": "Feature", "properties": { "anchor_id": "OSM_way_688624393", "anchor_type": "DESTINATION", "name": "Scuola primaria \"Bartolomeo Calchi\"", "category": "amenity:school", "lat": 45.7267712, "lon": 9.4186872, "epistemic_status": "FACT_OSM_OBSERVATION", "source": "data/raw/osm/osm_pois_core.json", "x_utm32": 532579.11622891773, "y_utm32": 5063775.8599922201, "walk_graph_node_id": 21291, "walk_graph_connector_m": 36.879734507141144, "walk_graph_connector_min": 0.4609966813392643, "walk_graph_snap_ok": true, "current_walk_min": 7.5107013371308664, "current_gap_10min": false }, "geometry": { "type": "Point", "coordinates": [ 9.4186872, 45.7267712 ] } },
{ "type": "Feature", "properties": { "anchor_id": "OSM_POINT_62511518", "anchor_type": "SETTLEMENT", "name": "Brivio", "category": "village", "lat": 45.7419691, "lon": 9.4441423, "epistemic_status": "FACT_OSM_OBSERVATION", "source": "data/raw/osm/osm_points_core.geojson", "x_utm32": 534550.46809875418, "y_utm32": 5065475.0498150233, "walk_graph_node_id": 26956, "walk_graph_connector_m": 25.638914967647967, "walk_graph_connector_min": 0.3204864370955996, "walk_graph_snap_ok": true, "current_walk_min": 2.3624589570966381, "current_gap_10min": false }, "geometry": { "type": "Point", "coordinates": [ 9.4441423, 45.7419691 ] } },
{ "type": "Feature", "properties": { "anchor_id": "OSM_POINT_62511556", "anchor_type": "SETTLEMENT", "name": "Calco", "category": "village", "lat": 45.7248681, "lon": 9.4159051, "epistemic_status": "FACT_OSM_OBSERVATION", "source": "data/raw/osm/osm_points_core.geojson", "x_utm32": 532363.73299092147, "y_utm32": 5063563.2939000921, "walk_graph_node_id": 20649, "walk_graph_connector_m": 9.7520302506532541, "walk_graph_connector_min": 0.12190037813316568, "walk_graph_snap_ok": true, "current_walk_min": 1.2077170266459909, "current_gap_10min": false }, "geometry": { "type": "Point", "coordinates": [ 9.4159051, 45.7248681 ] } },
{ "type": "Feature", "properties": { "anchor_id": "OSM_POINT_62511605", "anchor_type": "SETTLEMENT", "name": "Olgiate Molgora", "category": "village", "lat": 45.730279, "lon": 9.403347, "epistemic_status": "FACT_OSM_OBSERVATION", "source": "data/raw/osm/osm_points_core.geojson", "x_utm32": 531383.49220102292, "y_utm32": 5064159.4505398273, "walk_graph_node_id": 17462, "walk_graph_connector_m": 29.725502785461803, "walk_graph_connector_min": 0.37156878481827255, "walk_graph_snap_ok": true, "current_walk_min": 3.5347618293811656, "current_gap_10min": false }, "geometry": { "type": "Point", "coordinates": [ 9.403347, 45.730279 ] } },
{ "type": "Feature", "properties": { "anchor_id": "OSM_POINT_62512298", "anchor_type": "SETTLEMENT", "name": "Rovagnate", "category": "village", "lat": 45.7385802, "lon": 9.3695359, "epistemic_status": "FACT_OSM_OBSERVATION", "source": "data/raw/osm/osm_points_core.geojson", "x_utm32": 528748.47030641278, "y_utm32": 5065069.0215387642, "walk_graph_node_id": 6372, "walk_graph_connector_m": 24.669608465543234, "walk_graph_connector_min": 0.30837010581929042, "walk_graph_snap_ok": true, "current_walk_min": 2.0934170365696785, "current_gap_10min": false }, "geometry": { "type": "Point", "coordinates": [ 9.3695359, 45.7385802 ] } },
{ "type": "Feature", "properties": { "anchor_id": "OSM_POINT_62512525", "anchor_type": "SETTLEMENT", "name": "Santa Maria Hoè", "category": "village", "lat": 45.7443892, "lon": 9.3750111, "epistemic_status": "FACT_OSM_OBSERVATION", "source": "data/raw/osm/osm_points_core.geojson", "x_utm32": 529171.39423772239, "y_utm32": 5065716.3936654869, "walk_graph_node_id": 8353, "walk_graph_connector_m": 41.228492183452445, "walk_graph_connector_min": 0.51535615229315557, "walk_graph_snap_ok": true, "current_walk_min": 2.7588206627103178, "current_gap_10min": false }, "geometry": { "type": "Point", "coordinates": [ 9.3750111, 45.7443892 ] } },
{ "type": "Feature", "properties": { "anchor_id": "OSM_POINT_62512561", "anchor_type": "SETTLEMENT", "name": "Perego", "category": "village", "lat": 45.7373114, "lon": 9.3597486, "epistemic_status": "FACT_OSM_OBSERVATION", "source": "data/raw/osm/osm_points_core.geojson", "x_utm32": 527987.69016717526, "y_utm32": 5064924.5852913177, "walk_graph_node_id": 3759, "walk_graph_connector_m": 23.713248695969277, "walk_graph_connector_min": 0.29641560869961597, "walk_graph_snap_ok": true, "current_walk_min": 10.892467051280791, "current_gap_10min": true }, "geometry": { "type": "Point", "coordinates": [ 9.3597486, 45.7373114 ] } },
{ "type": "Feature", "properties": { "anchor_id": "OSM_POINT_534888593", "anchor_type": "SETTLEMENT", "name": "Ospedaletto", "category": "locality", "lat": 45.7183596, "lon": 9.3686061, "epistemic_status": "FACT_OSM_OBSERVATION", "source": "data/raw/osm/osm_points_core.geojson", "x_utm32": 528686.48443623388, "y_utm32": 5062822.1488487562, "walk_graph_node_id": 5928, "walk_graph_connector_m": 10.502528619749471, "walk_graph_connector_min": 0.1312816077468684, "walk_graph_snap_ok": true, "current_walk_min": 41.984282780282278, "current_gap_10min": true }, "geometry": { "type": "Point", "coordinates": [ 9.3686061, 45.7183596 ] } },
{ "type": "Feature", "properties": { "anchor_id": "OSM_POINT_538469464", "anchor_type": "SETTLEMENT", "name": "Fornace Inferiore", "category": "hamlet", "lat": 45.7148347, "lon": 9.382607, "epistemic_status": "FACT_OSM_OBSERVATION", "source": "data/raw/osm/osm_points_core.geojson", "x_utm32": 529777.96546739305, "y_utm32": 5062435.6418707604, "walk_graph_node_id": 10869, "walk_graph_connector_m": 48.148771497450632, "walk_graph_connector_min": 0.60185964371813294, "walk_graph_snap_ok": true, "current_walk_min": 42.516034178799742, "current_gap_10min": true }, "geometry": { "type": "Point", "coordinates": [ 9.382607, 45.7148347 ] } },
{ "type": "Feature", "properties": { "anchor_id": "OSM_POINT_538492425", "anchor_type": "SETTLEMENT", "name": "Bagaggera", "category": "hamlet", "lat": 45.7109486, "lon": 9.3841585, "epistemic_status": "FACT_OSM_OBSERVATION", "source": "data/raw/osm/osm_points_core.geojson", "x_utm32": 529900.78958490468, "y_utm32": 5062004.4699510345, "walk_graph_node_id": 11559, "walk_graph_connector_m": 19.465603520131946, "walk_graph_connector_min": 0.24332004400164933, "walk_graph_snap_ok": true, "current_walk_min": 39.611483895301994, "current_gap_10min": true }, "geometry": { "type": "Point", "coordinates": [ 9.3841585, 45.7109486 ] } },
{ "type": "Feature", "properties": { "anchor_id": "OSM_POINT_538561433", "anchor_type": "SETTLEMENT", "name": "Beolco", "category": "hamlet", "lat": 45.7185581, "lon": 9.3940415, "epistemic_status": "FACT_OSM_OBSERVATION", "source": "data/raw/osm/osm_points_core.geojson", "x_utm32": 530665.86546051409, "y_utm32": 5062853.634229009, "walk_graph_node_id": 14889, "walk_graph_connector_m": 28.392441248195745, "walk_graph_connector_min": 0.35490551560244682, "walk_graph_snap_ok": true, "current_walk_min": 20.850387993210074, "current_gap_10min": true }, "geometry": { "type": "Point", "coordinates": [ 9.3940415, 45.7185581 ] } },
{ "type": "Feature", "properties": { "anchor_id": "OSM_POINT_855805785", "anchor_type": "SETTLEMENT", "name": "Fornace Superiore", "category": "hamlet", "lat": 45.7151942, "lon": 9.3791444, "epistemic_status": "FACT_OSM_OBSERVATION", "source": "data/raw/osm/osm_points_core.geojson", "x_utm32": 529508.2852447863, "y_utm32": 5062474.3002935229, "walk_graph_node_id": 9696, "walk_graph_connector_m": 10.641053651749347, "walk_graph_connector_min": 0.13301317064686685, "walk_graph_snap_ok": true, "current_walk_min": 43.781494404183618, "current_gap_10min": true }, "geometry": { "type": "Point", "coordinates": [ 9.3791444, 45.7151942 ] } },
{ "type": "Feature", "properties": { "anchor_id": "OSM_POINT_856848364", "anchor_type": "SETTLEMENT", "name": "Bernaga inferiore", "category": "hamlet", "lat": 45.7331468, "lon": 9.355394, "epistemic_status": "FACT_OSM_OBSERVATION", "source": "data/raw/osm/osm_points_core.geojson", "x_utm32": 527650.96677564213, "y_utm32": 5064460.3772867005, "walk_graph_node_id": 2897, "walk_graph_connector_m": 11.14556536657693, "walk_graph_connector_min": 0.13931956708221163, "walk_graph_snap_ok": true, "current_walk_min": 19.952672339503525, "current_gap_10min": true }, "geometry": { "type": "Point", "coordinates": [ 9.355394, 45.7331468 ] } },
{ "type": "Feature", "properties": { "anchor_id": "OSM_POINT_856848408", "anchor_type": "SETTLEMENT", "name": "Campo", "category": "hamlet", "lat": 45.732917, "lon": 9.3631631, "epistemic_status": "FACT_OSM_OBSERVATION", "source": "data/raw/osm/osm_points_core.geojson", "x_utm32": 528255.54716356972, "y_utm32": 5064437.5604348537, "walk_graph_node_id": 4576, "walk_graph_connector_m": 24.350927983706953, "walk_graph_connector_min": 0.30438659979633692, "walk_graph_snap_ok": true, "current_walk_min": 15.084738037074315, "current_gap_10min": true }, "geometry": { "type": "Point", "coordinates": [ 9.3631631, 45.732917 ] } },
{ "type": "Feature", "properties": { "anchor_id": "OSM_POINT_856848452", "anchor_type": "SETTLEMENT", "name": "Pianello", "category": "isolated_dwelling", "lat": 45.7288716, "lon": 9.3602339, "epistemic_status": "FACT_OSM_OBSERVATION", "source": "data/raw/osm/osm_points_core.geojson", "x_utm32": 528029.66722115583, "y_utm32": 5063987.079956403, "walk_graph_node_id": 3904, "walk_graph_connector_m": 13.86734319976169, "walk_graph_connector_min": 0.17334178999702113, "walk_graph_snap_ok": true, "current_walk_min": 22.166103593178146, "current_gap_10min": true }, "geometry": { "type": "Point", "coordinates": [ 9.3602339, 45.7288716 ] } },
{ "type": "Feature", "properties": { "anchor_id": "OSM_POINT_1144810020", "anchor_type": "SETTLEMENT", "name": "Porchera", "category": "hamlet", "lat": 45.7388644, "lon": 9.4122468, "epistemic_status": "FACT_OSM_OBSERVATION", "source": "data/raw/osm/osm_points_core.geojson", "x_utm32": 532071.04986946902, "y_utm32": 5065116.8315020995, "walk_graph_node_id": 19944, "walk_graph_connector_m": 16.520053484800894, "walk_graph_connector_min": 0.20650066856001117, "walk_graph_snap_ok": true, "current_walk_min": 8.4071608640255313, "current_gap_10min": false }, "geometry": { "type": "Point", "coordinates": [ 9.4122468, 45.7388644 ] } },
{ "type": "Feature", "properties": { "anchor_id": "OSM_POINT_1144810072", "anchor_type": "SETTLEMENT", "name": "Olcellera", "category": "hamlet", "lat": 45.7366247, "lon": 9.4032471, "epistemic_status": "FACT_OSM_OBSERVATION", "source": "data/raw/osm/osm_points_core.geojson", "x_utm32": 531372.165936623, "y_utm32": 5064864.428696434, "walk_graph_node_id": 17324, "walk_graph_connector_m": 15.930543807129066, "walk_graph_connector_min": 0.19913179758911331, "walk_graph_snap_ok": true, "current_walk_min": 8.136394500835836, "current_gap_10min": false }, "geometry": { "type": "Point", "coordinates": [ 9.4032471, 45.7366247 ] } },
{ "type": "Feature", "properties": { "anchor_id": "OSM_POINT_1144810107", "anchor_type": "SETTLEMENT", "name": "Caglianello", "category": "hamlet", "lat": 45.7438163, "lon": 9.400202, "epistemic_status": "FACT_OSM_OBSERVATION", "source": "data/raw/osm/osm_points_core.geojson", "x_utm32": 531131.2637138908, "y_utm32": 5065662.2382606082, "walk_graph_node_id": 16520, "walk_graph_connector_m": 62.423062300100369, "walk_graph_connector_min": 0.78028827875125462, "walk_graph_snap_ok": true, "current_walk_min": 20.503663044939909, "current_gap_10min": true }, "geometry": { "type": "Point", "coordinates": [ 9.400202, 45.7438163 ] } },
{ "type": "Feature", "properties": { "anchor_id": "OSM_POINT_1144810140", "anchor_type": "SETTLEMENT", "name": "Vaccarezza Vecchia", "category": "hamlet", "lat": 45.7375154, "lon": 9.4373951, "epistemic_status": "FACT_OSM_OBSERVATION", "source": "data/raw/osm/osm_points_core.geojson", "x_utm32": 534028.29929911764, "y_utm32": 5064977.3442525463, "walk_graph_node_id": 25308, "walk_graph_connector_m": 21.902237890155469, "walk_graph_connector_min": 0.27377797362694334, "walk_graph_snap_ok": true, "current_walk_min": 6.7769336578890558, "current_gap_10min": false }, "geometry": { "type": "Point", "coordinates": [ 9.4373951, 45.7375154 ] } },
{ "type": "Feature", "properties": { "anchor_id": "OSM_POINT_1144810197", "anchor_type": "SETTLEMENT", "name": "Paù", "category": "hamlet", "lat": 45.7459833, "lon": 9.3908657, "epistemic_status": "FACT_OSM_OBSERVATION", "source": "data/raw/osm/osm_points_core.geojson", "x_utm32": 530403.82732271473, "y_utm32": 5065899.4049288668, "walk_graph_node_id": 13800, "walk_graph_connector_m": 0.0, "walk_graph_connector_min": 0.0, "walk_graph_snap_ok": true, "current_walk_min": 22.42394765889966, "current_gap_10min": true }, "geometry": { "type": "Point", "coordinates": [ 9.3908657, 45.7459833 ] } },
{ "type": "Feature", "properties": { "anchor_id": "OSM_POINT_1144810206", "anchor_type": "SETTLEMENT", "name": "Mondonico", "category": "hamlet", "lat": 45.7419344, "lon": 9.3962025, "epistemic_status": "FACT_OSM_OBSERVATION", "source": "data/raw/osm/osm_points_core.geojson", "x_utm32": 530821.18275595584, "y_utm32": 5065451.607156964, "walk_graph_node_id": 15419, "walk_graph_connector_m": 35.390166519046424, "walk_graph_connector_min": 0.4423770814880803, "walk_graph_snap_ok": true, "current_walk_min": 10.908497558474458, "current_gap_10min": true }, "geometry": { "type": "Point", "coordinates": [ 9.3962025, 45.7419344 ] } },
{ "type": "Feature", "properties": { "anchor_id": "OSM_POINT_1144810241", "anchor_type": "SETTLEMENT", "name": "Beverate", "category": "village", "lat": 45.738267, "lon": 9.4280345, "epistemic_status": "FACT_OSM_OBSERVATION", "source": "data/raw/osm/osm_points_core.geojson", "x_utm32": 533299.62043158314, "y_utm32": 5065056.9094883231, "walk_graph_node_id": 23552, "walk_graph_connector_m": 9.6614882264459609, "walk_graph_connector_min": 0.12076860283057451, "walk_graph_snap_ok": true, "current_walk_min": 2.4975004020020171, "current_gap_10min": false }, "geometry": { "type": "Point", "coordinates": [ 9.4280345, 45.738267 ] } },
{ "type": "Feature", "properties": { "anchor_id": "OSM_POINT_1144810296", "anchor_type": "SETTLEMENT", "name": "Vaccarezza Nuova", "category": "hamlet", "lat": 45.743033, "lon": 9.4394422, "epistemic_status": "FACT_OSM_OBSERVATION", "source": "data/raw/osm/osm_points_core.geojson", "x_utm32": 534184.19143019349, "y_utm32": 5065591.231764948, "walk_graph_node_id": 25620, "walk_graph_connector_m": 19.159648303793443, "walk_graph_connector_min": 0.23949560379741802, "walk_graph_snap_ok": true, "current_walk_min": 1.597923199342749, "current_gap_10min": false }, "geometry": { "type": "Point", "coordinates": [ 9.4394422, 45.743033 ] } },
{ "type": "Feature", "properties": { "anchor_id": "OSM_POINT_1144810315", "anchor_type": "SETTLEMENT", "name": "Monastirolo", "category": "hamlet", "lat": 45.7417582, "lon": 9.4075899, "epistemic_status": "FACT_OSM_OBSERVATION", "source": "data/raw/osm/osm_points_core.geojson", "x_utm32": 531707.12494955934, "y_utm32": 5065436.4813514575, "walk_graph_node_id": 18631, "walk_graph_connector_m": 5.5834082473912305, "walk_graph_connector_min": 0.069792603092390382, "walk_graph_snap_ok": true, "current_walk_min": 23.567113518546844, "current_gap_10min": true }, "geometry": { "type": "Point", "coordinates": [ 9.4075899, 45.7417582 ] } },
{ "type": "Feature", "properties": { "anchor_id": "OSM_POINT_1575801240", "anchor_type": "SETTLEMENT", "name": "Monte", "category": "village", "lat": 45.726312, "lon": 9.3791657, "epistemic_status": "FACT_OSM_OBSERVATION", "source": "data/raw/osm/osm_points_core.geojson", "x_utm32": 529504.09063396556, "y_utm32": 5063709.5107007939, "walk_graph_node_id": 9615, "walk_graph_connector_m": 61.47664158741518, "walk_graph_connector_min": 0.7684580198426898, "walk_graph_snap_ok": true, "current_walk_min": 19.479389656837718, "current_gap_10min": true }, "geometry": { "type": "Point", "coordinates": [ 9.3791657, 45.726312 ] } },
{ "type": "Feature", "properties": { "anchor_id": "OSM_POINT_1620729044", "anchor_type": "SETTLEMENT", "name": "Grugana", "category": "hamlet", "lat": 45.7231051, "lon": 9.4366717, "epistemic_status": "FACT_OSM_OBSERVATION", "source": "data/raw/osm/osm_points_core.geojson", "x_utm32": 533980.75797158876, "y_utm32": 5063376.0306775896, "walk_graph_node_id": 25083, "walk_graph_connector_m": 32.483187025621412, "walk_graph_connector_min": 0.40603983782026765, "walk_graph_snap_ok": true, "current_walk_min": 18.987032714467365, "current_gap_10min": true }, "geometry": { "type": "Point", "coordinates": [ 9.4366717, 45.7231051 ] } },
{ "type": "Feature", "properties": { "anchor_id": "OSM_POINT_1620729074", "anchor_type": "SETTLEMENT", "name": "Scagnello", "category": "hamlet", "lat": 45.7177172, "lon": 9.4056402, "epistemic_status": "FACT_OSM_OBSERVATION", "source": "data/raw/osm/osm_points_core.geojson", "x_utm32": 531568.99527696415, "y_utm32": 5062764.718962173, "walk_graph_node_id": 18121, "walk_graph_connector_m": 8.4617264935610201, "walk_graph_connector_min": 0.10577158116951275, "walk_graph_snap_ok": true, "current_walk_min": 13.561600678288979, "current_gap_10min": true }, "geometry": { "type": "Point", "coordinates": [ 9.4056402, 45.7177172 ] } },
{ "type": "Feature", "properties": { "anchor_id": "OSM_POINT_2101402480", "anchor_type": "SETTLEMENT", "name": "Casternago", "category": "hamlet", "lat": 45.730683, "lon": 9.3898515, "epistemic_status": "FACT_OSM_OBSERVATION", "source": "data/raw/osm/osm_points_core.geojson", "x_utm32": 530333.2204261286, "y_utm32": 5064199.1308321971, "walk_graph_node_id": 13503, "walk_graph_connector_m": 64.526905694265878, "walk_graph_connector_min": 0.80658632117832352, "walk_graph_snap_ok": true, "current_walk_min": 1.1215117714134275, "current_gap_10min": false }, "geometry": { "type": "Point", "coordinates": [ 9.3898515, 45.730683 ] } },
{ "type": "Feature", "properties": { "anchor_id": "OSM_POINT_2101402495", "anchor_type": "SETTLEMENT", "name": "Cereda", "category": "hamlet", "lat": 45.7303285, "lon": 9.369536, "epistemic_status": "FACT_OSM_OBSERVATION", "source": "data/raw/osm/osm_points_core.geojson", "x_utm32": 528752.71242174588, "y_utm32": 5064152.2443681294, "walk_graph_node_id": 6454, "walk_graph_connector_m": 59.055253655459978, "walk_graph_connector_min": 0.73819067069324973, "walk_graph_snap_ok": true, "current_walk_min": 15.536520322549785, "current_gap_10min": true }, "geometry": { "type": "Point", "coordinates": [ 9.369536, 45.7303285 ] } },
{ "type": "Feature", "properties": { "anchor_id": "OSM_POINT_2101402496", "anchor_type": "SETTLEMENT", "name": "Crescenzaga", "category": "village", "lat": 45.7333404, "lon": 9.3723062, "epistemic_status": "FACT_OSM_OBSERVATION", "source": "data/raw/osm/osm_points_core.geojson", "x_utm32": 528966.69792265689, "y_utm32": 5064487.870361859, "walk_graph_node_id": 7369, "walk_graph_connector_m": 33.611702028700975, "walk_graph_connector_min": 0.4201462753587622, "walk_graph_snap_ok": true, "current_walk_min": 13.945223438490823, "current_gap_10min": true }, "geometry": { "type": "Point", "coordinates": [ 9.3723062, 45.7333404 ] } },
{ "type": "Feature", "properties": { "anchor_id": "OSM_POINT_2101402497", "anchor_type": "SETTLEMENT", "name": "Sara", "category": "village", "lat": 45.7294421, "lon": 9.3790469, "epistemic_status": "FACT_OSM_OBSERVATION", "source": "data/raw/osm/osm_points_core.geojson", "x_utm32": 529493.19907479454, "y_utm32": 5064057.2256641937, "walk_graph_node_id": 9684, "walk_graph_connector_m": 25.00393635063088, "walk_graph_connector_min": 0.31254920438288603, "walk_graph_snap_ok": true, "current_walk_min": 14.796471767403625, "current_gap_10min": true }, "geometry": { "type": "Point", "coordinates": [ 9.3790469, 45.7294421 ] } },
{ "type": "Feature", "properties": { "anchor_id": "OSM_POINT_2101450217", "anchor_type": "SETTLEMENT", "name": "Biscioia", "category": "hamlet", "lat": 45.7411407, "lon": 9.3572487, "epistemic_status": "FACT_OSM_OBSERVATION", "source": "data/raw/osm/osm_points_core.geojson", "x_utm32": 527791.3034154108, "y_utm32": 5065349.1555876592, "walk_graph_node_id": 3355, "walk_graph_connector_m": 32.962722384783092, "walk_graph_connector_min": 0.41203402980978865, "walk_graph_snap_ok": true, "current_walk_min": 7.2821690178205332, "current_gap_10min": false }, "geometry": { "type": "Point", "coordinates": [ 9.3572487, 45.7411407 ] } },
{ "type": "Feature", "properties": { "anchor_id": "OSM_POINT_2101450222", "anchor_type": "SETTLEMENT", "name": "Bruggione", "category": "hamlet", "lat": 45.7356141, "lon": 9.3979405, "epistemic_status": "FACT_OSM_OBSERVATION", "source": "data/raw/osm/osm_points_core.geojson", "x_utm32": 530959.87711573299, "y_utm32": 5064750.0822127424, "walk_graph_node_id": 15944, "walk_graph_connector_m": 19.767677900287072, "walk_graph_connector_min": 0.24709597375358841, "walk_graph_snap_ok": true, "current_walk_min": 13.22833088564462, "current_gap_10min": true }, "geometry": { "type": "Point", "coordinates": [ 9.3979405, 45.7356141 ] } },
{ "type": "Feature", "properties": { "anchor_id": "OSM_POINT_2101450231", "anchor_type": "SETTLEMENT", "name": "Cascinette Nere", "category": "hamlet", "lat": 45.7476942, "lon": 9.3592905, "epistemic_status": "FACT_OSM_OBSERVATION", "source": "data/raw/osm/osm_points_core.geojson", "x_utm32": 527946.87005629367, "y_utm32": 5066077.9726562062, "walk_graph_node_id": 3710, "walk_graph_connector_m": 15.703479904394861, "walk_graph_connector_min": 0.19629349880493577, "walk_graph_snap_ok": true, "current_walk_min": 16.974299723900401, "current_gap_10min": true }, "geometry": { "type": "Point", "coordinates": [ 9.3592905, 45.7476942 ] } },
{ "type": "Feature", "properties": { "anchor_id": "OSM_POINT_2101450267", "anchor_type": "SETTLEMENT", "name": "Monticello", "category": "hamlet", "lat": 45.7346613, "lon": 9.3920896, "epistemic_status": "FACT_OSM_OBSERVATION", "source": "data/raw/osm/osm_points_core.geojson", "x_utm32": 530505.19448027457, "y_utm32": 5064641.9771297658, "walk_graph_node_id": 14263, "walk_graph_connector_m": 21.507022306557442, "walk_graph_connector_min": 0.26883777883196802, "walk_graph_snap_ok": true, "current_walk_min": 8.2854383053936687, "current_gap_10min": false }, "geometry": { "type": "Point", "coordinates": [ 9.3920896, 45.7346613 ] } },
{ "type": "Feature", "properties": { "anchor_id": "OSM_POINT_2101450272", "anchor_type": "SETTLEMENT", "name": "Sancina", "category": "hamlet", "lat": 45.743116, "lon": 9.3873835, "epistemic_status": "FACT_OSM_OBSERVATION", "source": "data/raw/osm/osm_points_core.geojson", "x_utm32": 530134.50415626809, "y_utm32": 5065579.5250876294, "walk_graph_node_id": 12556, "walk_graph_connector_m": 44.258793705046202, "walk_graph_connector_min": 0.5532349213130775, "walk_graph_snap_ok": true, "current_walk_min": 8.0197522160885875, "current_gap_10min": false }, "geometry": { "type": "Point", "coordinates": [ 9.3873835, 45.743116 ] } },
{ "type": "Feature", "properties": { "anchor_id": "OSM_POINT_2101450275", "anchor_type": "SETTLEMENT", "name": "Tre Strade", "category": "hamlet", "lat": 45.7390117, "lon": 9.3909277, "epistemic_status": "FACT_OSM_OBSERVATION", "source": "data/raw/osm/osm_points_core.geojson", "x_utm32": 530412.43512173684, "y_utm32": 5065124.8714242605, "walk_graph_node_id": 13831, "walk_graph_connector_m": 27.624618144043403, "walk_graph_connector_min": 0.34530772680054256, "walk_graph_snap_ok": true, "current_walk_min": 4.6304966404218479, "current_gap_10min": false }, "geometry": { "type": "Point", "coordinates": [ 9.3909277, 45.7390117 ] } },
{ "type": "Feature", "properties": { "anchor_id": "OSM_POINT_2205292238", "anchor_type": "SETTLEMENT", "name": "Spiazzo", "category": "hamlet", "lat": 45.7195342, "lon": 9.3843226, "epistemic_status": "FACT_OSM_OBSERVATION", "source": "data/raw/osm/osm_points_core.geojson", "x_utm32": 529908.98176810483, "y_utm32": 5062958.402057007, "walk_graph_node_id": 11617, "walk_graph_connector_m": 20.757440781021479, "walk_graph_connector_min": 0.25946800976276851, "walk_graph_snap_ok": true, "current_walk_min": 30.858633082770854, "current_gap_10min": true }, "geometry": { "type": "Point", "coordinates": [ 9.3843226, 45.7195342 ] } },
{ "type": "Feature", "properties": { "anchor_id": "OSM_POINT_2456277169", "anchor_type": "SETTLEMENT", "name": "Mirabella", "category": "isolated_dwelling", "lat": 45.7457599, "lon": 9.3872997, "epistemic_status": "FACT_OSM_OBSERVATION", "source": "data/raw/osm/osm_points_core.geojson", "x_utm32": 530126.56319649669, "y_utm32": 5065873.2355856327, "walk_graph_node_id": 12399, "walk_graph_connector_m": 9.7061205065957274, "walk_graph_connector_min": 0.1213265063324466, "walk_graph_snap_ok": true, "current_walk_min": 15.24066860277952, "current_gap_10min": true }, "geometry": { "type": "Point", "coordinates": [ 9.3872997, 45.7457599 ] } },
{ "type": "Feature", "properties": { "anchor_id": "OSM_POINT_3070050535", "anchor_type": "SETTLEMENT", "name": "Arlate", "category": "village", "lat": 45.7210372, "lon": 9.4433482, "epistemic_status": "FACT_OSM_OBSERVATION", "source": "data/raw/osm/osm_points_core.geojson", "x_utm32": 534501.5799809763, "y_utm32": 5063149.1409451999, "walk_graph_node_id": 26764, "walk_graph_connector_m": 33.038138129449408, "walk_graph_connector_min": 0.41297672661811757, "walk_graph_snap_ok": true, "current_walk_min": 5.213431558902105, "current_gap_10min": false }, "geometry": { "type": "Point", "coordinates": [ 9.4433482, 45.7210372 ] } },
{ "type": "Feature", "properties": { "anchor_id": "OSM_POINT_6325155065", "anchor_type": "SETTLEMENT", "name": "Pianezzo", "category": "hamlet", "lat": 45.7100715, "lon": 9.394973, "epistemic_status": "FACT_OSM_OBSERVATION", "source": "data/raw/osm/osm_points_core.geojson", "x_utm32": 530743.01148084668, "y_utm32": 5061911.1199968923, "walk_graph_node_id": 15141, "walk_graph_connector_m": 3.4372469416020905, "walk_graph_connector_min": 0.042965586770026133, "walk_graph_snap_ok": true, "current_walk_min": 30.459899763064712, "current_gap_10min": true }, "geometry": { "type": "Point", "coordinates": [ 9.394973, 45.7100715 ] } },
{ "type": "Feature", "properties": { "anchor_id": "OSM_POINT_6325185758", "anchor_type": "SETTLEMENT", "name": "Molino Cattaneo", "category": "isolated_dwelling", "lat": 45.7135078, "lon": 9.397125, "epistemic_status": "FACT_OSM_OBSERVATION", "source": "data/raw/osm/osm_points_core.geojson", "x_utm32": 530908.61966779246, "y_utm32": 5062293.7257480398, "walk_graph_node_id": 15848, "walk_graph_connector_m": 5.7945199833959986, "walk_graph_connector_min": 0.072431499792449977, "walk_graph_snap_ok": true, "current_walk_min": 26.6164023892822, "current_gap_10min": true }, "geometry": { "type": "Point", "coordinates": [ 9.397125, 45.7135078 ] } },
{ "type": "Feature", "properties": { "anchor_id": "OSM_POINT_6647016663", "anchor_type": "SETTLEMENT", "name": "Calco Superiore", "category": "neighbourhood", "lat": 45.7247416, "lon": 9.4268562, "epistemic_status": "FACT_OSM_OBSERVATION", "source": "data/raw/osm/osm_points_core.geojson", "x_utm32": 533215.96948242397, "y_utm32": 5063553.7269452158, "walk_graph_node_id": 23154, "walk_graph_connector_m": 20.258679456289578, "walk_graph_connector_min": 0.25323349320361971, "walk_graph_snap_ok": true, "current_walk_min": 9.0072294211600354, "current_gap_10min": false }, "geometry": { "type": "Point", "coordinates": [ 9.4268562, 45.7247416 ] } },
{ "type": "Feature", "properties": { "anchor_id": "OSM_POINT_7555692278", "anchor_type": "SETTLEMENT", "name": "Bella Venezia", "category": "isolated_dwelling", "lat": 45.7442014, "lon": 9.4519897, "epistemic_status": "FACT_OSM_OBSERVATION", "source": "data/raw/osm/osm_points_core.geojson", "x_utm32": 535159.52701468731, "y_utm32": 5065726.4814491328, "walk_graph_node_id": 28302, "walk_graph_connector_m": 21.743830224572541, "walk_graph_connector_min": 0.27179787780715675, "walk_graph_snap_ok": true, "current_walk_min": 7.7161663992471308, "current_gap_10min": false }, "geometry": { "type": "Point", "coordinates": [ 9.4519897, 45.7442014 ] } },
{ "type": "Feature", "properties": { "anchor_id": "OSM_POINT_7994580675", "anchor_type": "SETTLEMENT", "name": "Limito", "category": "locality", "lat": 45.7211994, "lon": 9.4168818, "epistemic_status": "FACT_OSM_OBSERVATION", "source": "data/raw/osm/osm_points_core.geojson", "x_utm32": 532441.85842633643, "y_utm32": 5063156.0917505734, "walk_graph_node_id": 20778, "walk_graph_connector_m": 43.271601744478275, "walk_graph_connector_min": 0.54089502180597848, "walk_graph_snap_ok": true, "current_walk_min": 10.186433231636903, "current_gap_10min": true }, "geometry": { "type": "Point", "coordinates": [ 9.4168818, 45.7211994 ] } },
{ "type": "Feature", "properties": { "anchor_id": "OSM_POINT_8823966881", "anchor_type": "SETTLEMENT", "name": "Roncada", "category": "neighbourhood", "lat": 45.7381686, "lon": 9.3553508, "epistemic_status": "FACT_OSM_OBSERVATION", "source": "data/raw/osm/osm_points_core.geojson", "x_utm32": 527645.12760533881, "y_utm32": 5065018.2925929334, "walk_graph_node_id": 2880, "walk_graph_connector_m": 65.766438090989993, "walk_graph_connector_min": 0.82208047613737489, "walk_graph_snap_ok": true, "current_walk_min": 10.793338098480836, "current_gap_10min": true }, "geometry": { "type": "Point", "coordinates": [ 9.3553508, 45.7381686 ] } },
{ "type": "Feature", "properties": { "anchor_id": "OSM_POINT_8823966883", "anchor_type": "SETTLEMENT", "name": "Galbusera Bianca", "category": "hamlet", "lat": 45.7224552, "lon": 9.3710056, "epistemic_status": "FACT_OSM_OBSERVATION", "source": "data/raw/osm/osm_points_core.geojson", "x_utm32": 528871.11411153711, "y_utm32": 5063278.0383964479, "walk_graph_node_id": 6786, "walk_graph_connector_m": 5.9921954871088978, "walk_graph_connector_min": 0.074902443588861223, "walk_graph_snap_ok": true, "current_walk_min": 31.479427250449476, "current_gap_10min": true }, "geometry": { "type": "Point", "coordinates": [ 9.3710056, 45.7224552 ] } },
{ "type": "Feature", "properties": { "anchor_id": "OSM_POINT_9964953335", "anchor_type": "SETTLEMENT", "name": "Vescogna", "category": "hamlet", "lat": 45.7241072, "lon": 9.4258255, "epistemic_status": "FACT_OSM_OBSERVATION", "source": "data/raw/osm/osm_points_core.geojson", "x_utm32": 533136.14028983586, "y_utm32": 5063482.8168988721, "walk_graph_node_id": 22943, "walk_graph_connector_m": 24.541171428026448, "walk_graph_connector_min": 0.30676464285033062, "walk_graph_snap_ok": true, "current_walk_min": 8.2635357858752307, "current_gap_10min": false }, "geometry": { "type": "Point", "coordinates": [ 9.4258255, 45.7241072 ] } },
{ "type": "Feature", "properties": { "anchor_id": "OSM_POINT_11395911406", "anchor_type": "SETTLEMENT", "name": "Sosta", "category": "hamlet", "lat": 45.7407269, "lon": 9.451241, "epistemic_status": "FACT_OSM_OBSERVATION", "source": "data/raw/osm/osm_points_core.geojson", "x_utm32": 535103.46436844429, "y_utm32": 5065340.1296392074, "walk_graph_node_id": 27905, "walk_graph_connector_m": 175.74019810575487, "walk_graph_connector_min": 2.1967524763219357, "walk_graph_snap_ok": true, "current_walk_min": 5.5345109407622708, "current_gap_10min": false }, "geometry": { "type": "Point", "coordinates": [ 9.451241, 45.7407269 ] } },
{ "type": "Feature", "properties": { "anchor_id": "OSM_POINT_13236956843", "anchor_type": "SETTLEMENT", "name": "Crosaccia", "category": "locality", "lat": 45.7470716, "lon": 9.4161375, "epistemic_status": "FACT_OSM_OBSERVATION", "source": "data/raw/osm/osm_points_core.geojson", "x_utm32": 532368.98635787726, "y_utm32": 5066030.2329767477, "walk_graph_node_id": 20720, "walk_graph_connector_m": 8.0959779214664511, "walk_graph_connector_min": 0.10119972401833063, "walk_graph_snap_ok": true, "current_walk_min": 42.261430709517406, "current_gap_10min": true }, "geometry": { "type": "Point", "coordinates": [ 9.4161375, 45.7470716 ] } },
{ "type": "Feature", "properties": { "anchor_id": "OSM_POINT_13356060240", "anchor_type": "SETTLEMENT", "name": "Tremonte", "category": "hamlet", "lat": 45.7430894, "lon": 9.3801463, "epistemic_status": "FACT_OSM_OBSERVATION", "source": "data/raw/osm/osm_points_core.geojson", "x_utm32": 529571.53770441923, "y_utm32": 5065573.8690091008, "walk_graph_node_id": 10061, "walk_graph_connector_m": 13.056406243704062, "walk_graph_connector_min": 0.16320507804630077, "walk_graph_snap_ok": true, "current_walk_min": 1.9558766112883439, "current_gap_10min": false }, "geometry": { "type": "Point", "coordinates": [ 9.3801463, 45.7430894 ] } },
{ "type": "Feature", "properties": { "anchor_id": "OSM_POINT_13669703883", "anchor_type": "SETTLEMENT", "name": "Brugolone", "category": "locality", "lat": 45.7251392, "lon": 9.3749589, "epistemic_status": "FACT_OSM_OBSERVATION", "source": "data/raw/osm/osm_points_core.geojson", "x_utm32": 529177.35679951776, "y_utm32": 5063577.6684346292, "walk_graph_node_id": 8386, "walk_graph_connector_m": 47.281975746801713, "walk_graph_connector_min": 0.59102469683502146, "walk_graph_snap_ok": true, "current_walk_min": 22.546291500867309, "current_gap_10min": true }, "geometry": { "type": "Point", "coordinates": [ 9.3749589, 45.7251392 ] } },
{ "type": "Feature", "properties": { "anchor_id": "OSM_POINT_13838884593", "anchor_type": "SETTLEMENT", "name": "Cornera inferiore", "category": "hamlet", "lat": 45.7390536, "lon": 9.3878281, "epistemic_status": "FACT_OSM_OBSERVATION", "source": "data/raw/osm/osm_points_core.geojson", "x_utm32": 530171.27755996026, "y_utm32": 5065128.3529570932, "walk_graph_node_id": 12799, "walk_graph_connector_m": 33.122054669823846, "walk_graph_connector_min": 0.4140256833727981, "walk_graph_snap_ok": true, "current_walk_min": 2.8645558514363341, "current_gap_10min": false }, "geometry": { "type": "Point", "coordinates": [ 9.3878281, 45.7390536 ] } },
{ "type": "Feature", "properties": { "anchor_id": "OSM_POINT_13838884594", "anchor_type": "SETTLEMENT", "name": "Cornera", "category": "isolated_dwelling", "lat": 45.7490903, "lon": 9.3741408, "epistemic_status": "FACT_OSM_OBSERVATION", "source": "data/raw/osm/osm_points_core.geojson", "x_utm32": 529101.25236073998, "y_utm32": 5066238.3775896449, "walk_graph_node_id": 7989, "walk_graph_connector_m": 19.759923009725281, "walk_graph_connector_min": 0.246999037621566, "walk_graph_snap_ok": true, "current_walk_min": 13.168649288787128, "current_gap_10min": true }, "geometry": { "type": "Point", "coordinates": [ 9.3741408, 45.7490903 ] } },
{ "type": "Feature", "properties": { "anchor_id": "OSM_POINT_13912253728", "anchor_type": "SETTLEMENT", "name": "Ca' Andreino", "category": "locality", "lat": 45.7481254, "lon": 9.3809084, "epistemic_status": "FACT_OSM_OBSERVATION", "source": "data/raw/osm/osm_points_core.geojson", "x_utm32": 529628.15710604389, "y_utm32": 5066133.6598235033, "walk_graph_node_id": 10358, "walk_graph_connector_m": 16.3136094912449, "walk_graph_connector_min": 0.20392011864056125, "walk_graph_snap_ok": true, "current_walk_min": 16.48338173299933, "current_gap_10min": true }, "geometry": { "type": "Point", "coordinates": [ 9.3809084, 45.7481254 ] } },
{ "type": "Feature", "properties": { "anchor_id": "OSM_POINT_13912809548", "anchor_type": "SETTLEMENT", "name": "Alduno", "category": "hamlet", "lat": 45.7355042, "lon": 9.3806773, "epistemic_status": "FACT_OSM_OBSERVATION", "source": "data/raw/osm/osm_points_core.geojson", "x_utm32": 529616.85413111455, "y_utm32": 5064731.3367679007, "walk_graph_node_id": 10276, "walk_graph_connector_m": 16.914842270999074, "walk_graph_connector_min": 0.21143552838748841, "walk_graph_snap_ok": true, "current_walk_min": 1.9527102996255328, "current_gap_10min": false }, "geometry": { "type": "Point", "coordinates": [ 9.3806773, 45.7355042 ] } },
{ "type": "Feature", "properties": { "anchor_id": "OSM_POINT_13912842832", "anchor_type": "SETTLEMENT", "name": "La Piana", "category": "hamlet", "lat": 45.7409742, "lon": 9.3787247, "epistemic_status": "FACT_OSM_OBSERVATION", "source": "data/raw/osm/osm_points_core.geojson", "x_utm32": 529462.06418395462, "y_utm32": 5065338.3420384722, "walk_graph_node_id": 9506, "walk_graph_connector_m": 9.5184614067832882, "walk_graph_connector_min": 0.11898076758479111, "walk_graph_snap_ok": true, "current_walk_min": 2.5321824088781213, "current_gap_10min": false }, "geometry": { "type": "Point", "coordinates": [ 9.3787247, 45.7409742 ] } },
{ "type": "Feature", "properties": { "anchor_id": "OSM_POINT_13912864211", "anchor_type": "SETTLEMENT", "name": "Roccolo", "category": "locality", "lat": 45.7389038, "lon": 9.3751734, "epistemic_status": "FACT_OSM_OBSERVATION", "source": "data/raw/osm/osm_points_core.geojson", "x_utm32": 529186.87735142559, "y_utm32": 5065107.0153000634, "walk_graph_node_id": 7978, "walk_graph_connector_m": 83.422023075985194, "walk_graph_connector_min": 1.0427752884498149, "walk_graph_snap_ok": true, "current_walk_min": 7.6820987938794829, "current_gap_10min": false }, "geometry": { "type": "Point", "coordinates": [ 9.3751734, 45.7389038 ] } }
]
}
