{"features":[{"geometry":{"coordinates":[[9.4044416,45.7291436],[9.404485,45.7291591],[9.4045217,45.7291815],[9.4045494,45.7292095],[9.4047934,45.7290893],[9.404887,45.7290394],[9.4049623,45.728977],[9.4052762,45.7285689],[9.4053282,45.7284917],[9.4053714,45.7284022],[9.4054073,45.7282961],[9.4054274,45.7282053],[9.4054345,45.7280961],[9.405418,45.7279778],[9.4053862,45.7278721],[9.4053391,45.7277916],[9.4052981,45.7277141],[9.4050445,45.727356],[9.4050002,45.7272616],[9.4049955,45.7271953],[9.4049916,45.727109],[9.4050094,45.727037],[9.4050728,45.7269386],[9.4052265,45.7267608],[9.4057601,45.7262107],[9.4057815,45.7261747],[9.4057974,45.7261268],[9.4057966,45.7260624],[9.4057742,45.7260069],[9.4057437,45.7259691],[9.405697,45.7259172],[9.4056611,45.7258822],[9.405654,45.7258861],[9.4056213,45.7258964],[9.4055852,45.7259009],[9.4055487,45.7258992],[9.405514,45.7258909],[9.4054814,45.7258756],[9.4054595,45.7258574],[9.4054434,45.7258344],[9.4054364,45.7258093],[9.4054388,45.7257838],[9.4054507,45.7257596],[9.4054046,45.7257356],[9.4053177,45.7256881],[9.4050064,45.7255317],[9.4046318,45.7253025],[9.4043537,45.7250868],[9.4034371,45.7243089],[9.4033685,45.7242389],[9.4033382,45.7241724],[9.4033208,45.7240669],[9.4033257,45.7240215],[9.4033332,45.7239519],[9.4034068,45.7237757],[9.4036583,45.7232513],[9.4036686,45.7231937],[9.4036668,45.7231353],[9.4036525,45.7230903],[9.4036149,45.7230336],[9.4035552,45.7229793],[9.4034949,45.7229414],[9.4034121,45.722907],[9.4031483,45.7228452],[9.4023547,45.7226561],[9.401939,45.7225529],[9.4018411,45.7225537],[9.4017506,45.7225532],[9.4017045,45.7225533],[9.4016636,45.7225603],[9.4016204,45.7225732],[9.4015955,45.7225833],[9.4015734,45.7225988],[9.4015342,45.7225636],[9.401502,45.7225331],[9.4013288,45.7223575],[9.4008699,45.7219146],[9.4003034,45.7215251],[9.3998953,45.7213173],[9.3996735,45.7215232],[9.3994254,45.7217479],[9.3989023,45.72216],[9.3984531,45.7225256],[9.3984312,45.7225015],[9.3980796,45.7221389],[9.3978823,45.7219382],[9.397265069842808,45.72130999924538],[9.3978823,45.7219382],[9.3980796,45.7221389],[9.3984312,45.7225015],[9.3984531,45.7225256],[9.3989023,45.72216],[9.3994254,45.7217479],[9.3996735,45.7215232],[9.3998953,45.7213173],[9.4003034,45.7215251],[9.4008699,45.7219146],[9.4013288,45.7223575],[9.4014484,45.7224068],[9.4015379,45.7224363],[9.4016308,45.7224639],[9.4017409,45.7224891],[9.401939,45.7225529],[9.4023547,45.7226561],[9.4031483,45.7228452],[9.4034121,45.722907],[9.4034949,45.7229414],[9.4035552,45.7229793],[9.4036149,45.7230336],[9.4036525,45.7230903],[9.4036668,45.7231353],[9.4036686,45.7231937],[9.4036583,45.7232513],[9.4034068,45.7237757],[9.4033332,45.7239519],[9.4033257,45.7240215],[9.4033208,45.7240669],[9.4033382,45.7241724],[9.4033685,45.7242389],[9.4034371,45.7243089],[9.4043537,45.7250868],[9.4046318,45.7253025],[9.4045959,45.7253263],[9.4041057,45.7258274],[9.4037599,45.7261612],[9.4035888,45.7263078],[9.4035306,45.7264146],[9.4035524,45.7266507],[9.403641,45.7272954],[9.4037459,45.7279165],[9.4038178,45.7279633],[9.4038163,45.727988],[9.4038257,45.728057],[9.4038393,45.7281876],[9.4038915,45.7284013],[9.4039344,45.7285961],[9.4039723,45.7286617],[9.4039788,45.728673],[9.4040321,45.7289618],[9.404059,45.7290715],[9.4041288,45.7291263],[9.4042201,45.7291853],[9.4042557,45.7291621],[9.4042982,45.7291454],[9.4043453,45.7291366],[9.4043941,45.7291359],[9.4044416,45.7291436]],"type":"LineString"},"properties":{"distance_m":3018.246,"feature_type":"MODELED_SHORT_CORE_NOT_APPROVED_TPL_ROUTE","ordered_edge_id_sha256":"2c35e5dc4ff7dd0b76be0d40ce9c66ab02dd0d80d87634d01fac9bf80c4b2c30","ordered_waypoints":["FS","Olgiate sud","FS"],"scenario":"south_only"},"type":"Feature"},{"geometry":{"coordinates":[[9.4044416,45.7291436],[9.404485,45.7291591],[9.4045217,45.7291815],[9.4045494,45.7292095],[9.4045691,45.7292495],[9.4045705,45.7292917],[9.4045538,45.7293323],[9.4045203,45.7293675],[9.4044701,45.7293953],[9.4044098,45.7294105],[9.4043457,45.7294116],[9.4042845,45.7293983],[9.4041302,45.7294611],[9.4040954,45.7294854],[9.404087,45.7295114],[9.4040766,45.7295435],[9.4040766,45.7298898],[9.4042257,45.7308775],[9.4043184,45.7314914],[9.4043397,45.7315641],[9.4045889,45.7326196],[9.404602,45.7328748],[9.4046059,45.7329509],[9.4045942,45.7330226],[9.4046127,45.7330529],[9.4046171,45.7330856],[9.4046071,45.7331178],[9.4046473,45.7332998],[9.4047391,45.7337391],[9.4048035,45.7338515],[9.404956,45.7340076],[9.4054579,45.7344094],[9.4055062,45.7344768],[9.4056623,45.7345662],[9.4058656,45.7346827],[9.406058,45.7348507],[9.4063593,45.7351138],[9.4064703,45.7352237],[9.4064243,45.7352397],[9.4063771,45.7352759],[9.4064698,45.7353022],[9.4072469,45.735645],[9.4064698,45.7353022],[9.4063771,45.7352759],[9.4064243,45.7352397],[9.4064703,45.7352237],[9.4063593,45.7351138],[9.406058,45.7348507],[9.4058656,45.7346827],[9.4056623,45.7345662],[9.4055062,45.7344768],[9.4054579,45.7344094],[9.404956,45.7340076],[9.4048035,45.7338515],[9.4047391,45.7337391],[9.4046473,45.7332998],[9.4045257,45.7331772],[9.40449,45.7331847],[9.4044528,45.7331859],[9.4044163,45.7331809],[9.4043825,45.7331698],[9.4043592,45.7331573],[9.4043397,45.7331418],[9.4043248,45.733124],[9.4043121,45.7330934],[9.4043129,45.7330616],[9.4043218,45.7330394],[9.4043405,45.7330158],[9.4043671,45.7329963],[9.4043998,45.732982],[9.4044391,45.7329736],[9.4044801,45.7329728],[9.404602,45.7328748],[9.4045889,45.7326196],[9.4043397,45.7315641],[9.4043184,45.7314914],[9.4042257,45.7308775],[9.4040766,45.7298898],[9.4040766,45.7295435],[9.404087,45.7295114],[9.4040954,45.7294854],[9.4041302,45.7294611],[9.4042845,45.7293983],[9.4042358,45.7293744],[9.4041995,45.7293416],[9.4041786,45.7293027],[9.4041752,45.7292613],[9.4041895,45.7292209],[9.4042201,45.7291853],[9.4042557,45.7291621],[9.4042982,45.7291454],[9.4043453,45.7291366],[9.4043941,45.7291359],[9.4044416,45.7291436]],"type":"LineString"},"properties":{"distance_m":1718.895,"feature_type":"MODELED_SHORT_CORE_NOT_APPROVED_TPL_ROUTE","ordered_edge_id_sha256":"0e02458c2d1daa90876544816136335d8341b353f182f723172d14c54c963019","ordered_waypoints":["FS","San Zeno","FS"],"scenario":"north_only"},"type":"Feature"},{"geometry":{"coordinates":[[9.4044416,45.7291436],[9.404485,45.7291591],[9.4045217,45.7291815],[9.4045494,45.7292095],[9.4047934,45.7290893],[9.404887,45.7290394],[9.4049623,45.728977],[9.4052762,45.7285689],[9.4053282,45.7284917],[9.4053714,45.7284022],[9.4054073,45.7282961],[9.4054274,45.7282053],[9.4054345,45.7280961],[9.405418,45.7279778],[9.4053862,45.7278721],[9.4053391,45.7277916],[9.4052981,45.7277141],[9.4050445,45.727356],[9.4050002,45.7272616],[9.4049955,45.7271953],[9.4049916,45.727109],[9.4050094,45.727037],[9.4050728,45.7269386],[9.4052265,45.7267608],[9.4057601,45.7262107],[9.4057815,45.7261747],[9.4057974,45.7261268],[9.4057966,45.7260624],[9.4057742,45.7260069],[9.4057437,45.7259691],[9.405697,45.7259172],[9.4056611,45.7258822],[9.405654,45.7258861],[9.4056213,45.7258964],[9.4055852,45.7259009],[9.4055487,45.7258992],[9.405514,45.7258909],[9.4054814,45.7258756],[9.4054595,45.7258574],[9.4054434,45.7258344],[9.4054364,45.7258093],[9.4054388,45.7257838],[9.4054507,45.7257596],[9.4054046,45.7257356],[9.4053177,45.7256881],[9.4050064,45.7255317],[9.4046318,45.7253025],[9.4043537,45.7250868],[9.4034371,45.7243089],[9.4033685,45.7242389],[9.4033382,45.7241724],[9.4033208,45.7240669],[9.4033257,45.7240215],[9.4033332,45.7239519],[9.4034068,45.7237757],[9.4036583,45.7232513],[9.4036686,45.7231937],[9.4036668,45.7231353],[9.4036525,45.7230903],[9.4036149,45.7230336],[9.4035552,45.7229793],[9.4034949,45.7229414],[9.4034121,45.722907],[9.4031483,45.7228452],[9.4023547,45.7226561],[9.401939,45.7225529],[9.4018411,45.7225537],[9.4017506,45.7225532],[9.4017045,45.7225533],[9.4016636,45.7225603],[9.4016204,45.7225732],[9.4015955,45.7225833],[9.4015734,45.7225988],[9.4015342,45.7225636],[9.401502,45.7225331],[9.4013288,45.7223575],[9.4008699,45.7219146],[9.4003034,45.7215251],[9.3998953,45.7213173],[9.3996735,45.7215232],[9.3994254,45.7217479],[9.3989023,45.72216],[9.3984531,45.7225256],[9.3984312,45.7225015],[9.3980796,45.7221389],[9.3978823,45.7219382],[9.397265069842808,45.72130999924538],[9.3978823,45.7219382],[9.3980796,45.7221389],[9.3984312,45.7225015],[9.3984531,45.7225256],[9.3989023,45.72216],[9.3994254,45.7217479],[9.3996735,45.7215232],[9.3998953,45.7213173],[9.4003034,45.7215251],[9.4008699,45.7219146],[9.4013288,45.7223575],[9.4014484,45.7224068],[9.4015379,45.7224363],[9.4016308,45.7224639],[9.4017409,45.7224891],[9.401939,45.7225529],[9.4023547,45.7226561],[9.4031483,45.7228452],[9.4034121,45.722907],[9.4034949,45.7229414],[9.4035552,45.7229793],[9.4036149,45.7230336],[9.4036525,45.7230903],[9.4036668,45.7231353],[9.4036686,45.7231937],[9.4036583,45.7232513],[9.4034068,45.7237757],[9.4033332,45.7239519],[9.4033257,45.7240215],[9.4033208,45.7240669],[9.4033382,45.7241724],[9.4033685,45.7242389],[9.4034371,45.7243089],[9.4043537,45.7250868],[9.4046318,45.7253025],[9.4045959,45.7253263],[9.4041057,45.7258274],[9.4037599,45.7261612],[9.4035888,45.7263078],[9.4035306,45.7264146],[9.4035524,45.7266507],[9.403641,45.7272954],[9.4037459,45.7279165],[9.4038178,45.7279633],[9.4038163,45.727988],[9.4038257,45.728057],[9.4038393,45.7281876],[9.4038915,45.7284013],[9.4039344,45.7285961],[9.4039723,45.7286617],[9.4039788,45.728673],[9.4040321,45.7289618],[9.404059,45.7290715],[9.4041288,45.7291263],[9.4042201,45.7291853],[9.4042557,45.7291621],[9.4042982,45.7291454],[9.4043453,45.7291366],[9.4043941,45.7291359],[9.4044416,45.7291436],[9.404485,45.7291591],[9.4045217,45.7291815],[9.4045494,45.7292095],[9.4045691,45.7292495],[9.4045705,45.7292917],[9.4045538,45.7293323],[9.4045203,45.7293675],[9.4044701,45.7293953],[9.4044098,45.7294105],[9.4043457,45.7294116],[9.4042845,45.7293983],[9.4041302,45.7294611],[9.4040954,45.7294854],[9.404087,45.7295114],[9.4040766,45.7295435],[9.4040766,45.7298898],[9.4042257,45.7308775],[9.4043184,45.7314914],[9.4043397,45.7315641],[9.4045889,45.7326196],[9.404602,45.7328748],[9.4046059,45.7329509],[9.4045942,45.7330226],[9.4046127,45.7330529],[9.4046171,45.7330856],[9.4046071,45.7331178],[9.4046473,45.7332998],[9.4047391,45.7337391],[9.4048035,45.7338515],[9.404956,45.7340076],[9.4054579,45.7344094],[9.4055062,45.7344768],[9.4056623,45.7345662],[9.4058656,45.7346827],[9.406058,45.7348507],[9.4063593,45.7351138],[9.4064703,45.7352237],[9.4064243,45.7352397],[9.4063771,45.7352759],[9.4064698,45.7353022],[9.4072469,45.735645],[9.4064698,45.7353022],[9.4063771,45.7352759],[9.4064243,45.7352397],[9.4064703,45.7352237],[9.4063593,45.7351138],[9.406058,45.7348507],[9.4058656,45.7346827],[9.4056623,45.7345662],[9.4055062,45.7344768],[9.4054579,45.7344094],[9.404956,45.7340076],[9.4048035,45.7338515],[9.4047391,45.7337391],[9.4046473,45.7332998],[9.4045257,45.7331772],[9.40449,45.7331847],[9.4044528,45.7331859],[9.4044163,45.7331809],[9.4043825,45.7331698],[9.4043592,45.7331573],[9.4043397,45.7331418],[9.4043248,45.733124],[9.4043121,45.7330934],[9.4043129,45.7330616],[9.4043218,45.7330394],[9.4043405,45.7330158],[9.4043671,45.7329963],[9.4043998,45.732982],[9.4044391,45.7329736],[9.4044801,45.7329728],[9.404602,45.7328748],[9.4045889,45.7326196],[9.4043397,45.7315641],[9.4043184,45.7314914],[9.4042257,45.7308775],[9.4040766,45.7298898],[9.4040766,45.7295435],[9.404087,45.7295114],[9.4040954,45.7294854],[9.4041302,45.7294611],[9.4042845,45.7293983],[9.4042358,45.7293744],[9.4041995,45.7293416],[9.4041786,45.7293027],[9.4041752,45.7292613],[9.4041895,45.7292209],[9.4042201,45.7291853],[9.4042557,45.7291621],[9.4042982,45.7291454],[9.4043453,45.7291366],[9.4043941,45.7291359],[9.4044416,45.7291436]],"type":"LineString"},"properties":{"distance_m":4737.141,"feature_type":"MODELED_SHORT_CORE_NOT_APPROVED_TPL_ROUTE","ordered_edge_id_sha256":"48bcbb086a1612f22d27d2316dae45902f8b7b6a53349ec4bc004ff3099ed68f","ordered_waypoints":["FS","Olgiate sud","FS","San Zeno","FS"],"scenario":"south_then_north"},"type":"Feature"},{"geometry":{"coordinates":[[9.4044416,45.7291436],[9.404485,45.7291591],[9.4045217,45.7291815],[9.4045494,45.7292095],[9.4047934,45.7290893],[9.404887,45.7290394],[9.4049623,45.728977],[9.4052762,45.7285689],[9.4053282,45.7284917],[9.4053714,45.7284022],[9.4054073,45.7282961],[9.4054274,45.7282053],[9.4054345,45.7280961],[9.405418,45.7279778],[9.4053862,45.7278721],[9.4053391,45.7277916],[9.4052981,45.7277141],[9.4050445,45.727356],[9.4050002,45.7272616],[9.4049955,45.7271953],[9.4049916,45.727109],[9.4050094,45.727037],[9.4050728,45.7269386],[9.4052265,45.7267608],[9.4057601,45.7262107],[9.4057815,45.7261747],[9.4057974,45.7261268],[9.4057966,45.7260624],[9.4057742,45.7260069],[9.4057437,45.7259691],[9.405697,45.7259172],[9.4056611,45.7258822],[9.405654,45.7258861],[9.4056213,45.7258964],[9.4055852,45.7259009],[9.4055487,45.7258992],[9.405514,45.7258909],[9.4054814,45.7258756],[9.4054595,45.7258574],[9.4054434,45.7258344],[9.4054364,45.7258093],[9.4054388,45.7257838],[9.4054507,45.7257596],[9.4054712,45.7257385],[9.4054987,45.7257215],[9.4055437,45.7257072],[9.4055797,45.7257023],[9.4056162,45.725704],[9.4056509,45.7257123],[9.4056813,45.7257266],[9.4057057,45.7257454],[9.4057579,45.7257206],[9.4058291,45.7256882],[9.4061935,45.7254892],[9.4065274,45.7253134],[9.4068542,45.7251952],[9.4069509,45.7251675],[9.4073071,45.7250746],[9.4073568,45.7250604],[9.4076846,45.7250028],[9.4078323,45.7249806],[9.4079608,45.7249614],[9.4082861,45.7249507],[9.4085275,45.7249525],[9.4095768,45.724969],[9.4100623,45.724981],[9.4095768,45.724969],[9.4085275,45.7249525],[9.4082861,45.7249507],[9.4079608,45.7249614],[9.4078323,45.7249806],[9.4076846,45.7250028],[9.4073568,45.7250604],[9.4073071,45.7250746],[9.4069509,45.7251675],[9.4068542,45.7251952],[9.4065274,45.7253134],[9.4061935,45.7254892],[9.4058291,45.7256882],[9.4057579,45.7257206],[9.4057057,45.7257454],[9.4057215,45.7257688],[9.4057285,45.7257939],[9.405726,45.7258194],[9.4057135,45.7258433],[9.4056926,45.7258641],[9.4056611,45.7258822],[9.405654,45.7258861],[9.4056213,45.7258964],[9.4055852,45.7259009],[9.4055487,45.7258992],[9.405514,45.7258909],[9.4054814,45.7258756],[9.4054415,45.7259013],[9.4053917,45.7259314],[9.404763,45.7262542],[9.4036767,45.7268922],[9.4032248,45.7271443],[9.4023376,45.7276282],[9.401754,45.7279477],[9.4008973,45.7284167],[9.4008093,45.7284587],[9.4002741,45.7287569],[9.4008093,45.7284587],[9.4008973,45.7284167],[9.4006315,45.7282702],[9.4004401,45.7281892],[9.4002363,45.7281235],[9.399955,45.7280494],[9.3996709,45.7280203],[9.3995315,45.727978],[9.3994377,45.7278976],[9.3993817,45.727833],[9.3993421,45.7277268],[9.3993157,45.727561],[9.3992992,45.7274571],[9.3991618,45.7270137],[9.3991148,45.7269263],[9.3990159,45.7267142],[9.3989698,45.7266062],[9.3988868,45.7265085],[9.3987268,45.7263464],[9.3986308,45.7262354],[9.3984316,45.7261656],[9.3982948,45.7260682],[9.3981312,45.7259531],[9.3980668,45.7258497],[9.3980252,45.7256483],[9.3979917,45.725478],[9.3979904,45.7253516],[9.397989,45.7251681],[9.3979287,45.7248666],[9.3978562,45.7247393],[9.3977811,45.7246344],[9.3976406,45.7244787],[9.3974794,45.7243002],[9.397352,45.7241373],[9.397697,45.7238383],[9.3977802,45.7237222],[9.3977594,45.7236764],[9.3976609,45.7235574],[9.3976041,45.7235061],[9.3977721,45.7233777],[9.397858,45.7233505],[9.39798,45.7232644],[9.3980363,45.7232157],[9.3980632,45.7231539],[9.3981503,45.7228889],[9.3981986,45.7227841],[9.3982509,45.7226886],[9.3984312,45.7225015],[9.3980796,45.7221389],[9.3978823,45.7219382],[9.397265069842808,45.72130999924538],[9.3978823,45.7219382],[9.3980796,45.7221389],[9.3984312,45.7225015],[9.3984531,45.7225256],[9.3989023,45.72216],[9.3994254,45.7217479],[9.3996735,45.7215232],[9.3998953,45.7213173],[9.4003034,45.7215251],[9.4008699,45.7219146],[9.4013288,45.7223575],[9.4014484,45.7224068],[9.4015379,45.7224363],[9.4016308,45.7224639],[9.4017409,45.7224891],[9.401939,45.7225529],[9.4023547,45.7226561],[9.4031483,45.7228452],[9.4034121,45.722907],[9.4034949,45.7229414],[9.4035552,45.7229793],[9.4036149,45.7230336],[9.4036525,45.7230903],[9.4036668,45.7231353],[9.4036686,45.7231937],[9.4036583,45.7232513],[9.4034068,45.7237757],[9.4033332,45.7239519],[9.4033257,45.7240215],[9.4033208,45.7240669],[9.4033382,45.7241724],[9.4033685,45.7242389],[9.4034371,45.7243089],[9.4043537,45.7250868],[9.4046318,45.7253025],[9.4045959,45.7253263],[9.4041057,45.7258274],[9.4037599,45.7261612],[9.4035888,45.7263078],[9.4035306,45.7264146],[9.4035524,45.7266507],[9.403641,45.7272954],[9.4037459,45.7279165],[9.4038178,45.7279633],[9.4038163,45.727988],[9.4038257,45.728057],[9.4038393,45.7281876],[9.4038915,45.7284013],[9.4039344,45.7285961],[9.4039723,45.7286617],[9.4039788,45.728673],[9.4040321,45.7289618],[9.404059,45.7290715],[9.4041288,45.7291263],[9.4042201,45.7291853],[9.4042557,45.7291621],[9.4042982,45.7291454],[9.4043453,45.7291366],[9.4043941,45.7291359],[9.4044416,45.7291436],[9.404485,45.7291591],[9.4045217,45.7291815],[9.4045494,45.7292095],[9.4045691,45.7292495],[9.4045705,45.7292917],[9.4045538,45.7293323],[9.4045203,45.7293675],[9.4044701,45.7293953],[9.4044098,45.7294105],[9.4043457,45.7294116],[9.4042845,45.7293983],[9.4041302,45.7294611],[9.4040954,45.7294854],[9.404087,45.7295114],[9.4040766,45.7295435],[9.4040766,45.7298898],[9.4042257,45.7308775],[9.4043184,45.7314914],[9.4043397,45.7315641],[9.4045889,45.7326196],[9.404602,45.7328748],[9.4046059,45.7329509],[9.4045942,45.7330226],[9.4046127,45.7330529],[9.4046171,45.7330856],[9.4046071,45.7331178],[9.4046473,45.7332998],[9.4047391,45.7337391],[9.4048035,45.7338515],[9.404956,45.7340076],[9.4054579,45.7344094],[9.4055062,45.7344768],[9.4056623,45.7345662],[9.4058656,45.7346827],[9.406058,45.7348507],[9.4063593,45.7351138],[9.4064703,45.7352237],[9.4064243,45.7352397],[9.4063771,45.7352759],[9.4064698,45.7353022],[9.4072469,45.735645],[9.4064698,45.7353022],[9.4063771,45.7352759],[9.4064243,45.7352397],[9.4064703,45.7352237],[9.4063593,45.7351138],[9.406058,45.7348507],[9.4058656,45.7346827],[9.4056623,45.7345662],[9.4055062,45.7344768],[9.4054579,45.7344094],[9.404956,45.7340076],[9.4048035,45.7338515],[9.4047391,45.7337391],[9.4046473,45.7332998],[9.4045257,45.7331772],[9.40449,45.7331847],[9.4044528,45.7331859],[9.4044163,45.7331809],[9.4043825,45.7331698],[9.4043592,45.7331573],[9.4043397,45.7331418],[9.4043248,45.733124],[9.4043121,45.7330934],[9.4043129,45.7330616],[9.4043218,45.7330394],[9.4043405,45.7330158],[9.4043671,45.7329963],[9.4043998,45.732982],[9.4044391,45.7329736],[9.4044801,45.7329728],[9.404602,45.7328748],[9.4045889,45.7326196],[9.4043397,45.7315641],[9.4043184,45.7314914],[9.4042257,45.7308775],[9.4040766,45.7298898],[9.4040766,45.7295435],[9.404087,45.7295114],[9.4040954,45.7294854],[9.4041302,45.7294611],[9.4042845,45.7293983],[9.4042358,45.7293744],[9.4041995,45.7293416],[9.4041786,45.7293027],[9.4041752,45.7292613],[9.4041895,45.7292209],[9.4042201,45.7291853],[9.4042557,45.7291621],[9.4042982,45.7291454],[9.4043453,45.7291366],[9.4043941,45.7291359],[9.4044416,45.7291436]],"type":"LineString"},"properties":{"distance_m":5988.218,"feature_type":"MODELED_SHORT_CORE_NOT_APPROVED_TPL_ROUTE","ordered_edge_id_sha256":"cb5cfa724584b17ae52b6e7ce2a209b0663502aa1e9859b658bcd778a33817ba","ordered_waypoints":["FS","Calco - Via Virgilio","Olgiate Molgora - Via Statale","Olgiate sud","FS","San Zeno","FS"],"scenario":"OLGIATE_STATALE_CALCO_VIRGILIO"},"type":"Feature"},{"geometry":{"coordinates":[[9.4044416,45.7291436],[9.404485,45.7291591],[9.4045217,45.7291815],[9.4045494,45.7292095],[9.4047934,45.7290893],[9.404887,45.7290394],[9.4049623,45.728977],[9.4052762,45.7285689],[9.4053282,45.7284917],[9.4053714,45.7284022],[9.4054073,45.7282961],[9.4054274,45.7282053],[9.4054345,45.7280961],[9.405418,45.7279778],[9.4053862,45.7278721],[9.4053391,45.7277916],[9.4052981,45.7277141],[9.4050445,45.727356],[9.4050002,45.7272616],[9.4049955,45.7271953],[9.4049916,45.727109],[9.4050094,45.727037],[9.4050728,45.7269386],[9.4052265,45.7267608],[9.4057601,45.7262107],[9.4057815,45.7261747],[9.4057974,45.7261268],[9.4057966,45.7260624],[9.4057742,45.7260069],[9.4057437,45.7259691],[9.405697,45.7259172],[9.4056611,45.7258822],[9.405654,45.7258861],[9.4056213,45.7258964],[9.4055852,45.7259009],[9.4055487,45.7258992],[9.405514,45.7258909],[9.4054814,45.7258756],[9.4054595,45.7258574],[9.4054434,45.7258344],[9.4054364,45.7258093],[9.4054388,45.7257838],[9.4054507,45.7257596],[9.4054712,45.7257385],[9.4054987,45.7257215],[9.4055437,45.7257072],[9.4055797,45.7257023],[9.4056162,45.725704],[9.4056509,45.7257123],[9.4056813,45.7257266],[9.4057057,45.7257454],[9.4057579,45.7257206],[9.4058291,45.7256882],[9.4061935,45.7254892],[9.4065274,45.7253134],[9.4068542,45.7251952],[9.4069509,45.7251675],[9.4073071,45.7250746],[9.4073568,45.7250604],[9.4076846,45.7250028],[9.4078323,45.7249806],[9.4079608,45.7249614],[9.4082861,45.7249507],[9.4085275,45.7249525],[9.4095768,45.724969],[9.4100623,45.724981],[9.4095768,45.724969],[9.4085275,45.7249525],[9.4082861,45.7249507],[9.4079608,45.7249614],[9.4078323,45.7249806],[9.4076846,45.7250028],[9.4073568,45.7250604],[9.4073071,45.7250746],[9.4069509,45.7251675],[9.4068542,45.7251952],[9.4065274,45.7253134],[9.4061935,45.7254892],[9.4058291,45.7256882],[9.4057579,45.7257206],[9.4057057,45.7257454],[9.4057215,45.7257688],[9.4057285,45.7257939],[9.405726,45.7258194],[9.4057135,45.7258433],[9.4056926,45.7258641],[9.4056611,45.7258822],[9.405654,45.7258861],[9.4056213,45.7258964],[9.4055852,45.7259009],[9.4055487,45.7258992],[9.405514,45.7258909],[9.4054814,45.7258756],[9.4054415,45.7259013],[9.4053917,45.7259314],[9.404763,45.7262542],[9.4036767,45.7268922],[9.4032248,45.7271443],[9.4023376,45.7276282],[9.401754,45.7279477],[9.4008973,45.7284167],[9.4008093,45.7284587],[9.4002741,45.7287569],[9.3989814,45.7294773],[9.3985619,45.7297034],[9.3984194,45.7297738],[9.3981093,45.7299126],[9.3978879,45.7299996],[9.3976189,45.7301047],[9.3971213,45.7302576],[9.3969713,45.7302933],[9.3966882,45.7303609],[9.396237,45.73044],[9.396116,45.7304569],[9.3937399,45.7308082],[9.3922853,45.7310257],[9.3920542,45.7310602],[9.39196,45.7310741],[9.3915075,45.7311432],[9.3912754,45.7311787],[9.3911023,45.731203],[9.3909412,45.7312484],[9.3908296,45.7312852],[9.3908138,45.7312972],[9.3907953,45.7313072],[9.3907687,45.7313163],[9.3907398,45.731321],[9.3907536,45.7313663],[9.3907753,45.7314169],[9.3907794,45.7314265],[9.3908439,45.7315571],[9.3908569,45.7316013],[9.3909148,45.7317985],[9.3908569,45.7316013],[9.3908439,45.7315571],[9.3907794,45.7314265],[9.3907753,45.7314169],[9.3907536,45.7313663],[9.3907398,45.731321],[9.3907093,45.7313211],[9.3906795,45.7313162],[9.3906545,45.7313078],[9.3906327,45.7312959],[9.3906141,45.7312804],[9.3906009,45.7312625],[9.3905935,45.7312425],[9.3905926,45.7312218],[9.3905999,45.7311983],[9.3906157,45.7311769],[9.3906304,45.7311645],[9.390648,45.7311541],[9.3906689,45.7311457],[9.3907039,45.7311383],[9.3907417,45.731138],[9.3907639,45.7310808],[9.3907839,45.7310473],[9.3908576,45.7309239],[9.390909,45.7308283],[9.3910172,45.7303994],[9.3910308,45.7303527],[9.3910587,45.7302566],[9.3910682,45.7301347],[9.3910526,45.7300235],[9.391033,45.7299282],[9.3908956,45.729602],[9.3908701,45.7295523],[9.3908175,45.7293903],[9.3907864,45.7292296],[9.3907698,45.7291277],[9.3907671,45.7290347],[9.3907805,45.7289296],[9.3907855,45.7288902],[9.3909065,45.7281507],[9.3909423,45.7279886],[9.390972,45.727876],[9.3910304,45.727812],[9.3911105,45.7277481],[9.3911817,45.7277063],[9.3912982,45.7276544],[9.3914346,45.7276359],[9.3915165,45.7276266],[9.3916384,45.7276037],[9.3917554,45.7275628],[9.3918212,45.7275362],[9.391873,45.7275056],[9.3919129,45.7274684],[9.3919407,45.7274178],[9.391929,45.7273356],[9.3918662,45.727181],[9.3917442,45.7269373],[9.3917085,45.7267501],[9.3917255,45.7266634],[9.3917521,45.726571],[9.3917796,45.7264955],[9.391813,45.7264155],[9.3918625,45.7263383],[9.3919411,45.726275],[9.3921499,45.7260008],[9.392333,45.7257085],[9.3924634,45.7255072],[9.3925647,45.7252895],[9.3925937,45.725221],[9.3926314,45.725162],[9.3926531,45.7250968],[9.3927365,45.7246416],[9.3928466,45.7239426],[9.3929208,45.7236273],[9.3929617,45.7235015],[9.3930267,45.7233774],[9.3930471,45.7233545],[9.3930969,45.7232985],[9.3931687,45.7232469],[9.3932441,45.7231987],[9.3932962,45.7231534],[9.3933498,45.72312],[9.3934058,45.7230838],[9.3934809,45.7230295],[9.3935256,45.7229934],[9.3935891,45.7229375],[9.3935975,45.7229301],[9.3936662,45.7228804],[9.3936918,45.7228623],[9.3940819,45.7226044],[9.3941667,45.7225546],[9.3942017,45.722505],[9.394216,45.7224824],[9.3942901,45.7222904],[9.3943883,45.7220948],[9.3944825,45.7219614],[9.3945966,45.7217997],[9.3948366,45.7215001],[9.3949598,45.7213676],[9.3950942,45.7212564],[9.3952754,45.7211175],[9.3953998,45.721034],[9.3954838,45.7209663],[9.3955749,45.7208985],[9.3956536,45.7208418],[9.3957667,45.7207607],[9.3958547,45.7206979],[9.396101,45.7204832],[9.3961373,45.7204212],[9.3961634,45.7203765],[9.3961535,45.7203438],[9.3961586,45.7203106],[9.3961782,45.7202801],[9.3962103,45.7202553],[9.3962518,45.7202386],[9.3962987,45.7202318],[9.3963463,45.7202354],[9.3963616,45.7202404],[9.3963943,45.7202511],[9.3964317,45.7202774],[9.396454,45.720311],[9.3964586,45.7203479],[9.3964447,45.7203837],[9.3964332,45.7203952],[9.3964638,45.7204934],[9.3971079,45.7211501],[9.3971229,45.7211653],[9.397265069842808,45.72130999924538],[9.3978823,45.7219382],[9.3980796,45.7221389],[9.3984312,45.7225015],[9.3984531,45.7225256],[9.3989023,45.72216],[9.3994254,45.7217479],[9.3996735,45.7215232],[9.3998953,45.7213173],[9.4003034,45.7215251],[9.4008699,45.7219146],[9.4013288,45.7223575],[9.4014484,45.7224068],[9.4015379,45.7224363],[9.4016308,45.7224639],[9.4017409,45.7224891],[9.401939,45.7225529],[9.4023547,45.7226561],[9.4031483,45.7228452],[9.4034121,45.722907],[9.4034949,45.7229414],[9.4035552,45.7229793],[9.4036149,45.7230336],[9.4036525,45.7230903],[9.4036668,45.7231353],[9.4036686,45.7231937],[9.4036583,45.7232513],[9.4034068,45.7237757],[9.4033332,45.7239519],[9.4033257,45.7240215],[9.4033208,45.7240669],[9.4033382,45.7241724],[9.4033685,45.7242389],[9.4034371,45.7243089],[9.4043537,45.7250868],[9.4046318,45.7253025],[9.4045959,45.7253263],[9.4041057,45.7258274],[9.4037599,45.7261612],[9.4035888,45.7263078],[9.4035306,45.7264146],[9.4035524,45.7266507],[9.403641,45.7272954],[9.4037459,45.7279165],[9.4038178,45.7279633],[9.4038163,45.727988],[9.4038257,45.728057],[9.4038393,45.7281876],[9.4038915,45.7284013],[9.4039344,45.7285961],[9.4039723,45.7286617],[9.4039788,45.728673],[9.4040321,45.7289618],[9.404059,45.7290715],[9.4041288,45.7291263],[9.4042201,45.7291853],[9.4042557,45.7291621],[9.4042982,45.7291454],[9.4043453,45.7291366],[9.4043941,45.7291359],[9.4044416,45.7291436],[9.404485,45.7291591],[9.4045217,45.7291815],[9.4045494,45.7292095],[9.4045691,45.7292495],[9.4045705,45.7292917],[9.4045538,45.7293323],[9.4045203,45.7293675],[9.4044701,45.7293953],[9.4044098,45.7294105],[9.4043457,45.7294116],[9.4042845,45.7293983],[9.4041302,45.7294611],[9.4040954,45.7294854],[9.404087,45.7295114],[9.4040766,45.7295435],[9.4040766,45.7298898],[9.4042257,45.7308775],[9.4043184,45.7314914],[9.4043397,45.7315641],[9.4045889,45.7326196],[9.404602,45.7328748],[9.4046059,45.7329509],[9.4045942,45.7330226],[9.4046127,45.7330529],[9.4046171,45.7330856],[9.4046071,45.7331178],[9.4046473,45.7332998],[9.4047391,45.7337391],[9.4048035,45.7338515],[9.404956,45.7340076],[9.4054579,45.7344094],[9.4055062,45.7344768],[9.4056623,45.7345662],[9.4058656,45.7346827],[9.406058,45.7348507],[9.4063593,45.7351138],[9.4064703,45.7352237],[9.4064243,45.7352397],[9.4063771,45.7352759],[9.4064698,45.7353022],[9.4072469,45.735645],[9.4064698,45.7353022],[9.4063771,45.7352759],[9.4064243,45.7352397],[9.4064703,45.7352237],[9.4063593,45.7351138],[9.406058,45.7348507],[9.4058656,45.7346827],[9.4056623,45.7345662],[9.4055062,45.7344768],[9.4054579,45.7344094],[9.404956,45.7340076],[9.4048035,45.7338515],[9.4047391,45.7337391],[9.4046473,45.7332998],[9.4045257,45.7331772],[9.40449,45.7331847],[9.4044528,45.7331859],[9.4044163,45.7331809],[9.4043825,45.7331698],[9.4043592,45.7331573],[9.4043397,45.7331418],[9.4043248,45.733124],[9.4043121,45.7330934],[9.4043129,45.7330616],[9.4043218,45.7330394],[9.4043405,45.7330158],[9.4043671,45.7329963],[9.4043998,45.732982],[9.4044391,45.7329736],[9.4044801,45.7329728],[9.404602,45.7328748],[9.4045889,45.7326196],[9.4043397,45.7315641],[9.4043184,45.7314914],[9.4042257,45.7308775],[9.4040766,45.7298898],[9.4040766,45.7295435],[9.404087,45.7295114],[9.4040954,45.7294854],[9.4041302,45.7294611],[9.4042845,45.7293983],[9.4042358,45.7293744],[9.4041995,45.7293416],[9.4041786,45.7293027],[9.4041752,45.7292613],[9.4041895,45.7292209],[9.4042201,45.7291853],[9.4042557,45.7291621],[9.4042982,45.7291454],[9.4043453,45.7291366],[9.4043941,45.7291359],[9.4044416,45.7291436]],"type":"LineString"},"properties":{"distance_m":7432.015,"feature_type":"MODELED_SHORT_CORE_NOT_APPROVED_TPL_ROUTE","ordered_edge_id_sha256":"43f3931eb8b98b8f6b61c68bfa5754b8b1f125bcc1f48b91f25ee8b40570681a","ordered_waypoints":["FS","Calco - Via Virgilio","Olgiate Molgora - Via Della Salute","Olgiate sud","FS","San Zeno","FS"],"scenario":"OLGIATE_SALUTE_CALCO_VIRGILIO"},"type":"Feature"},{"geometry":{"coordinates":[[9.4044416,45.7291436],[9.404485,45.7291591],[9.4045217,45.7291815],[9.4045494,45.7292095],[9.4047934,45.7290893],[9.404887,45.7290394],[9.4049623,45.728977],[9.4052762,45.7285689],[9.4053282,45.7284917],[9.4053714,45.7284022],[9.4054073,45.7282961],[9.4054274,45.7282053],[9.4054345,45.7280961],[9.405418,45.7279778],[9.4053862,45.7278721],[9.4053391,45.7277916],[9.4052981,45.7277141],[9.4050445,45.727356],[9.4050002,45.7272616],[9.4049955,45.7271953],[9.4049916,45.727109],[9.4050094,45.727037],[9.4050728,45.7269386],[9.4052265,45.7267608],[9.4057601,45.7262107],[9.4057815,45.7261747],[9.4057974,45.7261268],[9.4057966,45.7260624],[9.4057742,45.7260069],[9.4057437,45.7259691],[9.405697,45.7259172],[9.4056611,45.7258822],[9.405654,45.7258861],[9.4056213,45.7258964],[9.4055852,45.7259009],[9.4055487,45.7258992],[9.405514,45.7258909],[9.4054814,45.7258756],[9.4054595,45.7258574],[9.4054434,45.7258344],[9.4054364,45.7258093],[9.4054388,45.7257838],[9.4054507,45.7257596],[9.4054712,45.7257385],[9.4054987,45.7257215],[9.4055437,45.7257072],[9.4055797,45.7257023],[9.4056162,45.725704],[9.4056509,45.7257123],[9.4056813,45.7257266],[9.4057057,45.7257454],[9.4057579,45.7257206],[9.4058291,45.7256882],[9.4061935,45.7254892],[9.4065274,45.7253134],[9.4068542,45.7251952],[9.4069509,45.7251675],[9.4073071,45.7250746],[9.4073568,45.7250604],[9.4076846,45.7250028],[9.4078323,45.7249806],[9.4079608,45.7249614],[9.4082861,45.7249507],[9.4085275,45.7249525],[9.4095768,45.724969],[9.4100623,45.724981],[9.4095768,45.724969],[9.4085275,45.7249525],[9.4082861,45.7249507],[9.4079608,45.7249614],[9.4078323,45.7249806],[9.4076846,45.7250028],[9.4073568,45.7250604],[9.4073071,45.7250746],[9.4069509,45.7251675],[9.4068542,45.7251952],[9.4065274,45.7253134],[9.4061935,45.7254892],[9.4058291,45.7256882],[9.4057579,45.7257206],[9.4057057,45.7257454],[9.4057215,45.7257688],[9.4057285,45.7257939],[9.405726,45.7258194],[9.4057135,45.7258433],[9.4056926,45.7258641],[9.4056611,45.7258822],[9.405654,45.7258861],[9.4056213,45.7258964],[9.4055852,45.7259009],[9.4055487,45.7258992],[9.405514,45.7258909],[9.4054814,45.7258756],[9.4054415,45.7259013],[9.4053917,45.7259314],[9.404763,45.7262542],[9.4036767,45.7268922],[9.4032248,45.7271443],[9.4023376,45.7276282],[9.401754,45.7279477],[9.4008973,45.7284167],[9.4008093,45.7284587],[9.4002741,45.7287569],[9.3989814,45.7294773],[9.3985619,45.7297034],[9.3984194,45.7297738],[9.3981093,45.7299126],[9.3978879,45.7299996],[9.3976189,45.7301047],[9.3971213,45.7302576],[9.3969713,45.7302933],[9.3966882,45.7303609],[9.396237,45.73044],[9.396116,45.7304569],[9.3937399,45.7308082],[9.3922853,45.7310257],[9.3920542,45.7310602],[9.39196,45.7310741],[9.3915075,45.7311432],[9.3912754,45.7311787],[9.3911023,45.731203],[9.3909412,45.7312484],[9.3908296,45.7312852],[9.3908138,45.7312972],[9.3907953,45.7313072],[9.3907687,45.7313163],[9.3907398,45.731321],[9.3907093,45.7313211],[9.3906795,45.7313162],[9.3906545,45.7313078],[9.3906327,45.7312959],[9.3905264,45.7312936],[9.3904524,45.7312953],[9.3903221,45.7313002],[9.3898446,45.7313737],[9.3898592,45.7313137],[9.3899026,45.7312829],[9.3899992,45.7312545],[9.3899026,45.7312829],[9.3898592,45.7313137],[9.3898446,45.7313737],[9.3903221,45.7313002],[9.3904878,45.7312377],[9.3905386,45.7312146],[9.3906157,45.7311769],[9.3906304,45.7311645],[9.390648,45.7311541],[9.3906689,45.7311457],[9.3907039,45.7311383],[9.3907417,45.731138],[9.3907639,45.7310808],[9.3907839,45.7310473],[9.3908576,45.7309239],[9.390909,45.7308283],[9.3910172,45.7303994],[9.3910308,45.7303527],[9.3910587,45.7302566],[9.3910682,45.7301347],[9.3910526,45.7300235],[9.391033,45.7299282],[9.3908956,45.729602],[9.3908701,45.7295523],[9.3908175,45.7293903],[9.3907864,45.7292296],[9.3907698,45.7291277],[9.3907671,45.7290347],[9.3907805,45.7289296],[9.3907855,45.7288902],[9.3909065,45.7281507],[9.3909423,45.7279886],[9.390972,45.727876],[9.3910304,45.727812],[9.3911105,45.7277481],[9.3911817,45.7277063],[9.3912982,45.7276544],[9.3914346,45.7276359],[9.3915165,45.7276266],[9.3916384,45.7276037],[9.3917554,45.7275628],[9.3918212,45.7275362],[9.391873,45.7275056],[9.3919129,45.7274684],[9.3919407,45.7274178],[9.391929,45.7273356],[9.3918662,45.727181],[9.3917442,45.7269373],[9.3917085,45.7267501],[9.3917255,45.7266634],[9.3917521,45.726571],[9.3917796,45.7264955],[9.391813,45.7264155],[9.3918625,45.7263383],[9.3919411,45.726275],[9.3921499,45.7260008],[9.392333,45.7257085],[9.3924634,45.7255072],[9.3925647,45.7252895],[9.3925937,45.725221],[9.3926314,45.725162],[9.3926531,45.7250968],[9.3927365,45.7246416],[9.3928466,45.7239426],[9.3929208,45.7236273],[9.3929617,45.7235015],[9.3930267,45.7233774],[9.3930471,45.7233545],[9.3930969,45.7232985],[9.3931687,45.7232469],[9.3932441,45.7231987],[9.3932962,45.7231534],[9.3933498,45.72312],[9.3934058,45.7230838],[9.3934809,45.7230295],[9.3935256,45.7229934],[9.3935891,45.7229375],[9.3935975,45.7229301],[9.3936662,45.7228804],[9.3936918,45.7228623],[9.3940819,45.7226044],[9.3941667,45.7225546],[9.3942017,45.722505],[9.394216,45.7224824],[9.3942901,45.7222904],[9.3943883,45.7220948],[9.3944825,45.7219614],[9.3945966,45.7217997],[9.3948366,45.7215001],[9.3949598,45.7213676],[9.3950942,45.7212564],[9.3952754,45.7211175],[9.3953998,45.721034],[9.3954838,45.7209663],[9.3955749,45.7208985],[9.3956536,45.7208418],[9.3957667,45.7207607],[9.3958547,45.7206979],[9.396101,45.7204832],[9.3961373,45.7204212],[9.3961634,45.7203765],[9.3961535,45.7203438],[9.3961586,45.7203106],[9.3961782,45.7202801],[9.3962103,45.7202553],[9.3962518,45.7202386],[9.3962987,45.7202318],[9.3963463,45.7202354],[9.3963616,45.7202404],[9.3963943,45.7202511],[9.3964317,45.7202774],[9.396454,45.720311],[9.3964586,45.7203479],[9.3964447,45.7203837],[9.3964332,45.7203952],[9.3964638,45.7204934],[9.3971079,45.7211501],[9.3971229,45.7211653],[9.397265069842808,45.72130999924538],[9.3978823,45.7219382],[9.3980796,45.7221389],[9.3984312,45.7225015],[9.3984531,45.7225256],[9.3989023,45.72216],[9.3994254,45.7217479],[9.3996735,45.7215232],[9.3998953,45.7213173],[9.4003034,45.7215251],[9.4008699,45.7219146],[9.4013288,45.7223575],[9.4014484,45.7224068],[9.4015379,45.7224363],[9.4016308,45.7224639],[9.4017409,45.7224891],[9.401939,45.7225529],[9.4023547,45.7226561],[9.4031483,45.7228452],[9.4034121,45.722907],[9.4034949,45.7229414],[9.4035552,45.7229793],[9.4036149,45.7230336],[9.4036525,45.7230903],[9.4036668,45.7231353],[9.4036686,45.7231937],[9.4036583,45.7232513],[9.4034068,45.7237757],[9.4033332,45.7239519],[9.4033257,45.7240215],[9.4033208,45.7240669],[9.4033382,45.7241724],[9.4033685,45.7242389],[9.4034371,45.7243089],[9.4043537,45.7250868],[9.4046318,45.7253025],[9.4045959,45.7253263],[9.4041057,45.7258274],[9.4037599,45.7261612],[9.4035888,45.7263078],[9.4035306,45.7264146],[9.4035524,45.7266507],[9.403641,45.7272954],[9.4037459,45.7279165],[9.4038178,45.7279633],[9.4038163,45.727988],[9.4038257,45.728057],[9.4038393,45.7281876],[9.4038915,45.7284013],[9.4039344,45.7285961],[9.4039723,45.7286617],[9.4039788,45.728673],[9.4040321,45.7289618],[9.404059,45.7290715],[9.4041288,45.7291263],[9.4042201,45.7291853],[9.4042557,45.7291621],[9.4042982,45.7291454],[9.4043453,45.7291366],[9.4043941,45.7291359],[9.4044416,45.7291436],[9.404485,45.7291591],[9.4045217,45.7291815],[9.4045494,45.7292095],[9.4045691,45.7292495],[9.4045705,45.7292917],[9.4045538,45.7293323],[9.4045203,45.7293675],[9.4044701,45.7293953],[9.4044098,45.7294105],[9.4043457,45.7294116],[9.4042845,45.7293983],[9.4041302,45.7294611],[9.4040954,45.7294854],[9.404087,45.7295114],[9.4040766,45.7295435],[9.4040766,45.7298898],[9.4042257,45.7308775],[9.4043184,45.7314914],[9.4043397,45.7315641],[9.4045889,45.7326196],[9.404602,45.7328748],[9.4046059,45.7329509],[9.4045942,45.7330226],[9.4046127,45.7330529],[9.4046171,45.7330856],[9.4046071,45.7331178],[9.4046473,45.7332998],[9.4047391,45.7337391],[9.4048035,45.7338515],[9.404956,45.7340076],[9.4054579,45.7344094],[9.4055062,45.7344768],[9.4056623,45.7345662],[9.4058656,45.7346827],[9.406058,45.7348507],[9.4063593,45.7351138],[9.4064703,45.7352237],[9.4064243,45.7352397],[9.4063771,45.7352759],[9.4064698,45.7353022],[9.4072469,45.735645],[9.4064698,45.7353022],[9.4063771,45.7352759],[9.4064243,45.7352397],[9.4064703,45.7352237],[9.4063593,45.7351138],[9.406058,45.7348507],[9.4058656,45.7346827],[9.4056623,45.7345662],[9.4055062,45.7344768],[9.4054579,45.7344094],[9.404956,45.7340076],[9.4048035,45.7338515],[9.4047391,45.7337391],[9.4046473,45.7332998],[9.4045257,45.7331772],[9.40449,45.7331847],[9.4044528,45.7331859],[9.4044163,45.7331809],[9.4043825,45.7331698],[9.4043592,45.7331573],[9.4043397,45.7331418],[9.4043248,45.733124],[9.4043121,45.7330934],[9.4043129,45.7330616],[9.4043218,45.7330394],[9.4043405,45.7330158],[9.4043671,45.7329963],[9.4043998,45.732982],[9.4044391,45.7329736],[9.4044801,45.7329728],[9.404602,45.7328748],[9.4045889,45.7326196],[9.4043397,45.7315641],[9.4043184,45.7314914],[9.4042257,45.7308775],[9.4040766,45.7298898],[9.4040766,45.7295435],[9.404087,45.7295114],[9.4040954,45.7294854],[9.4041302,45.7294611],[9.4042845,45.7293983],[9.4042358,45.7293744],[9.4041995,45.7293416],[9.4041786,45.7293027],[9.4041752,45.7292613],[9.4041895,45.7292209],[9.4042201,45.7291853],[9.4042557,45.7291621],[9.4042982,45.7291454],[9.4043453,45.7291366],[9.4043941,45.7291359],[9.4044416,45.7291436]],"type":"LineString"},"properties":{"distance_m":7474.237,"feature_type":"MODELED_SHORT_CORE_NOT_APPROVED_TPL_ROUTE","ordered_edge_id_sha256":"a267019971ab3107a79012acfb34f99060401fb5f507053ccb2c9de89d21d823","ordered_waypoints":["FS","Calco - Via Virgilio","Olgiate Molgora - Scarpone","Olgiate sud","FS","San Zeno","FS"],"scenario":"SCARPONE_CALCO_VIRGILIO"},"type":"Feature"},{"geometry":{"coordinates":[9.4044416,45.7291436],"type":"Point"},"properties":{"feature_type":"WAYPOINT_NOT_BOARDING_EVENT","name":"Olgiate-Calco-Brivio FS","physical_status":"EXISTING_INVENTORY_STOP_NOT_EVENT_CERTIFIED","stop_place_id":"FROZEN::L00407"},"type":"Feature"},{"geometry":{"coordinates":[9.397265069842808,45.72130999924538],"type":"Point"},"properties":{"feature_type":"WAYPOINT_NOT_BOARDING_EVENT","name":"Olgiate sud / Via Aldo Moro","physical_status":"FIELD_CHECK_PENDING","stop_place_id":"RT031::P2V2S_0031_PROJECTED_ROAD_POINT"},"type":"Feature"},{"geometry":{"coordinates":[9.4072469,45.735645],"type":"Point"},"properties":{"feature_type":"WAYPOINT_NOT_BOARDING_EVENT","name":"San Zeno / Via Cantù","physical_status":"ROAD_NODE_PROXY_NOT_STOP_SITE","stop_place_id":"PROXY::SAN_ZENO_VIA_CANTU_ROAD_NODE"},"type":"Feature"}],"name":"RT031_LINE8_PEAK_SHORT_CORE_ROAD_OPTIONS_V3","properties":{"geometry_crs":"EPSG:4326","network_selected":false,"primary_selection_authorised":false,"runner_up_selection_authorised":false,"source_sha256":{"anchor":"c3ab598a43bfb83f31f086d6a14f29d92941969a349ef9087b5e6d87fe10b3d1","attachments":"30d64ff20e9b89c31f7878c415dd4c6bb5a0d10f51b24d041e4deb4d57e6571b","candidates_normalized_newlines":"bf3f5c648803fb0ba03b2f9af2bd4fa02924cb387bb0a752fc3a7a8ee1f14bc0","edges":"466f562f95805cb194cc079c3829d5abcd54a431653cce5364538869909dff19","nodes":"2ab72595b7c52d8a08ccf767a20a9a5fc00b39552b37da01a53f270467a4ca06","policy":"28909df6b9cdcf49608d4e7456f819959d35d1bf2c41dd1800d026bb06d963e0","repair":"35d8f9736044431cc527d91814520ca89f7740da3c5ef56b8379eb59785c2fcc","road_screen":"b863e2c121332748a5d75a4bde782daff922142bb696becf0c99893514d86251","rules":"954865ad8972bd20d819e3eb6c4d548102609a4de07b7006ac7e42a61e14ed3a","successor":"14e39b47c09c4afe0d26d13b7369b906299db15d14690ba0e5d06e11b2fd7b7c"},"status":"NON_DECISIONAL_MODELED_ROAD_PATHS_NOT_CERTIFIED_TPL_SERVICE"},"type":"FeatureCollection"}
