<?xml version="1.0" encoding="UTF-8" standalone="yes"?>
<kml xmlns="http://www.opengis.net/kml/2.2" xmlns:gx="http://www.google.com/kml/ext/2.2" xmlns:atom="http://www.w3.org/2005/Atom" xmlns:xal="urn:oasis:names:tc:ciq:xsdschema:xAL:2.0">
    <Document>
        <open>true</open>
        <Style id="trackStyle">
            <LineStyle>
                <color>FFFF00FF</color>
                <width>3.0</width>
            </LineStyle>
        </Style>
        <Style id="speedColor_0">
            <LineStyle>
                <color>FF00FFFF</color>
                <width>5.0</width>
            </LineStyle>
        </Style>
        <Style id="speedColor_1">
            <LineStyle>
                <color>FF008080</color>
                <width>5.0</width>
            </LineStyle>
        </Style>
        <Style id="speedColor_2">
            <LineStyle>
                <color>FF00FF00</color>
                <width>5.0</width>
            </LineStyle>
        </Style>
        <Style id="speedColor_3">
            <LineStyle>
                <color>FF008000</color>
                <width>5.0</width>
            </LineStyle>
        </Style>
        <Style id="speedColor_4">
            <LineStyle>
                <color>FFFFFF00</color>
                <width>5.0</width>
            </LineStyle>
        </Style>
        <Style id="speedColor_5">
            <LineStyle>
                <color>FF808000</color>
                <width>5.0</width>
            </LineStyle>
        </Style>
        <Style id="speedColor_6">
            <LineStyle>
                <color>FFFF0000</color>
                <width>5.0</width>
            </LineStyle>
        </Style>
        <Style id="speedColor_7">
            <LineStyle>
                <color>FF800000</color>
                <width>5.0</width>
            </LineStyle>
        </Style>
        <Style id="speedColor_8">
            <LineStyle>
                <color>FFFF00FF</color>
                <width>5.0</width>
            </LineStyle>
        </Style>
        <Style id="speedColor_9">
            <LineStyle>
                <color>FF800080</color>
                <width>5.0</width>
            </LineStyle>
        </Style>
        <Style id="speedColor_10">
            <LineStyle>
                <color>FF0000FF</color>
                <width>5.0</width>
            </LineStyle>
        </Style>
        <Style id="speedColor_11">
            <LineStyle>
                <color>FF000080</color>
                <width>5.0</width>
            </LineStyle>
        </Style>
        <Style id="speedColor_12">
            <LineStyle>
                <color>FF194C80</color>
                <width>5.0</width>
            </LineStyle>
        </Style>
        <Style id="speedColor_13">
            <LineStyle>
                <color>FF000000</color>
                <width>5.0</width>
            </LineStyle>
        </Style>
        <Folder>
            <name>Waypoints: 0008.gpx</name>
            <Placemark>
                <name>300194-Ravellino</name>
                <styleUrl>#waypointStyle</styleUrl>
                <Point>
                    <coordinates>9.36883,45.77242,0.0</coordinates>
                </Point>
            </Placemark>
            <Placemark>
                <name>300407-Olgiate Molgora - stazione f.s.</name>
                <styleUrl>#waypointStyle</styleUrl>
                <Point>
                    <coordinates>9.40462,45.72814,0.0</coordinates>
                </Point>
            </Placemark>
            <Placemark>
                <name>300782-S.Maria Hoe'</name>
                <styleUrl>#waypointStyle</styleUrl>
                <Point>
                    <coordinates>9.373817,45.744283,0.0</coordinates>
                </Point>
            </Placemark>
            <Placemark>
                <name>300803-Olgiate Molgora - monticello scarpone</name>
                <styleUrl>#waypointStyle</styleUrl>
                <Point>
                    <coordinates>9.39027,45.73133,0.0</coordinates>
                </Point>
            </Placemark>
            <Placemark>
                <name>300804-Rovagnate - la pesa</name>
                <styleUrl>#waypointStyle</styleUrl>
                <Point>
                    <coordinates>9.374517,45.73725,0.0</coordinates>
                </Point>
            </Placemark>
            <Placemark>
                <name>300805-S.Maria Hoe' - tremonte</name>
                <styleUrl>#waypointStyle</styleUrl>
                <Point>
                    <coordinates>9.37837,45.7428,0.0</coordinates>
                </Point>
            </Placemark>
            <Placemark>
                <name>300807-Colle Brianza - piecastello</name>
                <styleUrl>#waypointStyle</styleUrl>
                <Point>
                    <coordinates>9.36185,45.759617,0.0</coordinates>
                </Point>
            </Placemark>
            <Placemark>
                <name>300808-Colle Brianza - nava (monumento)</name>
                <styleUrl>#waypointStyle</styleUrl>
                <Point>
                    <coordinates>9.362617,45.7632,0.0</coordinates>
                </Point>
            </Placemark>
            <Placemark>
                <name>300871-S.Maria Hoe' - alduno</name>
                <styleUrl>#waypointStyle</styleUrl>
                <Point>
                    <coordinates>9.3822,45.735,0.0</coordinates>
                </Point>
            </Placemark>
            <Placemark>
                <name>300872-Perego - s.s. 342/via s.caterina</name>
                <styleUrl>#waypointStyle</styleUrl>
                <Point>
                    <coordinates>9.362733,45.738567,0.0</coordinates>
                </Point>
            </Placemark>
            <Placemark>
                <name>300873-Hoe'</name>
                <styleUrl>#waypointStyle</styleUrl>
                <Point>
                    <coordinates>9.367717,45.748667,0.0</coordinates>
                </Point>
            </Placemark>
            <Placemark>
                <name>300878-Rovagnate - semaforo</name>
                <styleUrl>#waypointStyle</styleUrl>
                <Point>
                    <coordinates>9.369383,45.737167,0.0</coordinates>
                </Point>
            </Placemark>
            <Placemark>
                <name>300879-Rovagnate - vinicola ghezzi</name>
                <styleUrl>#waypointStyle</styleUrl>
                <Point>
                    <coordinates>9.364717,45.7397,0.0</coordinates>
                </Point>
            </Placemark>
            <Placemark>
                <name>300902-S.Maria Hoe' - alpino</name>
                <styleUrl>#waypointStyle</styleUrl>
                <Point>
                    <coordinates>9.374617,45.743617,0.0</coordinates>
                </Point>
            </Placemark>
            <Placemark>
                <name>300903-S.Maria Hoe' - tremonte/via leopardi</name>
                <styleUrl>#waypointStyle</styleUrl>
                <Point>
                    <coordinates>9.38096,45.74118,0.0</coordinates>
                </Point>
            </Placemark>
            <Placemark>
                <name>300969-Ravellino - via san rocco</name>
                <styleUrl>#waypointStyle</styleUrl>
                <Point>
                    <coordinates>9.36744,45.77018,0.0</coordinates>
                </Point>
            </Placemark>
            <Placemark>
                <name>L00407-Olgiate Molgora (stazione f.s.)</name>
                <styleUrl>#waypointStyle</styleUrl>
                <Point>
                    <coordinates>9.40475,45.72813,0.0</coordinates>
                </Point>
            </Placemark>
            <Placemark>
                <name>L00782-S.Maria Hoe'</name>
                <styleUrl>#waypointStyle</styleUrl>
                <Point>
                    <coordinates>9.373583,45.744333,0.0</coordinates>
                </Point>
            </Placemark>
            <Placemark>
                <name>L00803-Olgiate Molgora - monticello scarpone</name>
                <styleUrl>#waypointStyle</styleUrl>
                <Point>
                    <coordinates>9.39015,45.7313,0.0</coordinates>
                </Point>
            </Placemark>
            <Placemark>
                <name>L00804-Rovagnate - la pesa</name>
                <styleUrl>#waypointStyle</styleUrl>
                <Point>
                    <coordinates>9.374867,45.737217,0.0</coordinates>
                </Point>
            </Placemark>
            <Placemark>
                <name>L00807-Colle Brianza - piecastello</name>
                <styleUrl>#waypointStyle</styleUrl>
                <Point>
                    <coordinates>9.361683,45.7594,0.0</coordinates>
                </Point>
            </Placemark>
            <Placemark>
                <name>L00808-Colle Brianza - nava (monumento)</name>
                <styleUrl>#waypointStyle</styleUrl>
                <Point>
                    <coordinates>9.362467,45.7631,0.0</coordinates>
                </Point>
            </Placemark>
            <Placemark>
                <name>L00871-S.Maria Hoe' - alduno</name>
                <styleUrl>#waypointStyle</styleUrl>
                <Point>
                    <coordinates>9.382517,45.7347,0.0</coordinates>
                </Point>
            </Placemark>
            <Placemark>
                <name>L00872-Perego - s.s. 342/via s.caterina</name>
                <styleUrl>#waypointStyle</styleUrl>
                <Point>
                    <coordinates>9.362667,45.738483,0.0</coordinates>
                </Point>
            </Placemark>
            <Placemark>
                <name>L00873-Hoe'</name>
                <styleUrl>#waypointStyle</styleUrl>
                <Point>
                    <coordinates>9.368017,45.7486,0.0</coordinates>
                </Point>
            </Placemark>
            <Placemark>
                <name>L00878-Rovagnate - semaforo</name>
                <styleUrl>#waypointStyle</styleUrl>
                <Point>
                    <coordinates>9.370467,45.737133,0.0</coordinates>
                </Point>
            </Placemark>
            <Placemark>
                <name>L00879-Rovagnate - vinicola ghezzi</name>
                <styleUrl>#waypointStyle</styleUrl>
                <Point>
                    <coordinates>9.36465,45.7398,0.0</coordinates>
                </Point>
            </Placemark>
            <Placemark>
                <name>L00902-S.Maria Hoe' - alpino</name>
                <styleUrl>#waypointStyle</styleUrl>
                <Point>
                    <coordinates>9.374367,45.743567,0.0</coordinates>
                </Point>
            </Placemark>
            <Placemark>
                <name>L00904-S.Maria Hoe' - tremonte/ via trento</name>
                <styleUrl>#waypointStyle</styleUrl>
                <Point>
                    <coordinates>9.3784,45.7426,0.0</coordinates>
                </Point>
            </Placemark>
        </Folder>
        <Folder>
            <name>Track: ZZZD84ZZ011</name>
            <Placemark>
                <styleUrl>#trackStyle</styleUrl>
                <LineString>
                    <coordinates>9.40462,45.72814,0.0 9.4049,45.72819,0.0 9.40511,45.72802,0.0 9.40529,45.72789,0.0 9.40538,45.72783,0.0 9.40569,45.72785,0.0 9.406,45.72788,0.0 9.40607,45.72789,0.0 9.40612,45.72766,0.0 9.40615,45.72758,0.0 9.40629,45.72738,0.0 9.40645,45.72719,0.0 9.4065,45.72713,0.0 9.40654,45.72672,0.0 9.40658,45.7265,0.0 9.40663,45.72628,0.0 9.4065,45.72627,0.0 9.40628,45.72626,0.0 9.40604,45.72611,0.0 9.4058,45.72596,0.0 9.40559,45.72583,0.0 9.40534,45.72597,0.0 9.40509,45.72611,0.0 9.40484,45.72625,0.0 9.40458,45.72639,0.0 9.40433,45.72653,0.0 9.40429,45.72656,0.0 9.40421,45.72662,0.0 9.40395,45.72675,0.0 9.40368,45.72688,0.0 9.40356,45.72695,0.0 9.40342,45.72704,0.0 9.40325,45.72713,0.0 9.403,45.72727,0.0 9.40275,45.72741,0.0 9.4025,45.72755,0.0 9.40239,45.72762,0.0 9.40213,45.72775,0.0 9.40187,45.72788,0.0 9.40162,45.72803,0.0 9.40137,45.72817,0.0 9.40113,45.72832,0.0 9.40096,45.72843,0.0 9.4007,45.72856,0.0 9.40045,45.7287,0.0 9.40027,45.7288,0.0 9.40001,45.72893,0.0 9.39975,45.72906,0.0 9.39953,45.72919,0.0 9.39927,45.72932,0.0 9.39902,45.72946,0.0 9.39897,45.72949,0.0 9.3987,45.72961,0.0 9.39843,45.72973,0.0 9.39816,45.72985,0.0 9.39789,45.72998,0.0 9.39762,45.7301,0.0 9.39759,45.73012,0.0 9.39729,45.73021,0.0 9.39699,45.7303,0.0 9.39689,45.73033,0.0 9.39659,45.7304,0.0 9.39651,45.73042,0.0 9.39619,45.73047,0.0 9.39588,45.73051,0.0 9.39556,45.73056,0.0 9.39525,45.7306,0.0 9.39493,45.73065,0.0 9.39462,45.7307,0.0 9.3943,45.73074,0.0 9.39404,45.73079,0.0 9.39372,45.73082,0.0 9.39341,45.73085,0.0 9.39331,45.73087,0.0 9.39299,45.73092,0.0 9.39268,45.73097,0.0 9.39252,45.731,0.0 9.39221,45.73104,0.0 9.39189,45.73109,0.0 9.39158,45.73113,0.0 9.39149,45.73115,0.0 9.39117,45.73119,0.0 9.39086,45.73123,0.0 9.39084,45.73124,0.0 9.39071,45.73133,0.0 9.39063,45.73124,0.0 9.39031,45.73129,0.0 9.39027,45.7313,0.0 9.3901,45.73133,0.0 9.38979,45.73139,0.0 9.38963,45.73142,0.0 9.38946,45.73145,0.0 9.38914,45.73151,0.0 9.38884,45.73158,0.0 9.38853,45.73165,0.0 9.38846,45.73166,0.0 9.38817,45.73176,0.0 9.38812,45.73178,0.0 9.38789,45.73194,0.0 9.38768,45.7321,0.0 9.38751,45.73224,0.0 9.38733,45.73242,0.0 9.38719,45.73261,0.0 9.38705,45.73281,0.0 9.38699,45.7329,0.0 9.38685,45.7331,0.0 9.38671,45.7333,0.0 9.38658,45.7335,0.0 9.38656,45.73354,0.0 9.38647,45.73362,0.0 9.38624,45.73378,0.0 9.38601,45.73394,0.0 9.38599,45.73396,0.0 9.3857,45.73404,0.0 9.3854,45.73413,0.0 9.38539,45.73414,0.0 9.38509,45.73422,0.0 9.38496,45.73426,0.0 9.38465,45.73431,0.0 9.38461,45.73432,0.0 9.3843,45.73437,0.0 9.38398,45.73443,0.0 9.38392,45.73444,0.0 9.3836,45.73449,0.0 9.3834,45.73453,0.0 9.38308,45.73458,0.0 9.38305,45.73459,0.0 9.38293,45.73465,0.0 9.38265,45.73476,0.0 9.38241,45.73486,0.0 9.38232,45.73489,0.0 9.38215,45.73497,0.0 9.38202,45.73504,0.0 9.38175,45.73517,0.0 9.38149,45.73529,0.0 9.38133,45.73537,0.0 9.38115,45.73544,0.0 9.38085,45.73553,0.0 9.38056,45.73563,0.0 9.38028,45.73573,0.0 9.37999,45.73582,0.0 9.3799,45.73586,0.0 9.37968,45.73592,0.0 9.37938,45.73601,0.0 9.3792,45.73607,0.0 9.3789,45.73615,0.0 9.3786,45.73623,0.0 9.37856,45.73625,0.0 9.37826,45.73634,0.0 9.37799,45.73643,0.0 9.37769,45.73651,0.0 9.37756,45.73655,0.0 9.37724,45.73657,0.0 9.37717,45.73658,0.0 9.377,45.73671,0.0 9.37687,45.73667,0.0 9.37679,45.73676,0.0 9.37648,45.73683,0.0 9.37639,45.73686,0.0 9.37608,45.73694,0.0 9.37579,45.73702,0.0 9.37549,45.7371,0.0 9.37519,45.73718,0.0 9.37518,45.73719,0.0 9.37505,45.73721,0.0 9.37497,45.73737,0.0 9.37474,45.73725,0.0 9.37448,45.73723,0.0 9.37419,45.73721,0.0 9.37161,45.73719,0.0 9.36958,45.73717,0.0 9.36938,45.73716,0.0 9.36841,45.73717,0.0 9.36809,45.73718,0.0 9.36804,45.73719,0.0 9.36773,45.73723,0.0 9.36741,45.73727,0.0 9.3674,45.73728,0.0 9.36709,45.73735,0.0 9.36679,45.73742,0.0 9.36666,45.73746,0.0 9.36635,45.73754,0.0 9.36606,45.73762,0.0 9.36576,45.7377,0.0 9.36546,45.73779,0.0 9.36517,45.73787,0.0 9.36487,45.73795,0.0 9.36472,45.738,0.0 9.36441,45.73809,0.0 9.36411,45.73817,0.0 9.36382,45.73826,0.0 9.36376,45.73827,0.0 9.36346,45.73835,0.0 9.36315,45.73843,0.0 9.36286,45.7385,0.0 9.36272,45.73854,0.0 9.36259,45.73858,0.0 9.3623,45.73866,0.0 9.36238,45.73888,0.0 9.36247,45.73909,0.0 9.36256,45.7393,0.0 9.36265,45.73952,0.0 9.36268,45.7396,0.0 9.36293,45.73974,0.0 9.36318,45.73988,0.0 9.36343,45.74001,0.0 9.36355,45.74008,0.0 9.36386,45.74005,0.0 9.36418,45.74003,0.0 9.36446,45.7399,0.0 9.36472,45.73978,0.0 9.36476,45.73971,0.0 9.36489,45.73957,0.0 9.36509,45.73974,0.0 9.3653,45.73991,0.0 9.36552,45.74008,0.0 9.36571,45.74023,0.0 9.36602,45.7402,0.0 9.36634,45.74016,0.0 9.36649,45.74014,0.0 9.36679,45.74008,0.0 9.36714,45.74007,0.0 9.36747,45.74006,0.0 9.36784,45.74008,0.0 9.36815,45.7401,0.0 9.36848,45.74013,0.0 9.36865,45.74014,0.0 9.36916,45.74006,0.0 9.36946,45.73999,0.0 9.36969,45.73993,0.0 9.36999,45.73985,0.0 9.37029,45.73977,0.0 9.37059,45.7397,0.0 9.3709,45.73962,0.0 9.37119,45.73955,0.0 9.37125,45.73954,0.0 9.37134,45.73951,0.0 9.37162,45.73942,0.0 9.37192,45.73933,0.0 9.37251,45.73936,0.0 9.37283,45.73939,0.0 9.37314,45.73943,0.0 9.37332,45.73945,0.0 9.37345,45.73936,0.0 9.37358,45.73945,0.0 9.37354,45.73951,0.0 9.37358,45.73969,0.0 9.37376,45.73988,0.0 9.3738,45.73991,0.0 9.37389,45.74012,0.0 9.37398,45.74033,0.0 9.37402,45.74041,0.0 9.37404,45.74063,0.0 9.37407,45.74085,0.0 9.37411,45.74108,0.0 9.37413,45.7413,0.0 9.37417,45.74153,0.0 9.37419,45.74165,0.0 9.37413,45.7425,0.0 9.37408,45.74272,0.0 9.37406,45.74283,0.0 9.3739,45.74302,0.0 9.37374,45.74321,0.0 9.37371,45.74325,0.0 9.37376,45.74331,0.0 9.37402,45.74343,0.0 9.3741,45.74347,0.0 9.37431,45.74353,0.0 9.37458,45.74363,0.0 9.37459,45.74364,0.0 9.37486,45.74375,0.0 9.37488,45.74377,0.0 9.37462,45.7439,0.0 9.3744,45.74401,0.0 9.37412,45.74412,0.0 9.37397,45.74419,0.0 9.37377,45.74426,0.0 9.37371,45.74428,0.0 9.37343,45.7444,0.0 9.37323,45.74449,0.0 9.37319,45.74452,0.0 9.37293,45.74465,0.0 9.37285,45.7447,0.0 9.37263,45.74487,0.0 9.37259,45.74491,0.0 9.37238,45.74508,0.0 9.37224,45.74522,0.0 9.37198,45.74535,0.0 9.37189,45.7454,0.0 9.3718,45.74545,0.0 9.37168,45.74549,0.0 9.37134,45.74552,0.0 9.37099,45.74559,0.0 9.37068,45.74566,0.0 9.37042,45.7458,0.0 9.37017,45.74593,0.0 9.37012,45.74597,0.0 9.37009,45.74619,0.0 9.37006,45.74641,0.0 9.37002,45.74663,0.0 9.37,45.74685,0.0 9.36996,45.74708,0.0 9.36993,45.7473,0.0 9.36991,45.74753,0.0 9.36971,45.74771,0.0 9.3696,45.74781,0.0 9.36939,45.74798,0.0 9.36921,45.74815,0.0 9.36899,45.74831,0.0 9.36878,45.74847,0.0 9.36846,45.74851,0.0 9.36814,45.74855,0.0 9.36783,45.74859,0.0 9.36778,45.7486,0.0 9.36768,45.74862,0.0 9.36752,45.74866,0.0 9.36722,45.74874,0.0 9.36718,45.74875,0.0 9.36688,45.74882,0.0 9.36657,45.7489,0.0 9.36627,45.74898,0.0 9.36597,45.74905,0.0 9.36567,45.74913,0.0 9.36563,45.74914,0.0 9.36536,45.74926,0.0 9.36509,45.74938,0.0 9.36482,45.7495,0.0 9.36463,45.74959,0.0 9.36455,45.7498,0.0 9.36448,45.75002,0.0 9.36446,45.75014,0.0 9.36414,45.75019,0.0 9.36402,45.75022,0.0 9.36376,45.7502,0.0 9.36349,45.75007,0.0 9.36324,45.74995,0.0 9.36299,45.74981,0.0 9.36277,45.74968,0.0 9.36245,45.74963,0.0 9.36233,45.74962,0.0 9.36211,45.74978,0.0 9.36189,45.74995,0.0 9.36168,45.75011,0.0 9.36146,45.75028,0.0 9.36138,45.75035,0.0 9.36134,45.75041,0.0 9.36121,45.7505,0.0 9.36092,45.75061,0.0 9.36064,45.75071,0.0 9.36036,45.75082,0.0 9.36035,45.75083,0.0 9.36021,45.75089,0.0 9.36026,45.75101,0.0 9.36035,45.75098,0.0 9.36063,45.75089,0.0 9.36093,45.7508,0.0 9.36122,45.75071,0.0 9.36143,45.75065,0.0 9.3617,45.75055,0.0 9.36186,45.7505,0.0 9.36216,45.75044,0.0 9.36248,45.75039,0.0 9.36255,45.75037,0.0 9.36281,45.75047,0.0 9.36301,45.75064,0.0 9.36303,45.75065,0.0 9.36295,45.75122,0.0 9.36294,45.75125,0.0 9.36312,45.75144,0.0 9.36324,45.75155,0.0 9.36316,45.75219,0.0 9.36307,45.7524,0.0 9.36303,45.75262,0.0 9.36298,45.75284,0.0 9.36295,45.75307,0.0 9.36294,45.75312,0.0 9.36296,45.75334,0.0 9.36299,45.75357,0.0 9.36302,45.75379,0.0 9.36303,45.75385,0.0 9.36294,45.75406,0.0 9.36285,45.75428,0.0 9.36276,45.75449,0.0 9.36272,45.7546,0.0 9.36266,45.75482,0.0 9.36264,45.75491,0.0 9.36241,45.75561,0.0 9.3622,45.75577,0.0 9.36207,45.75587,0.0 9.36199,45.75608,0.0 9.36191,45.7563,0.0 9.36186,45.75647,0.0 9.36161,45.75662,0.0 9.36138,45.75678,0.0 9.3613,45.75684,0.0 9.36131,45.75709,0.0 9.36133,45.75731,0.0 9.36134,45.75747,0.0 9.36141,45.75768,0.0 9.36147,45.7579,0.0 9.36153,45.75812,0.0 9.3616,45.75831,0.0 9.36166,45.75853,0.0 9.36169,45.75861,0.0 9.36177,45.75883,0.0 9.36185,45.75904,0.0 9.3619,45.75916,0.0 9.36186,45.75928,0.0 9.36199,45.75937,0.0 9.36195,45.75946,0.0 9.36179,45.75959,0.0 9.3617,45.75981,0.0 9.36169,45.75986,0.0 9.36162,45.76008,0.0 9.36157,45.7603,0.0 9.36151,45.76051,0.0 9.36145,45.76073,0.0 9.36143,45.76085,0.0 9.36152,45.76105,0.0 9.36161,45.76127,0.0 9.36171,45.76148,0.0 9.36181,45.76169,0.0 9.3619,45.76191,0.0 9.362,45.76212,0.0 9.3621,45.76233,0.0 9.3622,45.76255,0.0 9.36221,45.76257,0.0 9.3623,45.76279,0.0 9.36239,45.763,0.0 9.36242,45.76308,0.0 9.36248,45.76323,0.0 9.36258,45.76343,0.0 9.36264,45.76356,0.0 9.36275,45.76377,0.0 9.36286,45.76398,0.0 9.36296,45.76419,0.0 9.36303,45.76432,0.0 9.36307,45.76441,0.0 9.3631,45.76463,0.0 9.36312,45.76474,0.0 9.36314,45.76496,0.0 9.36317,45.76519,0.0 9.3632,45.76541,0.0 9.36322,45.76563,0.0 9.36324,45.76571,0.0 9.36344,45.76588,0.0 9.36365,45.76605,0.0 9.36385,45.76622,0.0 9.36406,45.76639,0.0 9.36427,45.76656,0.0 9.36441,45.76668,0.0 9.36461,45.76684,0.0 9.36482,45.76701,0.0 9.36502,45.76719,0.0 9.36522,45.76736,0.0 9.36541,45.76752,0.0 9.36561,45.76769,0.0 9.36581,45.76786,0.0 9.36601,45.76803,0.0 9.36622,45.76821,0.0 9.36642,45.76838,0.0 9.36662,45.76855,0.0 9.36683,45.76873,0.0 9.36703,45.7689,0.0 9.36723,45.76907,0.0 9.3674,45.76921,0.0 9.36759,45.76939,0.0 9.36777,45.76957,0.0 9.36797,45.76974,0.0 9.36804,45.76981,0.0 9.36824,45.76998,0.0 9.36835,45.77008,0.0 9.36803,45.77012,0.0 9.36771,45.77016,0.0 9.36744,45.77019,0.0</coordinates>
                </LineString>
            </Placemark>
            <Folder>
                <name>Marks [Km]</name>
                <visibility>false</visibility>
                <open>false</open>
                <Placemark>
                    <name>1. Km</name>
                    <visibility>false</visibility>
                    <Point>
                        <coordinates>9.3997269,45.7290736,0</coordinates>
                    </Point>
                </Placemark>
                <Placemark>
                    <name>2. Km</name>
                    <visibility>false</visibility>
                    <Point>
                        <coordinates>9.3879,45.7319325,0</coordinates>
                    </Point>
                </Placemark>
                <Placemark>
                    <name>3. Km</name>
                    <visibility>false</visibility>
                    <Point>
                        <coordinates>9.3774917,45.7365543,0</coordinates>
                    </Point>
                </Placemark>
                <Placemark>
                    <name>4. Km</name>
                    <visibility>false</visibility>
                    <Point>
                        <coordinates>9.3653174,45.7378292,0</coordinates>
                    </Point>
                </Placemark>
                <Placemark>
                    <name>5. Km</name>
                    <visibility>false</visibility>
                    <Point>
                        <coordinates>9.36985,45.7398875,0</coordinates>
                    </Point>
                </Placemark>
                <Placemark>
                    <name>6. Km</name>
                    <visibility>false</visibility>
                    <Point>
                        <coordinates>9.3733592,45.7444318,0</coordinates>
                    </Point>
                </Placemark>
                <Placemark>
                    <name>7. Km</name>
                    <visibility>false</visibility>
                    <Point>
                        <coordinates>9.3645451,45.7498153,0</coordinates>
                    </Point>
                </Placemark>
                <Placemark>
                    <name>8. Km</name>
                    <visibility>false</visibility>
                    <Point>
                        <coordinates>9.3629526,45.7532581,0</coordinates>
                    </Point>
                </Placemark>
                <Placemark>
                    <name>9. Km</name>
                    <visibility>false</visibility>
                    <Point>
                        <coordinates>9.3618208,45.7617164,0</coordinates>
                    </Point>
                </Placemark>
                <Placemark>
                    <name>10. Km</name>
                    <visibility>false</visibility>
                    <Point>
                        <coordinates>9.3676567,45.7694565,0</coordinates>
                    </Point>
                </Placemark>
            </Folder>
        </Folder>
        <Folder>
            <name>Track: ZZZD84ZZ012</name>
            <Placemark>
                <styleUrl>#trackStyle</styleUrl>
                <LineString>
                    <coordinates>9.36883,45.77242,0.0 9.36769,45.77016,0.0 9.36801,45.77012,0.0 9.36832,45.77008,0.0 9.36814,45.76991,0.0 9.36804,45.76981,0.0 9.36785,45.76963,0.0 9.36766,45.76945,0.0 9.36746,45.76927,0.0 9.3674,45.76921,0.0 9.36719,45.76903,0.0 9.36698,45.76886,0.0 9.36679,45.76869,0.0 9.36658,45.76851,0.0 9.36638,45.76834,0.0 9.36617,45.76817,0.0 9.36597,45.76799,0.0 9.36577,45.76782,0.0 9.36556,45.76765,0.0 9.36541,45.76752,0.0 9.3652,45.76734,0.0 9.365,45.76717,0.0 9.36479,45.767,0.0 9.36459,45.76683,0.0 9.36441,45.76668,0.0 9.3642,45.7665,0.0 9.364,45.76633,0.0 9.36379,45.76616,0.0 9.36358,45.76599,0.0 9.36338,45.76582,0.0 9.36324,45.76571,0.0 9.36321,45.76548,0.0 9.36318,45.76526,0.0 9.36315,45.76504,0.0 9.36313,45.76481,0.0 9.36312,45.76474,0.0 9.36308,45.76452,0.0 9.36307,45.76441,0.0 9.36303,45.76432,0.0 9.36291,45.7641,0.0 9.3628,45.76389,0.0 9.36269,45.76368,0.0 9.36264,45.76356,0.0 9.36254,45.76335,0.0 9.36244,45.76314,0.0 9.36243,45.76312,0.0 9.36242,45.76308,0.0 9.36232,45.76286,0.0 9.36223,45.76265,0.0 9.36221,45.76257,0.0 9.36211,45.76236,0.0 9.36201,45.76215,0.0 9.36191,45.76193,0.0 9.36181,45.76172,0.0 9.36172,45.76151,0.0 9.36162,45.76129,0.0 9.36152,45.76108,0.0 9.36143,45.76087,0.0 9.36148,45.76062,0.0 9.36153,45.7604,0.0 9.3616,45.76018,0.0 9.36165,45.75996,0.0 9.36169,45.75986,0.0 9.36177,45.75964,0.0 9.36181,45.75952,0.0 9.36173,45.75937,0.0 9.36186,45.75928,0.0 9.3619,45.75916,0.0 9.36181,45.75894,0.0 9.36173,45.75873,0.0 9.36169,45.75861,0.0 9.36161,45.75839,0.0 9.3616,45.75831,0.0 9.36152,45.75809,0.0 9.36146,45.75787,0.0 9.3614,45.75765,0.0 9.36134,45.75747,0.0 9.36133,45.75725,0.0 9.36131,45.75702,0.0 9.3613,45.75687,0.0 9.36153,45.75668,0.0 9.36177,45.75653,0.0 9.36186,45.75647,0.0 9.36193,45.75625,0.0 9.36201,45.75603,0.0 9.36207,45.75587,0.0 9.36229,45.7557,0.0 9.3625,45.75554,0.0 9.36264,45.75544,0.0 9.36269,45.75468,0.0 9.36272,45.7546,0.0 9.3628,45.75438,0.0 9.36289,45.75417,0.0 9.36298,45.75396,0.0 9.36303,45.75385,0.0 9.36299,45.75363,0.0 9.36296,45.7534,0.0 9.36294,45.75318,0.0 9.36297,45.7529,0.0 9.36302,45.75268,0.0 9.36305,45.75245,0.0 9.36307,45.7524,0.0 9.36316,45.75219,0.0 9.36324,45.7521,0.0 9.36305,45.75137,0.0 9.36294,45.75125,0.0 9.36301,45.75103,0.0 9.36303,45.75101,0.0 9.36282,45.75048,0.0 9.36281,45.75047,0.0 9.36255,45.75037,0.0 9.36223,45.75042,0.0 9.36192,45.75048,0.0 9.36186,45.7505,0.0 9.36157,45.75059,0.0 9.36143,45.75065,0.0 9.36113,45.75074,0.0 9.36083,45.75083,0.0 9.36054,45.75092,0.0 9.36035,45.75098,0.0 9.36026,45.75101,0.0 9.36021,45.75089,0.0 9.36035,45.75083,0.0 9.36062,45.75072,0.0 9.3609,45.75061,0.0 9.36118,45.75051,0.0 9.36121,45.7505,0.0 9.36134,45.75041,0.0 9.36138,45.75035,0.0 9.3616,45.75018,0.0 9.36181,45.75002,0.0 9.36203,45.74985,0.0 9.36224,45.74968,0.0 9.36233,45.74962,0.0 9.36264,45.74967,0.0 9.36277,45.74968,0.0 9.36301,45.74982,0.0 9.36324,45.74995,0.0 9.3635,45.75007,0.0 9.36376,45.7502,0.0 9.36402,45.75022,0.0 9.36433,45.75016,0.0 9.36446,45.75014,0.0 9.36452,45.74992,0.0 9.36459,45.7497,0.0 9.36463,45.74959,0.0 9.36489,45.74946,0.0 9.36516,45.74935,0.0 9.36543,45.74922,0.0 9.36563,45.74914,0.0 9.36592,45.74906,0.0 9.36623,45.74898,0.0 9.36652,45.74891,0.0 9.36683,45.74883,0.0 9.36713,45.74876,0.0 9.36718,45.74875,0.0 9.36748,45.74866,0.0 9.36778,45.7486,0.0 9.36799,45.74857,0.0 9.36831,45.74853,0.0 9.36862,45.74849,0.0 9.36878,45.74847,0.0 9.369,45.7483,0.0 9.36921,45.74815,0.0 9.36941,45.74797,0.0 9.3696,45.74781,0.0 9.36979,45.74763,0.0 9.36991,45.74754,0.0 9.36993,45.74731,0.0 9.36996,45.74709,0.0 9.37,45.74687,0.0 9.37002,45.74665,0.0 9.37006,45.74642,0.0 9.37009,45.7462,0.0 9.37011,45.74598,0.0 9.37012,45.74597,0.0 9.37017,45.74594,0.0 9.37042,45.7458,0.0 9.37067,45.74567,0.0 9.37098,45.74559,0.0 9.37128,45.74552,0.0 9.37151,45.74549,0.0 9.3718,45.74545,0.0 9.37189,45.7454,0.0 9.37215,45.74526,0.0 9.37224,45.74522,0.0 9.37244,45.74504,0.0 9.37259,45.74491,0.0 9.37279,45.74474,0.0 9.37285,45.7447,0.0 9.3731,45.74456,0.0 9.37319,45.74452,0.0 9.37323,45.74449,0.0 9.37349,45.74437,0.0 9.37358,45.74434,0.0 9.37371,45.74428,0.0 9.37397,45.74419,0.0 9.37424,45.74407,0.0 9.3744,45.74401,0.0 9.37465,45.74387,0.0 9.37488,45.74377,0.0 9.3746,45.74365,0.0 9.37437,45.74355,0.0 9.37431,45.74353,0.0 9.3741,45.74347,0.0 9.37382,45.74334,0.0 9.37376,45.74331,0.0 9.37371,45.74325,0.0 9.37386,45.74306,0.0 9.37402,45.74286,0.0 9.37406,45.74283,0.0 9.37411,45.74261,0.0 9.37416,45.74239,0.0 9.37419,45.74229,0.0 9.37415,45.74143,0.0 9.37412,45.74121,0.0 9.37409,45.74098,0.0 9.37406,45.74076,0.0 9.37402,45.74053,0.0 9.37392,45.7402,0.0 9.37383,45.73998,0.0 9.3738,45.73991,0.0 9.37361,45.73972,0.0 9.37358,45.73969,0.0 9.37354,45.73951,0.0 9.37337,45.73948,0.0 9.37332,45.73945,0.0 9.373,45.73941,0.0 9.37268,45.73938,0.0 9.37237,45.73934,0.0 9.3722,45.73933,0.0 9.37164,45.73942,0.0 9.37134,45.7395,0.0 9.37125,45.73954,0.0 9.37094,45.73962,0.0 9.37063,45.73969,0.0 9.37034,45.73977,0.0 9.37003,45.73984,0.0 9.36974,45.73992,0.0 9.36969,45.73993,0.0 9.36938,45.74001,0.0 9.36909,45.74008,0.0 9.36886,45.74014,0.0 9.36832,45.74012,0.0 9.36801,45.74009,0.0 9.36768,45.74007,0.0 9.36752,45.74006,0.0 9.36688,45.74008,0.0 9.36652,45.74014,0.0 9.36616,45.74018,0.0 9.36585,45.74021,0.0 9.36571,45.74023,0.0 9.36549,45.74006,0.0 9.36528,45.73989,0.0 9.36507,45.73972,0.0 9.36489,45.73957,0.0 9.36473,45.73976,0.0 9.36472,45.73978,0.0 9.36466,45.73981,0.0 9.36439,45.73993,0.0 9.3642,45.74003,0.0 9.36387,45.74005,0.0 9.36356,45.74008,0.0 9.3633,45.73994,0.0 9.36304,45.7398,0.0 9.36279,45.73966,0.0 9.36268,45.7396,0.0 9.36259,45.73938,0.0 9.3625,45.73917,0.0 9.36241,45.73895,0.0 9.36232,45.73874,0.0 9.36229,45.73866,0.0 9.36258,45.73858,0.0 9.36267,45.73855,0.0 9.36296,45.73847,0.0 9.36327,45.73839,0.0 9.36357,45.73832,0.0 9.36376,45.73827,0.0 9.36406,45.73819,0.0 9.36436,45.73811,0.0 9.36465,45.73802,0.0 9.36472,45.738,0.0 9.36501,45.73792,0.0 9.36531,45.73784,0.0 9.36561,45.73775,0.0 9.3659,45.73767,0.0 9.3662,45.73758,0.0 9.3665,45.7375,0.0 9.36666,45.73746,0.0 9.36696,45.73738,0.0 9.36726,45.73731,0.0 9.3674,45.73728,0.0 9.3677,45.73723,0.0 9.36802,45.73719,0.0 9.36836,45.73717,0.0 9.36868,45.73716,0.0 9.36953,45.73717,0.0 9.36985,45.73718,0.0 9.36991,45.73719,0.0 9.37022,45.73718,0.0 9.3706,45.73719,0.0 9.37165,45.7372,0.0 9.37194,45.73721,0.0 9.3745,45.73723,0.0 9.37474,45.73725,0.0 9.37488,45.73723,0.0 9.37505,45.73721,0.0 9.37518,45.73719,0.0 9.37548,45.7371,0.0 9.37578,45.73702,0.0 9.37608,45.73694,0.0 9.37637,45.73686,0.0 9.37669,45.73678,0.0 9.37679,45.73676,0.0 9.37687,45.73667,0.0 9.37708,45.73649,0.0 9.37713,45.73652,0.0 9.37717,45.73658,0.0 9.37749,45.73655,0.0 9.37785,45.73647,0.0 9.37799,45.73643,0.0 9.37828,45.73633,0.0 9.37856,45.73625,0.0 9.37885,45.73617,0.0 9.37915,45.73608,0.0 9.3792,45.73607,0.0 9.37949,45.73598,0.0 9.37968,45.73592,0.0 9.3799,45.73586,0.0 9.38019,45.73576,0.0 9.38047,45.73566,0.0 9.38076,45.73556,0.0 9.38105,45.73547,0.0 9.38115,45.73544,0.0 9.38133,45.73537,0.0 9.38159,45.73524,0.0 9.38185,45.73512,0.0 9.38202,45.73504,0.0 9.38227,45.73491,0.0 9.38232,45.73489,0.0 9.38241,45.73486,0.0 9.3826,45.73478,0.0 9.38287,45.73467,0.0 9.38293,45.73465,0.0 9.38305,45.73459,0.0 9.38336,45.73453,0.0 9.3837,45.73447,0.0 9.38392,45.73444,0.0 9.38422,45.73438,0.0 9.38454,45.73433,0.0 9.38461,45.73432,0.0 9.38492,45.73426,0.0 9.38526,45.73417,0.0 9.38539,45.73414,0.0 9.38568,45.73404,0.0 9.38598,45.73396,0.0 9.38622,45.73379,0.0 9.38644,45.73364,0.0 9.38647,45.73362,0.0 9.38656,45.73354,0.0 9.3867,45.73333,0.0 9.38683,45.73313,0.0 9.38697,45.73293,0.0 9.38699,45.7329,0.0 9.38713,45.7327,0.0 9.38727,45.7325,0.0 9.38733,45.73242,0.0 9.38751,45.73224,0.0 9.38772,45.73207,0.0 9.38794,45.73191,0.0 9.38812,45.73178,0.0 9.3884,45.73168,0.0 9.38846,45.73166,0.0 9.38876,45.7316,0.0 9.38907,45.73153,0.0 9.38938,45.73146,0.0 9.38946,45.73145,0.0 9.38963,45.73142,0.0 9.38993,45.73136,0.0 9.3901,45.73133,0.0 9.39015,45.73132,0.0 9.39046,45.73126,0.0 9.39063,45.73124,0.0 9.39075,45.73115,0.0 9.39084,45.73124,0.0 9.39116,45.7312,0.0 9.39135,45.73118,0.0 9.39149,45.73115,0.0 9.3918,45.7311,0.0 9.39211,45.73106,0.0 9.39242,45.73101,0.0 9.39252,45.731,0.0 9.39283,45.73095,0.0 9.39314,45.7309,0.0 9.39331,45.73087,0.0 9.39366,45.73082,0.0 9.39404,45.73076,0.0 9.3943,45.73072,0.0 9.39461,45.73069,0.0 9.39477,45.73067,0.0 9.39508,45.73062,0.0 9.39539,45.73057,0.0 9.39571,45.73053,0.0 9.39602,45.73048,0.0 9.39634,45.73044,0.0 9.39651,45.73042,0.0 9.3968,45.73035,0.0 9.39689,45.73033,0.0 9.39718,45.73024,0.0 9.39748,45.73015,0.0 9.39759,45.73012,0.0 9.39785,45.72999,0.0 9.39812,45.72987,0.0 9.39839,45.72975,0.0 9.39866,45.72962,0.0 9.39893,45.72951,0.0 9.39897,45.72949,0.0 9.39922,45.72935,0.0 9.39948,45.72921,0.0 9.39953,45.72919,0.0 9.39975,45.72907,0.0 9.4,45.72893,0.0 9.40026,45.7288,0.0 9.40052,45.72866,0.0 9.40077,45.72853,0.0 9.40096,45.72843,0.0 9.4012,45.72828,0.0 9.40145,45.72814,0.0 9.40169,45.72799,0.0 9.40187,45.72789,0.0 9.40212,45.72775,0.0 9.40238,45.72762,0.0 9.40262,45.72746,0.0 9.40273,45.7274,0.0 9.40298,45.72726,0.0 9.40324,45.72713,0.0 9.40342,45.72704,0.0 9.40356,45.72695,0.0 9.40382,45.72682,0.0 9.40399,45.72674,0.0 9.40421,45.72662,0.0 9.40429,45.72656,0.0 9.40442,45.72647,0.0 9.40467,45.72633,0.0 9.40493,45.7262,0.0 9.40519,45.72606,0.0 9.40545,45.72593,0.0 9.40559,45.72583,0.0 9.40582,45.72598,0.0 9.40607,45.72613,0.0 9.40628,45.72626,0.0 9.4066,45.72628,0.0 9.40657,45.7265,0.0 9.40653,45.72672,0.0 9.4065,45.72695,0.0 9.40635,45.72733,0.0 9.40619,45.72752,0.0 9.40615,45.72758,0.0 9.40609,45.7278,0.0 9.40607,45.72789,0.0 9.40574,45.72785,0.0 9.40543,45.72783,0.0 9.40529,45.72789,0.0 9.40507,45.72805,0.0 9.4049,45.72819,0.0 9.40475,45.72816,0.0</coordinates>
                </LineString>
            </Placemark>
            <Folder>
                <name>Marks [Km]</name>
                <visibility>false</visibility>
                <open>false</open>
                <Placemark>
                    <name>1. Km</name>
                    <visibility>false</visibility>
                    <Point>
                        <coordinates>9.3631712,45.7651957,0</coordinates>
                    </Point>
                </Placemark>
                <Placemark>
                    <name>2. Km</name>
                    <visibility>false</visibility>
                    <Point>
                        <coordinates>9.3616469,45.7566072,0</coordinates>
                    </Point>
                </Placemark>
                <Placemark>
                    <name>3. Km</name>
                    <visibility>false</visibility>
                    <Point>
                        <coordinates>9.3607257,45.7506786,0</coordinates>
                    </Point>
                </Placemark>
                <Placemark>
                    <name>4. Km</name>
                    <visibility>false</visibility>
                    <Point>
                        <coordinates>9.3700131,45.7467259,0</coordinates>
                    </Point>
                </Placemark>
                <Placemark>
                    <name>5. Km</name>
                    <visibility>false</visibility>
                    <Point>
                        <coordinates>9.373903,45.7401586,0</coordinates>
                    </Point>
                </Placemark>
                <Placemark>
                    <name>6. Km</name>
                    <visibility>false</visibility>
                    <Point>
                        <coordinates>9.3628708,45.7397055,0</coordinates>
                    </Point>
                </Placemark>
                <Placemark>
                    <name>7. Km</name>
                    <visibility>false</visibility>
                    <Point>
                        <coordinates>9.3731122,45.7372191,0</coordinates>
                    </Point>
                </Placemark>
                <Placemark>
                    <name>8. Km</name>
                    <visibility>false</visibility>
                    <Point>
                        <coordinates>9.3848214,45.7342792,0</coordinates>
                    </Point>
                </Placemark>
                <Placemark>
                    <name>9. Km</name>
                    <visibility>false</visibility>
                    <Point>
                        <coordinates>9.3955479,45.7305503,0</coordinates>
                    </Point>
                </Placemark>
                <Placemark>
                    <name>10. Km</name>
                    <visibility>false</visibility>
                    <Point>
                        <coordinates>9.4060448,45.7261144,0</coordinates>
                    </Point>
                </Placemark>
            </Folder>
        </Folder>
        <Folder>
            <name>Track: ZZZD84ZZ022</name>
            <Placemark>
                <styleUrl>#trackStyle</styleUrl>
                <LineString>
                    <coordinates>9.38096,45.74118,0.0 9.38097,45.74115,0.0 9.38064,45.74117,0.0 9.38033,45.74119,0.0 9.38028,45.7412,0.0 9.38001,45.74132,0.0 9.37981,45.74141,0.0 9.37957,45.74157,0.0 9.37955,45.74159,0.0 9.37931,45.74175,0.0 9.37909,45.74191,0.0 9.37886,45.74207,0.0 9.37864,45.74223,0.0 9.3786,45.74226,0.0 9.37846,45.74246,0.0 9.37838,45.74259,0.0 9.37826,45.7428,0.0 9.37815,45.74301,0.0 9.37813,45.74308,0.0 9.37787,45.74321,0.0 9.37782,45.74325,0.0 9.37734,45.74333,0.0 9.37708,45.7434,0.0 9.37691,45.74343,0.0 9.37661,45.7435,0.0 9.3763,45.74358,0.0 9.376,45.74365,0.0 9.37591,45.74368,0.0 9.37579,45.74371,0.0 9.37546,45.74373,0.0 9.37514,45.74375,0.0 9.37488,45.74377,0.0 9.3746,45.74365,0.0 9.37437,45.74355,0.0 9.37431,45.74353,0.0 9.3741,45.74347,0.0 9.37382,45.74334,0.0 9.37376,45.74331,0.0 9.37371,45.74325,0.0 9.37386,45.74306,0.0 9.37402,45.74286,0.0 9.37406,45.74283,0.0 9.37411,45.74261,0.0 9.37416,45.74239,0.0 9.37419,45.74229,0.0 9.37415,45.74143,0.0 9.37412,45.74121,0.0 9.37409,45.74098,0.0 9.37406,45.74076,0.0 9.37402,45.74053,0.0 9.37392,45.7402,0.0 9.37383,45.73998,0.0 9.3738,45.73991,0.0 9.37361,45.73972,0.0 9.37358,45.73969,0.0 9.37354,45.73951,0.0 9.37337,45.73948,0.0 9.37332,45.73945,0.0 9.373,45.73941,0.0 9.37268,45.73938,0.0 9.37237,45.73934,0.0 9.3722,45.73933,0.0 9.37164,45.73942,0.0 9.37134,45.7395,0.0 9.37125,45.73954,0.0 9.37094,45.73962,0.0 9.37063,45.73969,0.0 9.37034,45.73977,0.0 9.37003,45.73984,0.0 9.36974,45.73992,0.0 9.36969,45.73993,0.0 9.36938,45.74001,0.0 9.36909,45.74008,0.0 9.36886,45.74014,0.0 9.36832,45.74012,0.0 9.36801,45.74009,0.0 9.36768,45.74007,0.0 9.36752,45.74006,0.0 9.36688,45.74008,0.0 9.36652,45.74014,0.0 9.36616,45.74018,0.0 9.36585,45.74021,0.0 9.36571,45.74023,0.0 9.36549,45.74006,0.0 9.36528,45.73989,0.0 9.36507,45.73972,0.0 9.36489,45.73957,0.0 9.36473,45.73976,0.0 9.36472,45.73978,0.0 9.36466,45.73981,0.0 9.36439,45.73993,0.0 9.3642,45.74003,0.0 9.36387,45.74005,0.0 9.36356,45.74008,0.0 9.3633,45.73994,0.0 9.36304,45.7398,0.0 9.36279,45.73966,0.0 9.36268,45.7396,0.0 9.36259,45.73938,0.0 9.3625,45.73917,0.0 9.36241,45.73895,0.0 9.36232,45.73874,0.0 9.36229,45.73866,0.0 9.36258,45.73858,0.0 9.36267,45.73855,0.0 9.36296,45.73847,0.0 9.36327,45.73839,0.0 9.36357,45.73832,0.0 9.36376,45.73827,0.0 9.36406,45.73819,0.0 9.36436,45.73811,0.0 9.36465,45.73802,0.0 9.36472,45.738,0.0 9.36501,45.73792,0.0 9.36531,45.73784,0.0 9.36561,45.73775,0.0 9.3659,45.73767,0.0 9.3662,45.73758,0.0 9.3665,45.7375,0.0 9.36666,45.73746,0.0 9.36696,45.73738,0.0 9.36726,45.73731,0.0 9.3674,45.73728,0.0 9.3677,45.73723,0.0 9.36802,45.73719,0.0 9.36836,45.73717,0.0 9.36868,45.73716,0.0 9.36953,45.73717,0.0 9.36985,45.73718,0.0 9.36991,45.73719,0.0 9.37022,45.73718,0.0 9.3706,45.73719,0.0 9.37165,45.7372,0.0 9.37194,45.73721,0.0 9.3745,45.73723,0.0 9.37474,45.73725,0.0 9.37488,45.73723,0.0 9.37505,45.73721,0.0 9.37518,45.73719,0.0 9.37548,45.7371,0.0 9.37578,45.73702,0.0 9.37608,45.73694,0.0 9.37637,45.73686,0.0 9.37669,45.73678,0.0 9.37679,45.73676,0.0 9.37687,45.73667,0.0 9.37708,45.73649,0.0 9.37713,45.73652,0.0 9.37717,45.73658,0.0 9.37749,45.73655,0.0 9.37785,45.73647,0.0 9.37799,45.73643,0.0 9.37828,45.73633,0.0 9.37856,45.73625,0.0 9.37885,45.73617,0.0 9.37915,45.73608,0.0 9.3792,45.73607,0.0 9.37949,45.73598,0.0 9.37968,45.73592,0.0 9.3799,45.73586,0.0 9.38019,45.73576,0.0 9.38047,45.73566,0.0 9.38076,45.73556,0.0 9.38105,45.73547,0.0 9.38115,45.73544,0.0 9.38133,45.73537,0.0 9.38159,45.73524,0.0 9.38185,45.73512,0.0 9.38202,45.73504,0.0 9.38227,45.73491,0.0 9.38232,45.73489,0.0 9.38241,45.73486,0.0 9.3826,45.73478,0.0 9.38287,45.73467,0.0 9.38293,45.73465,0.0 9.38305,45.73459,0.0 9.38336,45.73453,0.0 9.3837,45.73447,0.0 9.38392,45.73444,0.0 9.38422,45.73438,0.0 9.38454,45.73433,0.0 9.38461,45.73432,0.0 9.38492,45.73426,0.0 9.38526,45.73417,0.0 9.38539,45.73414,0.0 9.38568,45.73404,0.0 9.38598,45.73396,0.0 9.38622,45.73379,0.0 9.38644,45.73364,0.0 9.38647,45.73362,0.0 9.38656,45.73354,0.0 9.3867,45.73333,0.0 9.38683,45.73313,0.0 9.38697,45.73293,0.0 9.38699,45.7329,0.0 9.38713,45.7327,0.0 9.38727,45.7325,0.0 9.38733,45.73242,0.0 9.38751,45.73224,0.0 9.38772,45.73207,0.0 9.38794,45.73191,0.0 9.38812,45.73178,0.0 9.3884,45.73168,0.0 9.38846,45.73166,0.0 9.38876,45.7316,0.0 9.38907,45.73153,0.0 9.38938,45.73146,0.0 9.38946,45.73145,0.0 9.38963,45.73142,0.0 9.38993,45.73136,0.0 9.3901,45.73133,0.0 9.39015,45.73132,0.0 9.39046,45.73126,0.0 9.39063,45.73124,0.0 9.39075,45.73115,0.0 9.39084,45.73124,0.0 9.39116,45.7312,0.0 9.39135,45.73118,0.0 9.39149,45.73115,0.0 9.3918,45.7311,0.0 9.39211,45.73106,0.0 9.39242,45.73101,0.0 9.39252,45.731,0.0 9.39283,45.73095,0.0 9.39314,45.7309,0.0 9.39331,45.73087,0.0 9.39366,45.73082,0.0 9.39404,45.73076,0.0 9.3943,45.73072,0.0 9.39461,45.73069,0.0 9.39477,45.73067,0.0 9.39508,45.73062,0.0 9.39539,45.73057,0.0 9.39571,45.73053,0.0 9.39602,45.73048,0.0 9.39634,45.73044,0.0 9.39651,45.73042,0.0 9.3968,45.73035,0.0 9.39689,45.73033,0.0 9.39718,45.73024,0.0 9.39748,45.73015,0.0 9.39759,45.73012,0.0 9.39785,45.72999,0.0 9.39812,45.72987,0.0 9.39839,45.72975,0.0 9.39866,45.72962,0.0 9.39893,45.72951,0.0 9.39897,45.72949,0.0 9.39922,45.72935,0.0 9.39948,45.72921,0.0 9.39953,45.72919,0.0 9.39975,45.72907,0.0 9.4,45.72893,0.0 9.40026,45.7288,0.0 9.40052,45.72866,0.0 9.40077,45.72853,0.0 9.40096,45.72843,0.0 9.4012,45.72828,0.0 9.40145,45.72814,0.0 9.40169,45.72799,0.0 9.40187,45.72789,0.0 9.40212,45.72775,0.0 9.40238,45.72762,0.0 9.40262,45.72746,0.0 9.40273,45.7274,0.0 9.40298,45.72726,0.0 9.40324,45.72713,0.0 9.40342,45.72704,0.0 9.40356,45.72695,0.0 9.40382,45.72682,0.0 9.40399,45.72674,0.0 9.40421,45.72662,0.0 9.40429,45.72656,0.0 9.40442,45.72647,0.0 9.40467,45.72633,0.0 9.40493,45.7262,0.0 9.40519,45.72606,0.0 9.40545,45.72593,0.0 9.40559,45.72583,0.0 9.40582,45.72598,0.0 9.40607,45.72613,0.0 9.40628,45.72626,0.0 9.4066,45.72628,0.0 9.40657,45.7265,0.0 9.40653,45.72672,0.0 9.4065,45.72689,0.0 9.40635,45.72733,0.0 9.40619,45.72752,0.0 9.40615,45.72758,0.0 9.40609,45.7278,0.0 9.40607,45.72789,0.0 9.40574,45.72785,0.0 9.40543,45.72783,0.0 9.40529,45.72789,0.0 9.40507,45.72805,0.0 9.4049,45.72819,0.0 9.40475,45.72816,0.0</coordinates>
                </LineString>
            </Placemark>
            <Folder>
                <name>Marks [Km]</name>
                <visibility>false</visibility>
                <open>false</open>
                <Placemark>
                    <name>1. Km</name>
                    <visibility>false</visibility>
                    <Point>
                        <coordinates>9.374053,45.7407198,0</coordinates>
                    </Point>
                </Placemark>
                <Placemark>
                    <name>2. Km</name>
                    <visibility>false</visibility>
                    <Point>
                        <coordinates>9.3635155,45.7400561,0</coordinates>
                    </Point>
                </Placemark>
                <Placemark>
                    <name>3. Km</name>
                    <visibility>false</visibility>
                    <Point>
                        <coordinates>9.3722946,45.7372128,0</coordinates>
                    </Point>
                </Placemark>
                <Placemark>
                    <name>4. Km</name>
                    <visibility>false</visibility>
                    <Point>
                        <coordinates>9.3840299,45.7344181,0</coordinates>
                    </Point>
                </Placemark>
                <Placemark>
                    <name>5. Km</name>
                    <visibility>false</visibility>
                    <Point>
                        <coordinates>9.3947507,45.7306725,0</coordinates>
                    </Point>
                </Placemark>
                <Placemark>
                    <name>6. Km</name>
                    <visibility>false</visibility>
                    <Point>
                        <coordinates>9.4054453,45.7259328,0</coordinates>
                    </Point>
                </Placemark>
            </Folder>
        </Folder>
        <Folder>
            <name>Track: ZZZD84ZZZ31</name>
            <Placemark>
                <styleUrl>#trackStyle</styleUrl>
                <LineString>
                    <coordinates>9.40462,45.72814,0.0 9.4049,45.72819,0.0 9.40511,45.72802,0.0 9.40529,45.72789,0.0 9.40538,45.72783,0.0 9.40569,45.72785,0.0 9.406,45.72788,0.0 9.40607,45.72789,0.0 9.40612,45.72766,0.0 9.40615,45.72758,0.0 9.40629,45.72738,0.0 9.40645,45.72719,0.0 9.4065,45.72713,0.0 9.40654,45.72672,0.0 9.40655,45.72662,0.0 9.4066,45.72639,0.0 9.40663,45.72628,0.0 9.4063,45.72626,0.0 9.40604,45.72611,0.0 9.4058,45.72596,0.0 9.40559,45.72583,0.0 9.40534,45.72597,0.0 9.40509,45.72611,0.0 9.40484,45.72625,0.0 9.40458,45.72639,0.0 9.40433,45.72653,0.0 9.40429,45.72656,0.0 9.40421,45.72662,0.0 9.40395,45.72675,0.0 9.40368,45.72688,0.0 9.40356,45.72695,0.0 9.40342,45.72704,0.0 9.40325,45.72713,0.0 9.403,45.72727,0.0 9.40275,45.72741,0.0 9.4025,45.72755,0.0 9.40239,45.72762,0.0 9.40213,45.72775,0.0 9.40187,45.72788,0.0 9.40162,45.72803,0.0 9.40137,45.72817,0.0 9.40113,45.72832,0.0 9.40096,45.72843,0.0 9.4007,45.72856,0.0 9.40045,45.7287,0.0 9.40027,45.7288,0.0 9.40001,45.72893,0.0 9.39975,45.72906,0.0 9.39953,45.72919,0.0 9.39927,45.72932,0.0 9.39902,45.72946,0.0 9.39897,45.72949,0.0 9.3987,45.72961,0.0 9.39843,45.72973,0.0 9.39816,45.72985,0.0 9.39789,45.72998,0.0 9.39762,45.7301,0.0 9.39759,45.73012,0.0 9.39729,45.73021,0.0 9.39699,45.7303,0.0 9.39689,45.73033,0.0 9.39659,45.7304,0.0 9.39651,45.73042,0.0 9.39619,45.73047,0.0 9.39588,45.73051,0.0 9.39556,45.73056,0.0 9.39525,45.7306,0.0 9.39493,45.73065,0.0 9.39462,45.7307,0.0 9.3943,45.73074,0.0 9.39404,45.73079,0.0 9.39372,45.73082,0.0 9.39341,45.73085,0.0 9.39331,45.73087,0.0 9.39299,45.73092,0.0 9.39268,45.73097,0.0 9.39252,45.731,0.0 9.39221,45.73104,0.0 9.39189,45.73109,0.0 9.39158,45.73113,0.0 9.39149,45.73115,0.0 9.39117,45.73119,0.0 9.39086,45.73123,0.0 9.39084,45.73124,0.0 9.39071,45.73133,0.0 9.39079,45.73155,0.0 9.39087,45.73176,0.0 9.39092,45.7319,0.0 9.3909,45.73212,0.0 9.39088,45.73235,0.0 9.39074,45.73265,0.0 9.39071,45.73272,0.0 9.39046,45.73286,0.0 9.3902,45.733,0.0 9.39001,45.73311,0.0 9.38975,45.7332,0.0 9.38946,45.73329,0.0 9.38929,45.73335,0.0 9.38902,45.73348,0.0 9.38876,45.73361,0.0 9.38867,45.73365,0.0 9.38853,45.73385,0.0 9.38846,45.73396,0.0 9.38841,45.73402,0.0 9.38838,45.73424,0.0 9.38834,45.73446,0.0 9.38831,45.73468,0.0 9.38829,45.73483,0.0 9.38834,45.73523,0.0 9.3884,45.73545,0.0 9.38846,45.73567,0.0 9.3885,45.73583,0.0 9.38855,45.73589,0.0 9.3886,45.73611,0.0 9.38867,45.73633,0.0 9.38872,45.73655,0.0 9.38878,45.73677,0.0 9.38881,45.73686,0.0 9.38885,45.73698,0.0 9.38878,45.73719,0.0 9.38873,45.73741,0.0 9.38872,45.73746,0.0 9.38858,45.73766,0.0 9.3885,45.73779,0.0 9.38829,45.73795,0.0 9.3882,45.73803,0.0 9.38793,45.73816,0.0 9.38769,45.73827,0.0 9.38742,45.7384,0.0 9.38715,45.73853,0.0 9.38689,45.73865,0.0 9.38669,45.73876,0.0 9.38652,45.73881,0.0 9.38623,45.73892,0.0 9.38595,45.73903,0.0 9.38567,45.73913,0.0 9.38538,45.73924,0.0 9.3851,45.73935,0.0 9.38492,45.73942,0.0 9.38463,45.73952,0.0 9.38434,45.73963,0.0 9.38427,45.73966,0.0 9.38399,45.73977,0.0 9.38372,45.73989,0.0 9.38345,45.74001,0.0 9.38317,45.74013,0.0 9.38301,45.74021,0.0 9.38279,45.74033,0.0 9.38267,45.74038,0.0 9.38241,45.74052,0.0 9.38232,45.74057,0.0 9.38206,45.7407,0.0 9.38179,45.74083,0.0 9.38154,45.74096,0.0 9.38126,45.74107,0.0 9.38111,45.74114,0.0 9.38097,45.74115,0.0 9.38064,45.74117,0.0 9.38033,45.74119,0.0 9.38028,45.7412,0.0 9.38001,45.74132,0.0 9.37981,45.74141,0.0 9.37957,45.74157,0.0 9.37955,45.74159,0.0 9.37931,45.74175,0.0 9.37909,45.74191,0.0 9.37886,45.74207,0.0 9.37864,45.74223,0.0 9.3786,45.74226,0.0 9.37846,45.74246,0.0 9.37838,45.74259,0.0 9.37828,45.74277,0.0 9.37817,45.74298,0.0 9.37813,45.74308,0.0 9.37787,45.74321,0.0 9.37782,45.74325,0.0 9.37734,45.74333,0.0 9.37708,45.7434,0.0 9.37691,45.74343,0.0 9.37661,45.7435,0.0 9.3763,45.74358,0.0 9.376,45.74365,0.0 9.37591,45.74368,0.0 9.37579,45.74371,0.0 9.37546,45.74373,0.0 9.37514,45.74375,0.0 9.37488,45.74377,0.0 9.37462,45.7439,0.0 9.3744,45.74401,0.0 9.37412,45.74412,0.0 9.37397,45.74419,0.0 9.37377,45.74426,0.0 9.37371,45.74428,0.0 9.37343,45.7444,0.0 9.37323,45.74449,0.0 9.37319,45.74452,0.0 9.37293,45.74465,0.0 9.37285,45.7447,0.0 9.37263,45.74487,0.0 9.37259,45.74491,0.0 9.37238,45.74508,0.0 9.37224,45.74522,0.0 9.37198,45.74535,0.0 9.37189,45.7454,0.0 9.3718,45.74545,0.0 9.37168,45.74549,0.0 9.37134,45.74552,0.0 9.37099,45.74559,0.0 9.37068,45.74566,0.0 9.37042,45.7458,0.0 9.37017,45.74593,0.0 9.37012,45.74597,0.0 9.37009,45.74619,0.0 9.37006,45.74641,0.0 9.37002,45.74663,0.0 9.37,45.74685,0.0 9.36996,45.74708,0.0 9.36993,45.7473,0.0 9.36991,45.74753,0.0 9.36971,45.74771,0.0 9.3696,45.74781,0.0 9.36939,45.74798,0.0 9.36921,45.74815,0.0 9.36899,45.74831,0.0 9.36878,45.74847,0.0 9.36846,45.74851,0.0 9.36814,45.74855,0.0 9.36783,45.74859,0.0 9.36778,45.7486,0.0 9.36768,45.74862,0.0 9.36752,45.74866,0.0 9.36722,45.74874,0.0 9.36718,45.74875,0.0 9.36688,45.74882,0.0 9.36657,45.7489,0.0 9.36627,45.74898,0.0 9.36597,45.74905,0.0 9.36567,45.74913,0.0 9.36563,45.74914,0.0 9.36536,45.74926,0.0 9.36509,45.74938,0.0 9.36482,45.7495,0.0 9.36463,45.74959,0.0 9.36455,45.7498,0.0 9.36448,45.75002,0.0 9.36446,45.75014,0.0 9.36414,45.75019,0.0 9.36402,45.75022,0.0 9.36376,45.7502,0.0 9.36349,45.75007,0.0 9.36324,45.74995,0.0 9.36299,45.74981,0.0 9.36277,45.74968,0.0 9.36245,45.74963,0.0 9.36233,45.74962,0.0 9.36211,45.74978,0.0 9.36189,45.74995,0.0 9.36168,45.75011,0.0 9.36146,45.75028,0.0 9.36138,45.75035,0.0 9.36134,45.75041,0.0 9.36121,45.7505,0.0 9.36092,45.75061,0.0 9.36064,45.75071,0.0 9.36036,45.75082,0.0 9.36035,45.75083,0.0 9.36021,45.75089,0.0 9.36026,45.75101,0.0 9.36035,45.75098,0.0 9.36063,45.75089,0.0 9.36093,45.7508,0.0 9.36122,45.75071,0.0 9.36143,45.75065,0.0 9.3617,45.75055,0.0 9.36186,45.7505,0.0 9.36216,45.75044,0.0 9.36248,45.75039,0.0 9.36255,45.75037,0.0 9.36281,45.75047,0.0 9.36301,45.75064,0.0 9.36303,45.75065,0.0 9.36295,45.75122,0.0 9.36294,45.75125,0.0 9.36312,45.75144,0.0 9.36324,45.75155,0.0 9.36316,45.75219,0.0 9.36307,45.7524,0.0 9.36303,45.75262,0.0 9.36298,45.75284,0.0 9.36295,45.75307,0.0 9.36294,45.75312,0.0 9.36296,45.75334,0.0 9.36299,45.75357,0.0 9.36302,45.75379,0.0 9.36303,45.75385,0.0 9.36294,45.75406,0.0 9.36285,45.75428,0.0 9.36276,45.75449,0.0 9.36272,45.7546,0.0 9.36266,45.75482,0.0 9.36264,45.75491,0.0 9.36241,45.75561,0.0 9.3622,45.75577,0.0 9.36207,45.75587,0.0 9.36199,45.75608,0.0 9.36191,45.7563,0.0 9.36186,45.75647,0.0 9.36161,45.75662,0.0 9.36138,45.75678,0.0 9.3613,45.75684,0.0 9.36131,45.75709,0.0 9.36133,45.75731,0.0 9.36134,45.75747,0.0 9.36141,45.75768,0.0 9.36147,45.7579,0.0 9.36153,45.75812,0.0 9.3616,45.75831,0.0 9.36166,45.75853,0.0 9.36169,45.75861,0.0 9.36177,45.75883,0.0 9.36185,45.75904,0.0 9.3619,45.75916,0.0 9.36186,45.75928,0.0 9.36199,45.75937,0.0 9.36195,45.75946,0.0 9.36179,45.75959,0.0 9.3617,45.75981,0.0 9.36169,45.75986,0.0 9.36162,45.76008,0.0 9.36157,45.7603,0.0 9.36151,45.76051,0.0 9.36145,45.76073,0.0 9.36143,45.76085,0.0 9.36152,45.76105,0.0 9.36161,45.76127,0.0 9.36171,45.76148,0.0 9.36181,45.76169,0.0 9.3619,45.76191,0.0 9.362,45.76212,0.0 9.3621,45.76233,0.0 9.3622,45.76255,0.0 9.36221,45.76257,0.0 9.3623,45.76279,0.0 9.36239,45.763,0.0 9.36242,45.76308,0.0 9.36248,45.76323,0.0 9.36258,45.76343,0.0 9.36264,45.76356,0.0 9.36275,45.76377,0.0 9.36286,45.76398,0.0 9.36296,45.76419,0.0 9.36303,45.76432,0.0 9.36307,45.76441,0.0 9.3631,45.76463,0.0 9.36312,45.76474,0.0 9.36314,45.76496,0.0 9.36317,45.76519,0.0 9.3632,45.76541,0.0 9.36322,45.76563,0.0 9.36324,45.76571,0.0 9.36344,45.76588,0.0 9.36365,45.76605,0.0 9.36385,45.76622,0.0 9.36406,45.76639,0.0 9.36427,45.76656,0.0 9.36441,45.76668,0.0 9.36461,45.76684,0.0 9.36482,45.76701,0.0 9.36502,45.76719,0.0 9.36522,45.76736,0.0 9.36541,45.76752,0.0 9.36561,45.76769,0.0 9.36581,45.76786,0.0 9.36601,45.76803,0.0 9.36622,45.76821,0.0 9.36642,45.76838,0.0 9.36662,45.76855,0.0 9.36683,45.76873,0.0 9.36703,45.7689,0.0 9.36723,45.76907,0.0 9.3674,45.76921,0.0 9.36759,45.76939,0.0 9.36777,45.76957,0.0 9.36797,45.76974,0.0 9.36804,45.76981,0.0 9.36824,45.76998,0.0 9.36835,45.77008,0.0 9.36803,45.77012,0.0 9.36771,45.77016,0.0 9.36755,45.77018,0.0 9.36758,45.77023,0.0</coordinates>
                </LineString>
            </Placemark>
            <Folder>
                <name>Marks [Km]</name>
                <visibility>false</visibility>
                <open>false</open>
                <Placemark>
                    <name>1. Km</name>
                    <visibility>false</visibility>
                    <Point>
                        <coordinates>9.3997236,45.7290756,0</coordinates>
                    </Point>
                </Placemark>
                <Placemark>
                    <name>2. Km</name>
                    <visibility>false</visibility>
                    <Point>
                        <coordinates>9.3898619,45.7331611,0</coordinates>
                    </Point>
                </Placemark>
                <Placemark>
                    <name>3. Km</name>
                    <visibility>false</visibility>
                    <Point>
                        <coordinates>9.3839837,45.7397728,0</coordinates>
                    </Point>
                </Placemark>
                <Placemark>
                    <name>4. Km</name>
                    <visibility>false</visibility>
                    <Point>
                        <coordinates>9.3735631,45.7443428,0</coordinates>
                    </Point>
                </Placemark>
                <Placemark>
                    <name>5. Km</name>
                    <visibility>false</visibility>
                    <Point>
                        <coordinates>9.3646061,45.7496525,0</coordinates>
                    </Point>
                </Placemark>
                <Placemark>
                    <name>6. Km</name>
                    <visibility>false</visibility>
                    <Point>
                        <coordinates>9.3629459,45.7530906,0</coordinates>
                    </Point>
                </Placemark>
                <Placemark>
                    <name>7. Km</name>
                    <visibility>false</visibility>
                    <Point>
                        <coordinates>9.3617465,45.7615564,0</coordinates>
                    </Point>
                </Placemark>
                <Placemark>
                    <name>8. Km</name>
                    <visibility>false</visibility>
                    <Point>
                        <coordinates>9.3675164,45.7693199,0</coordinates>
                    </Point>
                </Placemark>
            </Folder>
        </Folder>
        <Folder>
            <name>Track: ZZZD84ZZZ41</name>
            <Placemark>
                <styleUrl>#trackStyle</styleUrl>
                <LineString>
                    <coordinates>9.40462,45.72814,0.0 9.4049,45.72819,0.0 9.40511,45.72802,0.0 9.40529,45.72789,0.0 9.40538,45.72783,0.0 9.40569,45.72785,0.0 9.406,45.72788,0.0 9.40607,45.72789,0.0 9.40612,45.72766,0.0 9.40615,45.72758,0.0 9.40629,45.72738,0.0 9.40645,45.72719,0.0 9.4065,45.72713,0.0 9.40654,45.72672,0.0 9.40657,45.72652,0.0 9.40662,45.7263,0.0 9.40663,45.72628,0.0 9.4063,45.72626,0.0 9.40604,45.72611,0.0 9.4058,45.72596,0.0 9.40559,45.72583,0.0 9.40534,45.72597,0.0 9.40509,45.72611,0.0 9.40484,45.72625,0.0 9.40458,45.72639,0.0 9.40433,45.72653,0.0 9.40429,45.72656,0.0 9.40421,45.72662,0.0 9.40395,45.72675,0.0 9.40368,45.72688,0.0 9.40356,45.72695,0.0 9.40342,45.72704,0.0 9.40325,45.72713,0.0 9.403,45.72727,0.0 9.40275,45.72741,0.0 9.4025,45.72755,0.0 9.40239,45.72762,0.0 9.40213,45.72775,0.0 9.40187,45.72788,0.0 9.40162,45.72803,0.0 9.40137,45.72817,0.0 9.40113,45.72832,0.0 9.40096,45.72843,0.0 9.4007,45.72856,0.0 9.40045,45.7287,0.0 9.40027,45.7288,0.0 9.40001,45.72893,0.0 9.39975,45.72906,0.0 9.39953,45.72919,0.0 9.39927,45.72932,0.0 9.39902,45.72946,0.0 9.39897,45.72949,0.0 9.3987,45.72961,0.0 9.39843,45.72973,0.0 9.39816,45.72985,0.0 9.39789,45.72998,0.0 9.39762,45.7301,0.0 9.39759,45.73012,0.0 9.39729,45.73021,0.0 9.39699,45.7303,0.0 9.39689,45.73033,0.0 9.39659,45.7304,0.0 9.39651,45.73042,0.0 9.39619,45.73047,0.0 9.39588,45.73051,0.0 9.39556,45.73056,0.0 9.39525,45.7306,0.0 9.39493,45.73065,0.0 9.39462,45.7307,0.0 9.3943,45.73074,0.0 9.39404,45.73079,0.0 9.39372,45.73082,0.0 9.39341,45.73085,0.0 9.39331,45.73087,0.0 9.39299,45.73092,0.0 9.39268,45.73097,0.0 9.39252,45.731,0.0 9.39221,45.73104,0.0 9.39189,45.73109,0.0 9.39158,45.73113,0.0 9.39149,45.73115,0.0 9.39117,45.73119,0.0 9.39086,45.73123,0.0 9.39084,45.73124,0.0 9.39071,45.73133,0.0 9.39079,45.73155,0.0 9.39087,45.73176,0.0 9.39092,45.7319,0.0 9.3909,45.73212,0.0 9.39088,45.73235,0.0 9.39074,45.73265,0.0 9.39071,45.73272,0.0 9.39046,45.73286,0.0 9.3902,45.733,0.0 9.39001,45.73311,0.0 9.38975,45.7332,0.0 9.38946,45.73329,0.0 9.38929,45.73335,0.0 9.38902,45.73348,0.0 9.38876,45.73361,0.0 9.38867,45.73365,0.0 9.38853,45.73385,0.0 9.38846,45.73396,0.0 9.38841,45.73402,0.0 9.38838,45.73424,0.0 9.38834,45.73446,0.0 9.38831,45.73468,0.0 9.38829,45.73483,0.0 9.38834,45.73523,0.0 9.3884,45.73545,0.0 9.38846,45.73567,0.0 9.3885,45.73583,0.0 9.38855,45.73589,0.0 9.3886,45.73611,0.0 9.38867,45.73633,0.0 9.38872,45.73655,0.0 9.38878,45.73677,0.0 9.38881,45.73686,0.0 9.38885,45.73698,0.0 9.38878,45.73719,0.0 9.38873,45.73741,0.0 9.38872,45.73746,0.0 9.38858,45.73766,0.0 9.3885,45.73779,0.0 9.38829,45.73795,0.0 9.3882,45.73803,0.0 9.38793,45.73816,0.0 9.38769,45.73827,0.0 9.38742,45.7384,0.0 9.38715,45.73853,0.0 9.38689,45.73865,0.0 9.38669,45.73876,0.0 9.38652,45.73881,0.0 9.38623,45.73892,0.0 9.38595,45.73903,0.0 9.38567,45.73913,0.0 9.38538,45.73924,0.0 9.3851,45.73935,0.0 9.38492,45.73942,0.0 9.38463,45.73952,0.0 9.38434,45.73963,0.0 9.38427,45.73966,0.0 9.38399,45.73977,0.0 9.38372,45.73989,0.0 9.38345,45.74001,0.0 9.38317,45.74013,0.0 9.38301,45.74021,0.0 9.38279,45.74033,0.0 9.38267,45.74038,0.0 9.38241,45.74052,0.0 9.38232,45.74057,0.0 9.38206,45.7407,0.0 9.38179,45.74083,0.0 9.38154,45.74096,0.0 9.38126,45.74107,0.0 9.38111,45.74114,0.0 9.38097,45.74115,0.0</coordinates>
                </LineString>
            </Placemark>
            <Folder>
                <name>Marks [Km]</name>
                <visibility>false</visibility>
                <open>false</open>
                <Placemark>
                    <name>1. Km</name>
                    <visibility>false</visibility>
                    <Point>
                        <coordinates>9.3997238,45.7290754,0</coordinates>
                    </Point>
                </Placemark>
                <Placemark>
                    <name>2. Km</name>
                    <visibility>false</visibility>
                    <Point>
                        <coordinates>9.3898621,45.733161,0</coordinates>
                    </Point>
                </Placemark>
                <Placemark>
                    <name>3. Km</name>
                    <visibility>false</visibility>
                    <Point>
                        <coordinates>9.3839839,45.7397727,0</coordinates>
                    </Point>
                </Placemark>
            </Folder>
        </Folder>
        <Folder>
            <name>Track: ZZZD84ZZZ71</name>
            <Placemark>
                <styleUrl>#trackStyle</styleUrl>
                <LineString>
                    <coordinates>9.40462,45.72814,0.0 9.4049,45.72819,0.0 9.40511,45.72802,0.0 9.40529,45.72789,0.0 9.40538,45.72783,0.0 9.40569,45.72785,0.0 9.406,45.72788,0.0 9.40607,45.72789,0.0 9.40612,45.72766,0.0 9.40615,45.72758,0.0 9.40629,45.72738,0.0 9.40645,45.72719,0.0 9.4065,45.72713,0.0 9.40654,45.72672,0.0 9.40658,45.7265,0.0 9.40663,45.72628,0.0 9.4065,45.72627,0.0 9.40628,45.72626,0.0 9.40604,45.72611,0.0 9.4058,45.72596,0.0 9.40559,45.72583,0.0 9.40534,45.72597,0.0 9.40509,45.72611,0.0 9.40484,45.72625,0.0 9.40458,45.72639,0.0 9.40433,45.72653,0.0 9.40429,45.72656,0.0 9.40421,45.72662,0.0 9.40395,45.72675,0.0 9.40368,45.72688,0.0 9.40356,45.72695,0.0 9.40342,45.72704,0.0 9.40325,45.72713,0.0 9.403,45.72727,0.0 9.40275,45.72741,0.0 9.4025,45.72755,0.0 9.40239,45.72762,0.0 9.40213,45.72775,0.0 9.40187,45.72788,0.0 9.40162,45.72803,0.0 9.40137,45.72817,0.0 9.40113,45.72832,0.0 9.40096,45.72843,0.0 9.4007,45.72856,0.0 9.40045,45.7287,0.0 9.40027,45.7288,0.0 9.40001,45.72893,0.0 9.39975,45.72906,0.0 9.39953,45.72919,0.0 9.39927,45.72932,0.0 9.39902,45.72946,0.0 9.39897,45.72949,0.0 9.3987,45.72961,0.0 9.39843,45.72973,0.0 9.39816,45.72985,0.0 9.39789,45.72998,0.0 9.39762,45.7301,0.0 9.39759,45.73012,0.0 9.39729,45.73021,0.0 9.39699,45.7303,0.0 9.39689,45.73033,0.0 9.39659,45.7304,0.0 9.39651,45.73042,0.0 9.39619,45.73047,0.0 9.39588,45.73051,0.0 9.39556,45.73056,0.0 9.39525,45.7306,0.0 9.39493,45.73065,0.0 9.39462,45.7307,0.0 9.3943,45.73074,0.0 9.39404,45.73079,0.0 9.39372,45.73082,0.0 9.39341,45.73085,0.0 9.39331,45.73087,0.0 9.39299,45.73092,0.0 9.39268,45.73097,0.0 9.39252,45.731,0.0 9.39221,45.73104,0.0 9.39189,45.73109,0.0 9.39158,45.73113,0.0 9.39149,45.73115,0.0 9.39117,45.73119,0.0 9.39086,45.73123,0.0 9.39084,45.73124,0.0 9.39071,45.73133,0.0 9.39063,45.73124,0.0 9.39031,45.73129,0.0 9.39027,45.7313,0.0 9.3901,45.73133,0.0 9.38979,45.73139,0.0 9.38963,45.73142,0.0 9.38946,45.73145,0.0 9.38914,45.73151,0.0 9.38884,45.73158,0.0 9.38853,45.73165,0.0 9.38846,45.73166,0.0 9.38817,45.73176,0.0 9.38812,45.73178,0.0 9.38789,45.73194,0.0 9.38768,45.7321,0.0 9.38751,45.73224,0.0 9.38733,45.73242,0.0 9.38719,45.73261,0.0 9.38705,45.73281,0.0 9.38699,45.7329,0.0 9.38685,45.7331,0.0 9.38671,45.7333,0.0 9.38658,45.7335,0.0 9.38656,45.73354,0.0 9.38647,45.73362,0.0 9.38624,45.73378,0.0 9.38601,45.73394,0.0 9.38599,45.73396,0.0 9.3857,45.73404,0.0 9.3854,45.73413,0.0 9.38539,45.73414,0.0 9.38509,45.73422,0.0 9.38496,45.73426,0.0 9.38465,45.73431,0.0 9.38461,45.73432,0.0 9.3843,45.73437,0.0 9.38398,45.73443,0.0 9.38392,45.73444,0.0 9.3836,45.73449,0.0 9.3834,45.73453,0.0 9.38308,45.73458,0.0 9.38305,45.73459,0.0 9.38293,45.73465,0.0 9.38265,45.73476,0.0 9.38241,45.73486,0.0 9.38232,45.73489,0.0 9.38215,45.73497,0.0 9.38202,45.73504,0.0 9.38175,45.73517,0.0 9.38149,45.73529,0.0 9.38133,45.73537,0.0 9.38115,45.73544,0.0 9.38085,45.73553,0.0 9.38056,45.73563,0.0 9.38028,45.73573,0.0 9.37999,45.73582,0.0 9.3799,45.73586,0.0 9.37968,45.73592,0.0 9.37938,45.73601,0.0 9.3792,45.73607,0.0 9.3789,45.73615,0.0 9.3786,45.73623,0.0 9.37856,45.73625,0.0 9.37826,45.73634,0.0 9.37799,45.73643,0.0 9.37769,45.73651,0.0 9.37756,45.73655,0.0 9.37724,45.73657,0.0 9.37717,45.73658,0.0 9.377,45.73671,0.0 9.37687,45.73667,0.0 9.37679,45.73676,0.0 9.37648,45.73683,0.0 9.37639,45.73686,0.0 9.37608,45.73694,0.0 9.37579,45.73702,0.0 9.37549,45.7371,0.0 9.37519,45.73718,0.0 9.37518,45.73719,0.0 9.37505,45.73721,0.0 9.37497,45.73737,0.0 9.37474,45.73725,0.0 9.37448,45.73723,0.0 9.37419,45.73721,0.0 9.37161,45.73719,0.0 9.36958,45.73717,0.0 9.36938,45.73716,0.0 9.36841,45.73717,0.0 9.36809,45.73718,0.0 9.36804,45.73719,0.0 9.36773,45.73723,0.0 9.36741,45.73727,0.0 9.3674,45.73728,0.0 9.36709,45.73735,0.0 9.36679,45.73742,0.0 9.36666,45.73746,0.0 9.36635,45.73754,0.0 9.36606,45.73762,0.0 9.36576,45.7377,0.0 9.36546,45.73779,0.0 9.36517,45.73787,0.0 9.36487,45.73795,0.0 9.36472,45.738,0.0 9.36441,45.73809,0.0 9.36411,45.73817,0.0 9.36382,45.73826,0.0 9.36376,45.73827,0.0 9.36346,45.73835,0.0 9.36315,45.73843,0.0 9.36286,45.7385,0.0 9.36272,45.73854,0.0 9.36259,45.73858,0.0 9.3623,45.73866,0.0 9.36238,45.73888,0.0 9.36247,45.73909,0.0 9.36256,45.7393,0.0 9.36265,45.73952,0.0 9.36268,45.7396,0.0 9.36293,45.73974,0.0 9.36318,45.73988,0.0 9.36343,45.74001,0.0 9.36355,45.74008,0.0 9.36386,45.74005,0.0 9.36418,45.74003,0.0 9.36446,45.7399,0.0 9.36472,45.73978,0.0 9.36476,45.73971,0.0 9.36489,45.73957,0.0 9.36509,45.73974,0.0 9.3653,45.73991,0.0 9.36552,45.74008,0.0 9.36571,45.74023,0.0 9.36602,45.7402,0.0 9.36634,45.74016,0.0 9.36649,45.74014,0.0 9.36679,45.74008,0.0 9.36714,45.74007,0.0 9.36747,45.74006,0.0 9.36784,45.74008,0.0 9.36815,45.7401,0.0 9.36848,45.74013,0.0 9.36865,45.74014,0.0 9.36916,45.74006,0.0 9.36946,45.73999,0.0 9.36969,45.73993,0.0 9.36999,45.73985,0.0 9.37029,45.73977,0.0 9.37059,45.7397,0.0 9.3709,45.73962,0.0 9.37119,45.73955,0.0 9.37125,45.73954,0.0 9.37134,45.73951,0.0 9.37162,45.73942,0.0 9.37192,45.73933,0.0 9.37251,45.73936,0.0 9.37283,45.73939,0.0 9.37314,45.73943,0.0 9.37332,45.73945,0.0 9.37345,45.73936,0.0 9.37358,45.73945,0.0 9.37354,45.73951,0.0 9.37358,45.73969,0.0 9.37376,45.73988,0.0 9.3738,45.73991,0.0 9.37389,45.74012,0.0 9.37398,45.74033,0.0 9.37402,45.74041,0.0 9.37404,45.74063,0.0 9.37407,45.74085,0.0 9.37411,45.74108,0.0 9.37413,45.7413,0.0 9.37417,45.74153,0.0 9.37419,45.74165,0.0 9.37413,45.7425,0.0 9.37408,45.74272,0.0 9.37406,45.74283,0.0 9.3739,45.74302,0.0 9.37374,45.74321,0.0 9.37371,45.74325,0.0 9.37376,45.74331,0.0 9.37402,45.74343,0.0 9.3741,45.74347,0.0 9.37431,45.74353,0.0 9.37458,45.74363,0.0 9.37459,45.74364,0.0</coordinates>
                </LineString>
            </Placemark>
            <Folder>
                <name>Marks [Km]</name>
                <visibility>false</visibility>
                <open>false</open>
                <Placemark>
                    <name>1. Km</name>
                    <visibility>false</visibility>
                    <Point>
                        <coordinates>9.3997269,45.7290736,0</coordinates>
                    </Point>
                </Placemark>
                <Placemark>
                    <name>2. Km</name>
                    <visibility>false</visibility>
                    <Point>
                        <coordinates>9.3879,45.7319325,0</coordinates>
                    </Point>
                </Placemark>
                <Placemark>
                    <name>3. Km</name>
                    <visibility>false</visibility>
                    <Point>
                        <coordinates>9.3774917,45.7365543,0</coordinates>
                    </Point>
                </Placemark>
                <Placemark>
                    <name>4. Km</name>
                    <visibility>false</visibility>
                    <Point>
                        <coordinates>9.3653174,45.7378292,0</coordinates>
                    </Point>
                </Placemark>
                <Placemark>
                    <name>5. Km</name>
                    <visibility>false</visibility>
                    <Point>
                        <coordinates>9.36985,45.7398875,0</coordinates>
                    </Point>
                </Placemark>
            </Folder>
        </Folder>
        <Folder>
            <name>Track: ZZZD84ZZZ81</name>
            <Placemark>
                <styleUrl>#trackStyle</styleUrl>
                <LineString>
                    <coordinates>9.40462,45.72814,0.0 9.4049,45.72819,0.0 9.40511,45.72802,0.0 9.40529,45.72789,0.0 9.40538,45.72783,0.0 9.40569,45.72785,0.0 9.406,45.72788,0.0 9.40607,45.72789,0.0 9.40612,45.72766,0.0 9.40615,45.72758,0.0 9.40629,45.72738,0.0 9.40645,45.72719,0.0 9.4065,45.72713,0.0 9.40654,45.72672,0.0 9.40658,45.7265,0.0 9.40663,45.72628,0.0 9.4065,45.72627,0.0 9.40628,45.72626,0.0 9.40604,45.72611,0.0 9.4058,45.72596,0.0 9.40559,45.72583,0.0 9.40534,45.72597,0.0 9.40509,45.72611,0.0 9.40484,45.72625,0.0 9.40458,45.72639,0.0 9.40433,45.72653,0.0 9.40429,45.72656,0.0 9.40421,45.72662,0.0 9.40395,45.72675,0.0 9.40368,45.72688,0.0 9.40356,45.72695,0.0 9.40342,45.72704,0.0 9.40325,45.72713,0.0 9.403,45.72727,0.0 9.40275,45.72741,0.0 9.4025,45.72755,0.0 9.40239,45.72762,0.0 9.40213,45.72775,0.0 9.40187,45.72788,0.0 9.40162,45.72803,0.0 9.40137,45.72817,0.0 9.40113,45.72832,0.0 9.40096,45.72843,0.0 9.4007,45.72856,0.0 9.40045,45.7287,0.0 9.40027,45.7288,0.0 9.40001,45.72893,0.0 9.39975,45.72906,0.0 9.39953,45.72919,0.0 9.39927,45.72932,0.0 9.39902,45.72946,0.0 9.39897,45.72949,0.0 9.3987,45.72961,0.0 9.39843,45.72973,0.0 9.39816,45.72985,0.0 9.39789,45.72998,0.0 9.39762,45.7301,0.0 9.39759,45.73012,0.0 9.39729,45.73021,0.0 9.39699,45.7303,0.0 9.39689,45.73033,0.0 9.39659,45.7304,0.0 9.39651,45.73042,0.0 9.39619,45.73047,0.0 9.39588,45.73051,0.0 9.39556,45.73056,0.0 9.39525,45.7306,0.0 9.39493,45.73065,0.0 9.39462,45.7307,0.0 9.3943,45.73074,0.0 9.39404,45.73079,0.0 9.39372,45.73082,0.0 9.39341,45.73085,0.0 9.39331,45.73087,0.0 9.39299,45.73092,0.0 9.39268,45.73097,0.0 9.39252,45.731,0.0 9.39221,45.73104,0.0 9.39189,45.73109,0.0 9.39158,45.73113,0.0 9.39149,45.73115,0.0 9.39117,45.73119,0.0 9.39086,45.73123,0.0 9.39084,45.73124,0.0 9.39071,45.73133,0.0 9.39063,45.73124,0.0 9.39031,45.73129,0.0 9.39027,45.7313,0.0 9.3901,45.73133,0.0 9.38979,45.73139,0.0 9.38963,45.73142,0.0 9.38946,45.73145,0.0 9.38914,45.73151,0.0 9.38884,45.73158,0.0 9.38853,45.73165,0.0 9.38846,45.73166,0.0 9.38817,45.73176,0.0 9.38812,45.73178,0.0 9.38789,45.73194,0.0 9.38768,45.7321,0.0 9.38751,45.73224,0.0 9.38733,45.73242,0.0 9.38719,45.73261,0.0 9.38705,45.73281,0.0 9.38699,45.7329,0.0 9.38685,45.7331,0.0 9.38671,45.7333,0.0 9.38658,45.7335,0.0 9.38656,45.73354,0.0 9.38647,45.73362,0.0 9.38624,45.73378,0.0 9.38601,45.73394,0.0 9.38599,45.73396,0.0 9.3857,45.73404,0.0 9.3854,45.73413,0.0 9.38539,45.73414,0.0 9.38509,45.73422,0.0 9.38496,45.73426,0.0 9.38465,45.73431,0.0 9.38461,45.73432,0.0 9.3843,45.73437,0.0 9.38398,45.73443,0.0 9.38392,45.73444,0.0 9.3836,45.73449,0.0 9.3834,45.73453,0.0 9.38308,45.73458,0.0 9.38305,45.73459,0.0 9.38293,45.73465,0.0 9.38265,45.73476,0.0 9.38241,45.73486,0.0 9.38232,45.73489,0.0 9.38215,45.73497,0.0 9.38202,45.73504,0.0 9.38175,45.73517,0.0 9.38149,45.73529,0.0 9.38133,45.73537,0.0 9.38115,45.73544,0.0 9.38085,45.73553,0.0 9.38056,45.73563,0.0 9.38028,45.73573,0.0 9.37999,45.73582,0.0 9.3799,45.73586,0.0 9.37968,45.73592,0.0 9.37938,45.73601,0.0 9.3792,45.73607,0.0 9.3789,45.73615,0.0 9.3786,45.73623,0.0 9.37856,45.73625,0.0 9.37826,45.73634,0.0 9.37799,45.73643,0.0 9.37769,45.73651,0.0 9.37756,45.73655,0.0 9.37724,45.73657,0.0 9.37717,45.73658,0.0 9.377,45.73671,0.0 9.37687,45.73667,0.0 9.37679,45.73676,0.0 9.37648,45.73683,0.0 9.37639,45.73686,0.0 9.37608,45.73694,0.0 9.37579,45.73702,0.0 9.37549,45.7371,0.0 9.37519,45.73718,0.0 9.37518,45.73719,0.0 9.37505,45.73721,0.0 9.37497,45.73737,0.0 9.37474,45.73725,0.0 9.37448,45.73723,0.0 9.37419,45.73721,0.0 9.37161,45.73719,0.0 9.36958,45.73717,0.0 9.36938,45.73716,0.0 9.36841,45.73717,0.0 9.36809,45.73718,0.0 9.36804,45.73719,0.0 9.36773,45.73723,0.0 9.36741,45.73727,0.0 9.3674,45.73728,0.0 9.36709,45.73735,0.0 9.36679,45.73742,0.0 9.36666,45.73746,0.0 9.36635,45.73754,0.0 9.36606,45.73762,0.0 9.36576,45.7377,0.0 9.36546,45.73779,0.0 9.36517,45.73787,0.0 9.36487,45.73795,0.0 9.36472,45.738,0.0 9.36441,45.73809,0.0 9.36411,45.73817,0.0 9.36382,45.73826,0.0 9.36376,45.73827,0.0 9.36346,45.73835,0.0 9.36315,45.73843,0.0 9.36286,45.7385,0.0 9.36272,45.73854,0.0 9.36259,45.73858,0.0 9.3623,45.73866,0.0 9.36238,45.73888,0.0 9.36247,45.73909,0.0 9.36256,45.7393,0.0 9.36265,45.73952,0.0 9.36268,45.7396,0.0 9.36293,45.73974,0.0 9.36318,45.73988,0.0 9.36343,45.74001,0.0 9.36355,45.74008,0.0 9.36386,45.74005,0.0 9.36418,45.74003,0.0 9.36446,45.7399,0.0 9.36472,45.73978,0.0 9.36476,45.73971,0.0</coordinates>
                </LineString>
            </Placemark>
            <Folder>
                <name>Marks [Km]</name>
                <visibility>false</visibility>
                <open>false</open>
                <Placemark>
                    <name>1. Km</name>
                    <visibility>false</visibility>
                    <Point>
                        <coordinates>9.3997269,45.7290736,0</coordinates>
                    </Point>
                </Placemark>
                <Placemark>
                    <name>2. Km</name>
                    <visibility>false</visibility>
                    <Point>
                        <coordinates>9.3879,45.7319325,0</coordinates>
                    </Point>
                </Placemark>
                <Placemark>
                    <name>3. Km</name>
                    <visibility>false</visibility>
                    <Point>
                        <coordinates>9.3774917,45.7365543,0</coordinates>
                    </Point>
                </Placemark>
                <Placemark>
                    <name>4. Km</name>
                    <visibility>false</visibility>
                    <Point>
                        <coordinates>9.3653174,45.7378292,0</coordinates>
                    </Point>
                </Placemark>
            </Folder>
        </Folder>
    </Document>
</kml>
