{"features": [{"geometry": {"coordinates": [[9.3678712, 45.7486662], [9.3678487, 45.7486687], [9.3678063, 45.7486094], [9.3676468, 45.7484354], [9.3676221, 45.7484067], [9.3674902, 45.7482538], [9.3674193, 45.7481761], [9.3673771, 45.7480835], [9.3673231, 45.7479497], [9.3668467, 45.7483245], [9.3667555, 45.7484037], [9.3666543, 45.7484743], [9.3665892, 45.7485269], [9.366545, 45.7485917], [9.3665021, 45.7486405], [9.3664833, 45.7486631], [9.3664544, 45.7486856], [9.3664136, 45.7487095], [9.3664749, 45.7487216], [9.3665882, 45.748732], [9.3666886, 45.7487399], [9.3667809, 45.7487444], [9.3668829, 45.7487354], [9.3669687, 45.7487162], [9.3670821, 45.7486936], [9.3671469, 45.7486913], [9.3671777, 45.7487139], [9.367178, 45.7487508], [9.3673298, 45.7487285], [9.3675664, 45.748694], [9.3678487, 45.7486687], [9.3678712, 45.7486662]], "type": "LineString"}, "properties": {"added_distance_m": 323.2698763635895, "bus_suitability_certified": false, "manoeuvre_id": "M1"}, "type": "Feature"}, {"geometry": {"coordinates": [[9.3745828, 45.7436272], [9.3743372, 45.7435361], [9.3742421, 45.7435013], [9.3741489, 45.7434691], [9.3738503, 45.7433719], [9.3738143, 45.7433575], [9.373791, 45.7433444], [9.373762, 45.7433172], [9.3737337, 45.7432776], [9.3737361, 45.7432336], [9.3737515, 45.7431925], [9.3737749, 45.7431432], [9.3738188, 45.7431019], [9.3739547, 45.7429861], [9.3740512, 45.7428858], [9.3741069, 45.7428199], [9.3741425, 45.7427538], [9.3741766, 45.7426673], [9.3741952, 45.7425821], [9.3742235, 45.7424334], [9.3742183, 45.7422928], [9.3742185, 45.7422341], [9.3736216, 45.7425608], [9.3727771, 45.7430517], [9.3728949, 45.7431581], [9.3731946, 45.7434469], [9.3732566, 45.7434786], [9.3733144, 45.7434865], [9.3733544, 45.7434827], [9.3733986, 45.7434684], [9.3734893, 45.7434175], [9.3735557, 45.7433746], [9.3737337, 45.7432776], [9.373762, 45.7433172], [9.373791, 45.7433444], [9.3738143, 45.7433575], [9.3738503, 45.7433719], [9.3741489, 45.7434691], [9.3742421, 45.7435013], [9.3743372, 45.7435361], [9.3745828, 45.7436272]], "type": "LineString"}, "properties": {"added_distance_m": 531.7670878639693, "bus_suitability_certified": false, "manoeuvre_id": "M2"}, "type": "Feature"}, {"geometry": {"coordinates": [[9.397265069842808, 45.72130999924538], [9.3971229, 45.7211653], [9.3971079, 45.7211501], [9.3964638, 45.7204934], [9.3963907, 45.7204613], [9.3963431, 45.7204404], [9.3963194, 45.7204448], [9.3962666, 45.7204415], [9.3962424, 45.720434], [9.3962228, 45.7204279], [9.3961873, 45.7204055], [9.3961634, 45.7203765], [9.3961535, 45.7203438], [9.3961586, 45.7203106], [9.3961782, 45.7202801], [9.3962103, 45.7202553], [9.3962518, 45.7202386], [9.3962987, 45.7202318], [9.3963463, 45.7202354], [9.3963616, 45.7202404], [9.3963943, 45.7202511], [9.3964317, 45.7202774], [9.396454, 45.720311], [9.3964586, 45.7203479], [9.3964447, 45.7203837], [9.3964332, 45.7203952], [9.3964638, 45.7204934], [9.3971079, 45.7211501], [9.3971229, 45.7211653], [9.397265069842808, 45.72130999924538]], "type": "LineString"}, "properties": {"added_distance_m": 307.82943872266816, "bus_suitability_certified": false, "manoeuvre_id": "M3"}, "type": "Feature"}, {"geometry": {"coordinates": [[9.4198545, 45.7321292], [9.4198437, 45.7321565], [9.4198288, 45.7321887], [9.4198097, 45.7322136], [9.4197953, 45.7322354], [9.4197742, 45.7322594], [9.4197508, 45.7322824], [9.4197251, 45.7323066], [9.4196987, 45.7323279], [9.419646, 45.7323647], [9.4195794, 45.7324049], [9.4195185, 45.7324349], [9.4194562, 45.7324635], [9.4193926, 45.7324907], [9.4193278, 45.7325164], [9.4192566, 45.7325388], [9.4192015, 45.7325578], [9.4191267, 45.7325799], [9.4190537, 45.7326015], [9.4189014, 45.7323811], [9.4188543, 45.7323426], [9.4187848, 45.7322987], [9.4186322, 45.7322479], [9.418376, 45.7321704], [9.4181699, 45.7321055], [9.4177863, 45.7318962], [9.41771, 45.7318519], [9.417728, 45.7318019], [9.4177616, 45.7317832], [9.4179091, 45.731831], [9.4180807, 45.7318871], [9.4182537, 45.7318862], [9.4184522, 45.7317224], [9.4185273, 45.7316522], [9.4185904, 45.7315857], [9.4186051, 45.7315286], [9.4185461, 45.7314902], [9.418133, 45.7313554], [9.4180204, 45.7313554], [9.4179279, 45.7314762], [9.4178461, 45.7315286], [9.4177575, 45.7315923], [9.4174504, 45.731493], [9.417383, 45.7314805], [9.4173244, 45.7314696], [9.4172519, 45.7314331], [9.4172121, 45.7314032], [9.4171728, 45.7314369], [9.417146, 45.7314649], [9.4171379, 45.731508], [9.417268, 45.731523], [9.4173592, 45.7315071], [9.417383, 45.7314805], [9.4174504, 45.731493], [9.4177575, 45.7315923], [9.4178461, 45.7315286], [9.4179279, 45.7314762], [9.4180204, 45.7313554], [9.418133, 45.7313554], [9.4185461, 45.7314902], [9.4186051, 45.7315286], [9.4185904, 45.7315857], [9.4185273, 45.7316522], [9.4184522, 45.7317224], [9.4182537, 45.7318862], [9.4180807, 45.7318871], [9.4179091, 45.731831], [9.4177616, 45.7317832], [9.417728, 45.7318019], [9.41771, 45.7318519], [9.4177863, 45.7318962], [9.4181699, 45.7321055], [9.418376, 45.7321704], [9.4186322, 45.7322479], [9.4187848, 45.7322987], [9.4188543, 45.7323426], [9.4189014, 45.7323811], [9.4190537, 45.7326015], [9.4191267, 45.7325799], [9.4192015, 45.7325578], [9.4192566, 45.7325388], [9.4193278, 45.7325164], [9.4193926, 45.7324907], [9.4194562, 45.7324635], [9.4195185, 45.7324349], [9.4195794, 45.7324049], [9.419646, 45.7323647], [9.4196987, 45.7323279], [9.4197251, 45.7323066], [9.4197508, 45.7322824], [9.4197742, 45.7322594], [9.4197953, 45.7322354], [9.4198097, 45.7322136], [9.4198288, 45.7321887], [9.4198437, 45.7321565], [9.4198545, 45.7321292]], "type": "LineString"}, "properties": {"added_distance_m": 925.7432051925496, "bus_suitability_certified": false, "manoeuvre_id": "M4"}, "type": "Feature"}, {"geometry": {"coordinates": [[9.4072469, 45.735645], [9.4073587, 45.7356925], [9.4074082, 45.7356696], [9.4074631, 45.7356807], [9.4075392, 45.7356955], [9.4076507, 45.7357017], [9.4077179, 45.7356893], [9.4077462, 45.7356683], [9.4078382, 45.7353818], [9.4074542, 45.7352817], [9.4074153, 45.7352854], [9.4073339, 45.7352743], [9.4069004, 45.7351792], [9.4067747, 45.7351607], [9.4066933, 45.7351755], [9.4066137, 45.7352027], [9.4065816, 45.735206], [9.4065411, 45.7352101], [9.4064703, 45.7352237], [9.4063593, 45.7351138], [9.406058, 45.7348507], [9.4058656, 45.7346827], [9.4056623, 45.7345662], [9.4057476, 45.7344651], [9.4057969, 45.7343619], [9.4058338, 45.7341726], [9.405823, 45.7341353], [9.4059035, 45.7341431], [9.406039, 45.7342667], [9.4061087, 45.7343163], [9.4061717, 45.7343771], [9.4061717, 45.7345035], [9.4061758, 45.7346626], [9.4061181, 45.7347899], [9.406058, 45.7348507], [9.4063593, 45.7351138], [9.4064703, 45.7352237], [9.4065411, 45.7352101], [9.4065816, 45.735206], [9.4066137, 45.7352027], [9.4066933, 45.7351755], [9.4067747, 45.7351607], [9.4069004, 45.7351792], [9.4073339, 45.7352743], [9.4074153, 45.7352854], [9.4074542, 45.7352817], [9.4078382, 45.7353818], [9.4077462, 45.7356683], [9.4077179, 45.7356893], [9.4076507, 45.7357017], [9.4075392, 45.7356955], [9.4074631, 45.7356807], [9.4074082, 45.7356696], [9.4073587, 45.7356925], [9.4072469, 45.735645]], "type": "LineString"}, "properties": {"added_distance_m": 668.0942773181147, "bus_suitability_certified": false, "manoeuvre_id": "M6"}, "type": "Feature"}], "type": "FeatureCollection"}
