{
  "features": [
    {
      "geometry": {
        "coordinates": [
          [
            9.3891719,
            45.7314825
          ],
          [
            9.3888232,
            45.7315541
          ],
          [
            9.3885185,
            45.7316203
          ],
          [
            9.3883924,
            45.7316701
          ],
          [
            9.3883042,
            45.7317033
          ],
          [
            9.3882122,
            45.7317396
          ]
        ],
        "type": "LineString"
      },
      "properties": {
        "highway": "primary",
        "name": "Via Como",
        "osm_way_id": "43722424",
        "role": "BASEMAP_ROAD"
      },
      "type": "Feature"
    },
    {
      "geometry": {
        "coordinates": [
          [
            9.3903221,
            45.7313002
          ],
          [
            9.3898446,
            45.7313737
          ],
          [
            9.3897839,
            45.731383
          ],
          [
            9.3893876,
            45.731449
          ]
        ],
        "type": "LineString"
      },
      "properties": {
        "highway": "primary",
        "name": "Via Como",
        "osm_way_id": "43722425",
        "role": "BASEMAP_ROAD"
      },
      "type": "Feature"
    },
    {
      "geometry": {
        "coordinates": [
          [
            9.3893876,
            45.731449
          ],
          [
            9.3891719,
            45.7314825
          ]
        ],
        "type": "LineString"
      },
      "properties": {
        "highway": "primary",
        "name": "Via Como",
        "osm_way_id": "43722426",
        "role": "BASEMAP_ROAD"
      },
      "type": "Feature"
    },
    {
      "geometry": {
        "coordinates": [
          [
            9.4032248,
            45.7271443
          ],
          [
            9.4023376,
            45.7276282
          ],
          [
            9.401754,
            45.7279477
          ],
          [
            9.4008973,
            45.7284167
          ],
          [
            9.4008093,
            45.7284587
          ],
          [
            9.4002741,
            45.7287569
          ],
          [
            9.3989814,
            45.7294773
          ],
          [
            9.3985619,
            45.7297034
          ],
          [
            9.3984194,
            45.7297738
          ],
          [
            9.3981093,
            45.7299126
          ],
          [
            9.3978879,
            45.7299996
          ],
          [
            9.3976189,
            45.7301047
          ],
          [
            9.3971213,
            45.7302576
          ],
          [
            9.3969713,
            45.7302933
          ],
          [
            9.3966882,
            45.7303609
          ],
          [
            9.396237,
            45.73044
          ],
          [
            9.396116,
            45.7304569
          ],
          [
            9.3937399,
            45.7308082
          ],
          [
            9.3922853,
            45.7310257
          ],
          [
            9.3920542,
            45.7310602
          ]
        ],
        "type": "LineString"
      },
      "properties": {
        "highway": "primary",
        "name": "Via Como",
        "osm_way_id": "48540240",
        "role": "BASEMAP_ROAD"
      },
      "type": "Feature"
    },
    {
      "geometry": {
        "coordinates": [
          [
            9.3911023,
            45.731203
          ],
          [
            9.3909412,
            45.7312484
          ],
          [
            9.3908296,
            45.7312852
          ]
        ],
        "type": "LineString"
      },
      "properties": {
        "highway": "primary",
        "name": "Via Como",
        "osm_way_id": "173737513",
        "role": "BASEMAP_ROAD"
      },
      "type": "Feature"
    },
    {
      "geometry": {
        "coordinates": [
          [
            9.3903221,
            45.7313002
          ],
          [
            9.3904878,
            45.7312377
          ],
          [
            9.3905386,
            45.7312146
          ],
          [
            9.3906157,
            45.7311769
          ]
        ],
        "type": "LineString"
      },
      "properties": {
        "highway": "primary",
        "name": "Via Como",
        "osm_way_id": "173737514",
        "role": "BASEMAP_ROAD"
      },
      "type": "Feature"
    },
    {
      "geometry": {
        "coordinates": [
          [
            9.3907417,
            45.731138
          ],
          [
            9.3907639,
            45.7310808
          ],
          [
            9.3907839,
            45.7310473
          ],
          [
            9.3908576,
            45.7309239
          ],
          [
            9.390909,
            45.7308283
          ],
          [
            9.3910172,
            45.7303994
          ],
          [
            9.3910308,
            45.7303527
          ],
          [
            9.3910587,
            45.7302566
          ],
          [
            9.3910682,
            45.7301347
          ],
          [
            9.3910526,
            45.7300235
          ],
          [
            9.391033,
            45.7299282
          ],
          [
            9.3908956,
            45.729602
          ],
          [
            9.3908701,
            45.7295523
          ],
          [
            9.3908175,
            45.7293903
          ],
          [
            9.3907864,
            45.7292296
          ],
          [
            9.3907698,
            45.7291277
          ],
          [
            9.3907671,
            45.7290347
          ],
          [
            9.3907805,
            45.7289296
          ],
          [
            9.3907855,
            45.7288902
          ]
        ],
        "type": "LineString"
      },
      "properties": {
        "highway": "tertiary",
        "name": "Via Pilata",
        "osm_way_id": "173737515",
        "role": "BASEMAP_ROAD"
      },
      "type": "Feature"
    },
    {
      "geometry": {
        "coordinates": [
          [
            9.3907794,
            45.7314265
          ],
          [
            9.3907753,
            45.7314169
          ],
          [
            9.3907536,
            45.7313663
          ],
          [
            9.3907398,
            45.731321
          ]
        ],
        "type": "LineString"
      },
      "properties": {
        "highway": "tertiary",
        "name": "",
        "osm_way_id": "173737543",
        "role": "BASEMAP_ROAD"
      },
      "type": "Feature"
    },
    {
      "geometry": {
        "coordinates": [
          [
            9.3908136,
            45.7311615
          ],
          [
            9.3909037,
            45.731177
          ],
          [
            9.3909922,
            45.7311896
          ],
          [
            9.3911023,
            45.731203
          ]
        ],
        "type": "LineString"
      },
      "properties": {
        "highway": "primary",
        "name": "Via Como",
        "osm_way_id": "173737546",
        "role": "BASEMAP_ROAD"
      },
      "type": "Feature"
    },
    {
      "geometry": {
        "coordinates": [
          [
            9.3906327,
            45.7312959
          ],
          [
            9.3905264,
            45.7312936
          ],
          [
            9.3904524,
            45.7312953
          ],
          [
            9.3903221,
            45.7313002
          ]
        ],
        "type": "LineString"
      },
      "properties": {
        "highway": "primary",
        "name": "Via Como",
        "osm_way_id": "173737547",
        "role": "BASEMAP_ROAD"
      },
      "type": "Feature"
    },
    {
      "geometry": {
        "coordinates": [
          [
            9.3920542,
            45.7310602
          ],
          [
            9.39196,
            45.7310741
          ]
        ],
        "type": "LineString"
      },
      "properties": {
        "highway": "primary",
        "name": "Via Como",
        "osm_way_id": "194274209",
        "role": "BASEMAP_ROAD"
      },
      "type": "Feature"
    },
    {
      "geometry": {
        "coordinates": [
          [
            9.39196,
            45.7310741
          ],
          [
            9.3915075,
            45.7311432
          ],
          [
            9.3912754,
            45.7311787
          ]
        ],
        "type": "LineString"
      },
      "properties": {
        "highway": "primary",
        "name": "Via Como",
        "osm_way_id": "194274211",
        "role": "BASEMAP_ROAD"
      },
      "type": "Feature"
    },
    {
      "geometry": {
        "coordinates": [
          [
            9.3908136,
            45.7311615
          ],
          [
            9.3908343,
            45.7311784
          ],
          [
            9.3908486,
            45.7311983
          ],
          [
            9.3908556,
            45.7312194
          ],
          [
            9.3908553,
            45.7312412
          ],
          [
            9.3908466,
            45.7312643
          ],
          [
            9.3908296,
            45.7312852
          ]
        ],
        "type": "LineString"
      },
      "properties": {
        "highway": "primary",
        "name": "",
        "osm_way_id": "432566849",
        "role": "BASEMAP_ROAD"
      },
      "type": "Feature"
    },
    {
      "geometry": {
        "coordinates": [
          [
            9.3906327,
            45.7312959
          ],
          [
            9.3906141,
            45.7312804
          ],
          [
            9.3906009,
            45.7312625
          ],
          [
            9.3905935,
            45.7312425
          ],
          [
            9.3905926,
            45.7312218
          ],
          [
            9.3905999,
            45.7311983
          ],
          [
            9.3906157,
            45.7311769
          ]
        ],
        "type": "LineString"
      },
      "properties": {
        "highway": "primary",
        "name": "",
        "osm_way_id": "432566859",
        "role": "BASEMAP_ROAD"
      },
      "type": "Feature"
    },
    {
      "geometry": {
        "coordinates": [
          [
            9.3906157,
            45.7311769
          ],
          [
            9.3906304,
            45.7311645
          ],
          [
            9.390648,
            45.7311541
          ],
          [
            9.3906689,
            45.7311457
          ],
          [
            9.3907039,
            45.7311383
          ],
          [
            9.3907417,
            45.731138
          ],
          [
            9.3907624,
            45.7311412
          ],
          [
            9.3907897,
            45.7311493
          ],
          [
            9.3908136,
            45.7311615
          ]
        ],
        "type": "LineString"
      },
      "properties": {
        "highway": "primary",
        "name": "",
        "osm_way_id": "432566866",
        "role": "BASEMAP_ROAD"
      },
      "type": "Feature"
    },
    {
      "geometry": {
        "coordinates": [
          [
            9.3908296,
            45.7312852
          ],
          [
            9.3908138,
            45.7312972
          ],
          [
            9.3907953,
            45.7313072
          ],
          [
            9.3907687,
            45.7313163
          ],
          [
            9.3907398,
            45.731321
          ]
        ],
        "type": "LineString"
      },
      "properties": {
        "highway": "primary",
        "name": "",
        "osm_way_id": "432566874",
        "role": "BASEMAP_ROAD"
      },
      "type": "Feature"
    },
    {
      "geometry": {
        "coordinates": [
          [
            9.3907398,
            45.731321
          ],
          [
            9.3907093,
            45.7313211
          ],
          [
            9.3906795,
            45.7313162
          ],
          [
            9.3906545,
            45.7313078
          ],
          [
            9.3906327,
            45.7312959
          ]
        ],
        "type": "LineString"
      },
      "properties": {
        "highway": "primary",
        "name": "",
        "osm_way_id": "523336953",
        "role": "BASEMAP_ROAD"
      },
      "type": "Feature"
    },
    {
      "geometry": {
        "coordinates": [
          [
            9.3906919,
            45.7328038
          ],
          [
            9.3907356,
            45.7327599
          ],
          [
            9.3907974,
            45.7326819
          ],
          [
            9.3908643,
            45.7325717
          ],
          [
            9.3909316,
            45.73245
          ],
          [
            9.3909582,
            45.7323508
          ],
          [
            9.3909725,
            45.732271
          ],
          [
            9.3909768,
            45.7322471
          ],
          [
            9.3909791,
            45.7321322
          ],
          [
            9.390976,
            45.7320065
          ],
          [
            9.3909148,
            45.7317985
          ],
          [
            9.3908569,
            45.7316013
          ],
          [
            9.3908439,
            45.7315571
          ],
          [
            9.3907794,
            45.7314265
          ]
        ],
        "type": "LineString"
      },
      "properties": {
        "highway": "tertiary",
        "name": "",
        "osm_way_id": "523338067",
        "role": "BASEMAP_ROAD"
      },
      "type": "Feature"
    },
    {
      "geometry": {
        "coordinates": [
          [
            9.3912754,
            45.7311787
          ],
          [
            9.3911023,
            45.731203
          ]
        ],
        "type": "LineString"
      },
      "properties": {
        "highway": "primary",
        "name": "Via Como",
        "osm_way_id": "1196041891",
        "role": "BASEMAP_ROAD"
      },
      "type": "Feature"
    },
    {
      "geometry": {
        "coordinates": [
          [
            9.3898446,
            45.7313737
          ],
          [
            9.3898592,
            45.7313137
          ],
          [
            9.3899026,
            45.7312829
          ],
          [
            9.3899992,
            45.7312545
          ]
        ],
        "type": "LineString"
      },
      "properties": {
        "highway": "service",
        "name": "",
        "osm_way_id": "1207059929",
        "role": "BASEMAP_ROAD"
      },
      "type": "Feature"
    },
    {
      "geometry": {
        "coordinates": [
          [
            9.3899992,
            45.7312545
          ],
          [
            9.3902245,
            45.7312197
          ],
          [
            9.390304,
            45.7312077
          ],
          [
            9.3903789,
            45.7311876
          ],
          [
            9.3904393,
            45.7311522
          ],
          [
            9.3905353,
            45.7311142
          ],
          [
            9.3906167,
            45.7310903
          ],
          [
            9.3907173,
            45.7310637
          ],
          [
            9.3907839,
            45.7310473
          ]
        ],
        "type": "LineString"
      },
      "properties": {
        "highway": "service",
        "name": "",
        "osm_way_id": "1207059930",
        "role": "BASEMAP_ROAD"
      },
      "type": "Feature"
    },
    {
      "geometry": {
        "coordinates": [
          [
            9.3883511,
            45.7320697
          ],
          [
            9.3884866,
            45.7320107
          ],
          [
            9.3885885,
            45.7320163
          ],
          [
            9.3887897,
            45.732095
          ],
          [
            9.388905,
            45.7320987
          ],
          [
            9.3889546,
            45.7320744
          ],
          [
            9.3889882,
            45.7320285
          ],
          [
            9.3889627,
            45.7319162
          ],
          [
            9.3889868,
            45.7318497
          ],
          [
            9.3889801,
            45.7316803
          ],
          [
            9.3889868,
            45.731625
          ],
          [
            9.3888514,
            45.7316484
          ],
          [
            9.3885671,
            45.7317439
          ],
          [
            9.3882336,
            45.7318691
          ]
        ],
        "type": "LineString"
      },
      "properties": {
        "highway": "service",
        "name": "",
        "osm_way_id": "1430850415",
        "role": "BASEMAP_ROAD"
      },
      "type": "Feature"
    },
    {
      "geometry": {
        "coordinates": [
          [
            9.3881184,
            45.7317869
          ],
          [
            9.3882117,
            45.7318497
          ],
          [
            9.3882336,
            45.7318691
          ],
          [
            9.3883176,
            45.7319433
          ],
          [
            9.3883511,
            45.7320697
          ],
          [
            9.3882492,
            45.7321446
          ],
          [
            9.3881084,
            45.7324366
          ]
        ],
        "type": "LineString"
      },
      "properties": {
        "highway": "service",
        "name": "",
        "osm_way_id": "1430850416",
        "role": "BASEMAP_ROAD"
      },
      "type": "Feature"
    },
    {
      "geometry": {
        "coordinates": [
          [
            9.3892162,
            45.7324114
          ],
          [
            9.3893529,
            45.7323074
          ],
          [
            9.3894777,
            45.732212
          ],
          [
            9.3895018,
            45.7321801
          ],
          [
            9.3895018,
            45.7321464
          ],
          [
            9.3894844,
            45.7321006
          ],
          [
            9.3894797,
            45.7320107
          ],
          [
            9.3894743,
            45.7318609
          ],
          [
            9.389534,
            45.7318605
          ],
          [
            9.389532,
            45.7318174
          ]
        ],
        "type": "LineString"
      },
      "properties": {
        "highway": "service",
        "name": "",
        "osm_way_id": "1430850417",
        "role": "BASEMAP_ROAD"
      },
      "type": "Feature"
    },
    {
      "geometry": {
        "coordinates": [
          [
            9.3896326,
            45.7332674
          ],
          [
            9.3895984,
            45.7331921
          ],
          [
            9.3895286,
            45.7330198
          ],
          [
            9.3894629,
            45.7329459
          ],
          [
            9.3894066,
            45.7329159
          ],
          [
            9.3893476,
            45.7328944
          ],
          [
            9.389125,
            45.7328485
          ],
          [
            9.389078,
            45.7328055
          ],
          [
            9.3890311,
            45.7327409
          ],
          [
            9.389015,
            45.7326398
          ],
          [
            9.3890204,
            45.7325892
          ],
          [
            9.3889385,
            45.7325546
          ],
          [
            9.3888259,
            45.7323908
          ],
          [
            9.3888326,
            45.7323617
          ],
          [
            9.3888903,
            45.7323065
          ]
        ],
        "type": "LineString"
      },
      "properties": {
        "highway": "service",
        "name": "",
        "osm_way_id": "1430850419",
        "role": "BASEMAP_ROAD"
      },
      "type": "Feature"
    },
    {
      "geometry": {
        "coordinates": [
          [
            9.3919641,
            45.7314528
          ],
          [
            9.39158,
            45.7314944
          ]
        ],
        "type": "LineString"
      },
      "properties": {
        "highway": "service",
        "name": "",
        "osm_way_id": "1430856296",
        "role": "BASEMAP_ROAD"
      },
      "type": "Feature"
    },
    {
      "geometry": {
        "coordinates": [
          [
            9.3919869,
            45.731714
          ],
          [
            9.3916315,
            45.7317439
          ],
          [
            9.39158,
            45.7314944
          ],
          [
            9.3915075,
            45.7311432
          ]
        ],
        "type": "LineString"
      },
      "properties": {
        "highway": "service",
        "name": "",
        "osm_way_id": "1430856297",
        "role": "BASEMAP_ROAD"
      },
      "type": "Feature"
    },
    {
      "geometry": {
        "coordinates": [
          [
            9.3881422,
            45.7315947
          ],
          [
            9.388492,
            45.7314837
          ],
          [
            9.3892832,
            45.7313311
          ]
        ],
        "type": "LineString"
      },
      "properties": {
        "highway": "service",
        "name": "",
        "osm_way_id": "1463441187",
        "role": "BASEMAP_ROAD"
      },
      "type": "Feature"
    },
    {
      "geometry": {
        "coordinates": [
          [
            9.388035,
            45.7313725
          ],
          [
            9.389188,
            45.7311776
          ]
        ],
        "type": "LineString"
      },
      "properties": {
        "highway": "service",
        "name": "",
        "osm_way_id": "1463441188",
        "role": "BASEMAP_ROAD"
      },
      "type": "Feature"
    },
    {
      "geometry": {
        "coordinates": [
          [
            9.3880481,
            45.7312758
          ],
          [
            9.3886448,
            45.731171
          ]
        ],
        "type": "LineString"
      },
      "properties": {
        "highway": "service",
        "name": "",
        "osm_way_id": "1463441190",
        "role": "BASEMAP_ROAD"
      },
      "type": "Feature"
    },
    {
      "geometry": {
        "coordinates": [
          [
            9.3905787,
            45.7301984
          ],
          [
            9.3905532,
            45.7302938
          ],
          [
            9.3910308,
            45.7303527
          ]
        ],
        "type": "LineString"
      },
      "properties": {
        "highway": "service",
        "name": "",
        "osm_way_id": "1463441192",
        "role": "BASEMAP_ROAD"
      },
      "type": "Feature"
    },
    {
      "geometry": {
        "coordinates": [
          [
            9.3913579,
            45.7306234
          ],
          [
            9.3915805,
            45.7306131
          ],
          [
            9.3916999,
            45.730614
          ],
          [
            9.3917535,
            45.7306421
          ]
        ],
        "type": "LineString"
      },
      "properties": {
        "highway": "service",
        "name": "",
        "osm_way_id": "1463441194",
        "role": "BASEMAP_ROAD"
      },
      "type": "Feature"
    },
    {
      "geometry": {
        "coordinates": [
          [
            9.3915792,
            45.730937
          ],
          [
            9.3914236,
            45.7308658
          ],
          [
            9.391332,
            45.7308786
          ],
          [
            9.3910079,
            45.7309239
          ],
          [
            9.3908576,
            45.7309239
          ]
        ],
        "type": "LineString"
      },
      "properties": {
        "highway": "service",
        "name": "",
        "osm_way_id": "1463441195",
        "role": "BASEMAP_ROAD"
      },
      "type": "Feature"
    },
    {
      "geometry": {
        "coordinates": [
          [
            9.3913726,
            45.7292107
          ],
          [
            9.3913735,
            45.7300233
          ],
          [
            9.391374,
            45.73057
          ],
          [
            9.3913579,
            45.7306234
          ],
          [
            9.3913096,
            45.7306926
          ],
          [
            9.3912935,
            45.7307291
          ],
          [
            9.391332,
            45.7308786
          ]
        ],
        "type": "LineString"
      },
      "properties": {
        "highway": "service",
        "name": "",
        "osm_way_id": "1463441196",
        "role": "BASEMAP_ROAD"
      },
      "type": "Feature"
    },
    {
      "geometry": {
        "coordinates": [
          [
            9.3923302,
            45.7315717
          ],
          [
            9.3922853,
            45.7310257
          ]
        ],
        "type": "LineString"
      },
      "properties": {
        "highway": "service",
        "name": "",
        "osm_way_id": "1491885372",
        "role": "BASEMAP_ROAD"
      },
      "type": "Feature"
    },
    {
      "geometry": {
        "coordinates": [
          [
            9.3905747,
            45.7316391
          ],
          [
            9.3907155,
            45.7314649
          ],
          [
            9.3907753,
            45.7314169
          ]
        ],
        "type": "LineString"
      },
      "properties": {
        "highway": "service",
        "name": "",
        "osm_way_id": "1491885373",
        "role": "BASEMAP_ROAD"
      },
      "type": "Feature"
    },
    {
      "geometry": {
        "coordinates": [
          [
            9.3906961,
            45.7317364
          ],
          [
            9.3907363,
            45.7316905
          ],
          [
            9.3908569,
            45.7316013
          ]
        ],
        "type": "LineString"
      },
      "properties": {
        "highway": "service",
        "name": "",
        "osm_way_id": "1491885374",
        "role": "BASEMAP_ROAD"
      },
      "type": "Feature"
    },
    {
      "geometry": {
        "coordinates": [
          [
            9.3909148,
            45.7317985
          ],
          [
            9.3912224,
            45.7317804
          ],
          [
            9.391209,
            45.731669
          ]
        ],
        "type": "LineString"
      },
      "properties": {
        "highway": "service",
        "name": "",
        "osm_way_id": "1491885375",
        "role": "BASEMAP_ROAD"
      },
      "type": "Feature"
    },
    {
      "geometry": {
        "coordinates": [
          [
            9.3912553,
            45.7324586
          ],
          [
            9.3912613,
            45.732416
          ],
          [
            9.3912486,
            45.7323725
          ],
          [
            9.391203,
            45.7323313
          ],
          [
            9.3911292,
            45.7322859
          ]
        ],
        "type": "LineString"
      },
      "properties": {
        "highway": "service",
        "name": "",
        "osm_way_id": "1491885376",
        "role": "BASEMAP_ROAD"
      },
      "type": "Feature"
    },
    {
      "geometry": {
        "coordinates": [
          [
            9.3909725,
            45.732271
          ],
          [
            9.3910877,
            45.7322803
          ],
          [
            9.3911292,
            45.7322859
          ],
          [
            9.3912131,
            45.7322569
          ],
          [
            9.3913029,
            45.7322419
          ],
          [
            9.3913954,
            45.7322391
          ],
          [
            9.3914799,
            45.7322513
          ],
          [
            9.3915376,
            45.7323028
          ],
          [
            9.3915577,
            45.7323795
          ],
          [
            9.3915624,
            45.7324179
          ]
        ],
        "type": "LineString"
      },
      "properties": {
        "highway": "service",
        "name": "",
        "osm_way_id": "1491885377",
        "role": "BASEMAP_ROAD"
      },
      "type": "Feature"
    },
    {
      "geometry": {
        "coordinates": [
          [
            9.3907839,
            45.7310473
          ],
          [
            9.3907173,
            45.7310637
          ],
          [
            9.3906167,
            45.7310903
          ],
          [
            9.3905353,
            45.7311142
          ],
          [
            9.3904393,
            45.7311522
          ],
          [
            9.3903789,
            45.7311876
          ],
          [
            9.390304,
            45.7312077
          ],
          [
            9.3902245,
            45.7312197
          ],
          [
            9.3899992,
            45.7312545
          ],
          [
            9.3899026,
            45.7312829
          ],
          [
            9.3898592,
            45.7313137
          ],
          [
            9.3898446,
            45.7313737
          ]
        ],
        "type": "LineString"
      },
      "properties": {
        "role": "CURRENT_SERVICE_LINK"
      },
      "type": "Feature"
    },
    {
      "geometry": {
        "coordinates": [
          [
            9.3907839,
            45.7310473
          ],
          [
            9.3907639,
            45.7310808
          ],
          [
            9.3907417,
            45.731138
          ],
          [
            9.3907624,
            45.7311412
          ],
          [
            9.3907897,
            45.7311493
          ],
          [
            9.3908136,
            45.7311615
          ],
          [
            9.3908343,
            45.7311784
          ],
          [
            9.3908486,
            45.7311983
          ],
          [
            9.3908556,
            45.7312194
          ],
          [
            9.3908553,
            45.7312412
          ],
          [
            9.3908466,
            45.7312643
          ],
          [
            9.3908296,
            45.7312852
          ],
          [
            9.3908138,
            45.7312972
          ],
          [
            9.3907953,
            45.7313072
          ],
          [
            9.3907687,
            45.7313163
          ],
          [
            9.3907398,
            45.731321
          ],
          [
            9.3907093,
            45.7313211
          ],
          [
            9.3906795,
            45.7313162
          ],
          [
            9.3906545,
            45.7313078
          ],
          [
            9.3906327,
            45.7312959
          ],
          [
            9.3905264,
            45.7312936
          ],
          [
            9.3904524,
            45.7312953
          ],
          [
            9.3903221,
            45.7313002
          ],
          [
            9.3898446,
            45.7313737
          ]
        ],
        "type": "LineString"
      },
      "properties": {
        "role": "MAIN_ROAD_BYPASS"
      },
      "type": "Feature"
    },
    {
      "geometry": {
        "coordinates": [
          9.3899992,
          45.7312545
        ],
        "type": "Point"
      },
      "properties": {
        "physical_boarding_authorised": false,
        "role": "CURRENT_ATTACHMENT",
        "site_id": "ASF::OLGIATE_MOLGORA_SCARPONE"
      },
      "type": "Feature"
    },
    {
      "geometry": {
        "coordinates": [
          9.3898446,
          45.7313737
        ],
        "type": "Point"
      },
      "properties": {
        "physical_boarding_authorised": false,
        "role": "HYPOTHETICAL_ATTACHMENT",
        "site_id": "ASF::OLGIATE_MOLGORA_SCARPONE"
      },
      "type": "Feature"
    }
  ],
  "type": "FeatureCollection"
}
