{"features":[{"geometry":{"coordinates":[9.37463,45.74366],"type":"Point"},"properties":{"attachment_distance_m":5.173133690795976,"existence_confidence":"HIGH_CURRENT_OPERATOR","feature_type":"EXISTING_INVENTORY_STOP_ENCOUNTERED_NOT_BOARDING_CERTIFIED","municipality":"Santa Maria Hoè","name":"Santa Maria Hoè - Via Como / Alpino","stop_place_id":"ASF::SANTA_MARIA_HOE_VIA_COMO"},"type":"Feature"},{"geometry":{"coordinates":[9.37478900610159,45.74386643462769],"type":"Point"},"properties":{"feature_type":"NEAREST_MODELED_ROAD_POINT_NOT_STOP_SITE","straight_line_distance_m":26.058,"traversal":"forward_west_then_east"},"type":"Feature"},{"geometry":{"coordinates":[[9.37463,45.74366],[9.37478900610159,45.74386643462769]],"type":"LineString"},"properties":{"distance_m":26.058,"feature_type":"STRAIGHT_LINE_SEPARATION_NOT_WALKING_PATH","traversal":"forward_west_then_east"},"type":"Feature"},{"geometry":{"coordinates":[9.37478900610159,45.74386643462769],"type":"Point"},"properties":{"feature_type":"NEAREST_MODELED_ROAD_POINT_NOT_STOP_SITE","straight_line_distance_m":26.058,"traversal":"reverse_east_then_west"},"type":"Feature"},{"geometry":{"coordinates":[[9.37463,45.74366],[9.37478900610159,45.74386643462769]],"type":"LineString"},"properties":{"distance_m":26.058,"feature_type":"STRAIGHT_LINE_SEPARATION_NOT_WALKING_PATH","traversal":"reverse_east_then_west"},"type":"Feature"}],"name":"RT031_VIA_COMO_WEST_SWAP_PROXIMITY_V3","properties":{"network_selected":false,"source_sha256":{"baseline":"4ad2cfdb9a045dac1df10ad6f2af3e6e42b7980af05cd401e60d1c996ab73999","road_audit":"9826aba477f56c5bd92dc14609b6334a55934aad2cedaa985a66c30c1c9f7c85","swap":"88eedcd7c0400e56608dd67450dbfceacddbe4d53a23fd13d6c8b13f3feb1b5d"},"status":"NON_DECISIONAL_STRAIGHT_LINE_GEOMETRY_ONLY"},"type":"FeatureCollection"}
