{
"type": "FeatureCollection",
"name": "_analysis_envelope_selected",
"crs": { "type": "name", "properties": { "name": "urn:ogc:def:crs:OGC:1.3:CRS84" } },
"features": [
{ "type": "Feature", "properties": { "feature_role": "ANALYSIS_ENVELOPE", "epistemic_status": "DERIVED_RULE_WITH_EXPLICIT_V1_GUARD_ASSUMPTIONS" }, "geometry": { "type": "Polygon", "coordinates": [ [ [ 9.320737210206811, 45.747932325320335 ], [ 9.320648178399612, 45.748404256715034 ], [ 9.320604851878644, 45.749543622702831 ], [ 9.320731852242501, 45.750679919037637 ], [ 9.321027798739031, 45.751800699841404 ], [ 9.321132429904232, 45.752106437281739 ], [ 9.321523286320245, 45.753056060398634 ], [ 9.322035515821689, 45.753976968461672 ], [ 9.322664905591214, 45.754861576969873 ], [ 9.323406277185324, 45.755702600035313 ], [ 9.323729647216528, 45.756034702429865 ], [ 9.324678582513251, 45.756910715350784 ], [ 9.325748880829222, 45.757715287367496 ], [ 9.326929636446918, 45.75844021667119 ], [ 9.328208816214117, 45.759078113036935 ], [ 9.329573382212279, 45.759622473259959 ], [ 9.331009424737733, 45.760067747546962 ], [ 9.33250230423555, 45.760409396180904 ], [ 9.334036800731923, 45.760643935877155 ], [ 9.335597269231878, 45.760768975354921 ], [ 9.337167799486458, 45.760783239758162 ], [ 9.337830044201494, 45.760742330461646 ], [ 9.337973803122672, 45.760741905306901 ], [ 9.339038947902038, 45.760713192977775 ], [ 9.340350151645875, 45.760646290441933 ], [ 9.341707311467713, 45.760534917215992 ], [ 9.343045268820219, 45.760340612982581 ], [ 9.34435369891192, 45.760064877200747 ], [ 9.345244492731794, 45.759846852224378 ], [ 9.345365654691562, 45.759856140057259 ], [ 9.346131850015427, 45.759853972868804 ], [ 9.34677658083657, 45.760302849606674 ], [ 9.346811066234553, 45.760324666027785 ], [ 9.347433734238566, 45.760825152644195 ], [ 9.348594238463919, 45.761585130283308 ], [ 9.349859475301432, 45.762258272933799 ], [ 9.351216242770324, 45.762837554941555 ], [ 9.352650382184382, 45.763316930090994 ], [ 9.352842214781379, 45.763364931758929 ], [ 9.35318955793405, 45.763576573310417 ], [ 9.354429108317246, 45.764193961249731 ], [ 9.355748901967326, 45.764723660321025 ], [ 9.357136318014485, 45.765160604348971 ], [ 9.358578087819042, 45.765500614190145 ], [ 9.360060422028001, 45.76574043776661 ], [ 9.361569142652144, 45.765877781221242 ], [ 9.363089818891195, 45.765911330893985 ], [ 9.364607905397493, 45.765840765907583 ], [ 9.364954934072889, 45.765812653103694 ], [ 9.366505131856256, 45.765631132008359 ], [ 9.368021243879546, 45.765341069079746 ], [ 9.369487794346281, 45.764945425287607 ], [ 9.370889814222867, 45.764448239288242 ], [ 9.372212994237021, 45.763854586131863 ], [ 9.373443831087958, 45.76317052537869 ], [ 9.373612672289733, 45.763055437854518 ], [ 9.374445141573055, 45.762667028746776 ], [ 9.37567251690581, 45.761957533143878 ], [ 9.375798333272771, 45.761868177553403 ], [ 9.377201193535656, 45.762044448329135 ], [ 9.378739695997304, 45.762129032267424 ], [ 9.380282602480298, 45.762106508554616 ], [ 9.381814726766393, 45.761977098909405 ], [ 9.383320988954205, 45.761742077075148 ], [ 9.38478656413486, 45.761403756260513 ], [ 9.386197028536124, 45.760965466332678 ], [ 9.386533392846649, 45.760831585986558 ], [ 9.38659112224923, 45.76082903162709 ], [ 9.388149309081946, 45.760647757154338 ], [ 9.389166978424504, 45.760453467682169 ], [ 9.390022496903788, 45.760614099473742 ], [ 9.391508372423074, 45.760787504446796 ], [ 9.39301124627479, 45.760859504455119 ], [ 9.394517023664637, 45.760829424270931 ], [ 9.396011582527228, 45.760697546029377 ], [ 9.397480906200997, 45.760465106576824 ], [ 9.397655033374198, 45.760424833311014 ], [ 9.399003846131754, 45.760341082021348 ], [ 9.400512266807421, 45.760141083108181 ], [ 9.401325306141992, 45.759973777583781 ], [ 9.401538959302519, 45.759939468080191 ], [ 9.402869206761389, 45.759681877272904 ], [ 9.403324839397877, 45.759562326473649 ], [ 9.403768154571498, 45.759494185311539 ], [ 9.404159737300796, 45.759581563953269 ], [ 9.404952971655542, 45.759742460521117 ], [ 9.405339263786207, 45.759813090279202 ], [ 9.406864296115167, 45.760035497769472 ], [ 9.408413465366859, 45.760150030551848 ], [ 9.409971233868299, 45.760155539928817 ], [ 9.411521977556982, 45.760051970673864 ], [ 9.413050142958911, 45.759840361584892 ], [ 9.413079282060183, 45.75983415320114 ], [ 9.41279448338044, 45.760253710515471 ], [ 9.412487646783342, 45.760735490926955 ], [ 9.412390927570243, 45.760897813579149 ], [ 9.412035871300025, 45.761493770833361 ], [ 9.411928776765283, 45.761673497179864 ], [ 9.411362991179912, 45.762790487297664 ], [ 9.410973940445942, 45.763943891330698 ], [ 9.410823929839431, 45.764529486832991 ], [ 9.410601590000503, 45.765873923903015 ], [ 9.410531223428931, 45.766801225717366 ], [ 9.41051665704475, 45.767713113365886 ], [ 9.410611152262938, 45.76862265678168 ], [ 9.410732326957854, 45.769360291642585 ], [ 9.410986089452809, 45.77043126055456 ], [ 9.411390959709456, 45.771479227058933 ], [ 9.411942922566803, 45.772493776742863 ], [ 9.412320343708934, 45.773095443120077 ], [ 9.413129700287229, 45.774207696192896 ], [ 9.414115637704517, 45.775247832923263 ], [ 9.414916780514488, 45.775996059768509 ], [ 9.415769856859999, 45.776798067883753 ], [ 9.416624506568409, 45.777532546244778 ], [ 9.416960368926611, 45.777796820283129 ], [ 9.417032743324189, 45.777875492002757 ], [ 9.417317479914521, 45.7781740723238 ], [ 9.418185882207444, 45.779052948826575 ], [ 9.418765943502668, 45.779571083409678 ], [ 9.418898002850533, 45.780444016293622 ], [ 9.419167451213783, 45.781399132572716 ], [ 9.419812816288468, 45.783247492408982 ], [ 9.419938586710597, 45.783656772886062 ], [ 9.420319221348025, 45.784660055075484 ], [ 9.420834665796097, 45.785633423760139 ], [ 9.421480243377822, 45.786568034494671 ], [ 9.422250094129048, 45.787455394578849 ], [ 9.423137227857973, 45.788287440287995 ], [ 9.424133587517886, 45.789056610216498 ], [ 9.425230122322148, 45.78975591406482 ], [ 9.426416869940141, 45.790378996241664 ], [ 9.427683047028424, 45.790920193699968 ], [ 9.429017147273678, 45.791374587477812 ], [ 9.43040704605389, 45.79173804747245 ], [ 9.431840110762137, 45.792007270037594 ], [ 9.433303315784409, 45.792179808059636 ], [ 9.434783361079027, 45.792254093237261 ], [ 9.436266793271516, 45.792229450360139 ], [ 9.436951797152798, 45.792195163008586 ], [ 9.438411986793028, 45.792073351199072 ], [ 9.439849222603005, 45.791855685948633 ], [ 9.441250674165389, 45.791544110456279 ], [ 9.442004181090034, 45.791348720262278 ], [ 9.443384532913795, 45.790936803026177 ], [ 9.444701753590486, 45.790433807533063 ], [ 9.445943598651422, 45.789844410189126 ], [ 9.447098525440866, 45.789174090521954 ], [ 9.448155800484431, 45.788429080165194 ], [ 9.449105599282417, 45.787616304849209 ], [ 9.449939097598797, 45.786743319940193 ], [ 9.450648553397695, 45.785818240130908 ], [ 9.451227378668346, 45.784849663939994 ], [ 9.45167020047537, 45.783846593725073 ], [ 9.451781149289776, 45.783469728787296 ], [ 9.45217245559857, 45.782869919235338 ], [ 9.45264297518213, 45.781897262055949 ], [ 9.452969036533583, 45.781471826288147 ], [ 9.453546374120108, 45.780505692501706 ], [ 9.454174310919997, 45.779294229626245 ], [ 9.454217050197126, 45.779237375833759 ], [ 9.45469296727194, 45.778518254182167 ], [ 9.454899159109015, 45.77823476156312 ], [ 9.455184174537829, 45.777908137164687 ], [ 9.455758941760029, 45.777189725958515 ], [ 9.456254491160507, 45.776442982333322 ], [ 9.456504769438558, 45.776025169242182 ], [ 9.456837867414039, 45.775469178640648 ], [ 9.45755026178732, 45.773991098593228 ], [ 9.458041039126046, 45.772666025038816 ], [ 9.458050978166529, 45.772639047443811 ], [ 9.4583684048448, 45.771772858850291 ], [ 9.458720591134295, 45.771177469597518 ], [ 9.458800262028296, 45.771040143048033 ], [ 9.459446854910086, 45.769903470906939 ], [ 9.459965402475106, 45.76883336294798 ], [ 9.460322706412537, 45.767731411493486 ], [ 9.460514929416133, 45.766609480721272 ], [ 9.460540011996013, 45.765479649204224 ], [ 9.460535922970616, 45.765400985619664 ], [ 9.461262911292376, 45.764855032507533 ], [ 9.462188757156156, 45.764006345231763 ], [ 9.46299138015956, 45.763098273931497 ], [ 9.463663068538013, 45.76213955052296 ], [ 9.464197370609813, 45.761139393527621 ], [ 9.464660839074689, 45.760122374423666 ], [ 9.46531159330962, 45.759483104254969 ], [ 9.465971280272841, 45.758778940338154 ], [ 9.466608037936641, 45.758038288631127 ], [ 9.467233514752287, 45.757236413556697 ], [ 9.467598684154703, 45.756717624730562 ], [ 9.467964222793572, 45.75627614268884 ], [ 9.468861312122092, 45.755480369815629 ], [ 9.469756550184838, 45.754479947767607 ], [ 9.470049182163114, 45.754109726462055 ], [ 9.470839653677093, 45.752953918295177 ], [ 9.471430691015488, 45.751741109845291 ], [ 9.471619517111417, 45.751263292863626 ], [ 9.471624545350117, 45.751250538847138 ], [ 9.471876298125624, 45.750610449991889 ], [ 9.472013977491246, 45.750234314931525 ], [ 9.472252317101836, 45.749531276207563 ], [ 9.472557210717991, 45.74834130031342 ], [ 9.472671823445527, 45.74713499721129 ], [ 9.472688480440322, 45.746063836900198 ], [ 9.472616563363434, 45.744892561537569 ], [ 9.472365247185634, 45.743733484269548 ], [ 9.471937454876969, 45.742600035219752 ], [ 9.471338153427066, 45.74150534676761 ], [ 9.47096038954944, 45.740912868727953 ], [ 9.470445881122407, 45.740180863651723 ], [ 9.469854570441624, 45.739477878537116 ], [ 9.469401528662868, 45.7389826681298 ], [ 9.469295929688052, 45.738867260833246 ], [ 9.468481869329249, 45.738060599144923 ], [ 9.467566807480976, 45.737308893640801 ], [ 9.467004563618174, 45.736887330348395 ], [ 9.466221601378743, 45.736287109920433 ], [ 9.465216116712455, 45.735583706126803 ], [ 9.464736547936136, 45.735277556988272 ], [ 9.464635598494468, 45.735213697774498 ], [ 9.46456440366461, 45.734974031534456 ], [ 9.464505613533735, 45.734811441288862 ], [ 9.464357389687692, 45.734322524242266 ], [ 9.463820205100115, 45.733184646909415 ], [ 9.463761836283282, 45.733080600885678 ], [ 9.463740893229081, 45.733049032330541 ], [ 9.463479519124492, 45.732522764210806 ], [ 9.463390677481382, 45.732369093416331 ], [ 9.463293256159114, 45.732204466230478 ], [ 9.463238789686534, 45.732114513713405 ], [ 9.463234946898284, 45.732108748725622 ], [ 9.463519813857546, 45.731641819564778 ], [ 9.464127129089217, 45.730462738587107 ], [ 9.464316875814761, 45.730015157713602 ], [ 9.46452733386033, 45.729725056566885 ], [ 9.4651336814535, 45.728780528077436 ], [ 9.465609171086092, 45.727799933272664 ], [ 9.465949509554051, 45.72679214033041 ], [ 9.466151626468832, 45.725766262918228 ], [ 9.466213701768609, 45.724731577744834 ], [ 9.466135181905102, 45.723697440654774 ], [ 9.465916784569529, 45.722673202025639 ], [ 9.4655728934846, 45.72170310691002 ], [ 9.465592909736657, 45.721523549447419 ], [ 9.465593796846877, 45.720683163155307 ], [ 9.46552732508759, 45.719453684413836 ], [ 9.465514988339148, 45.717968210696966 ], [ 9.46555087489798, 45.716803058817476 ], [ 9.465511757723185, 45.715761203675825 ], [ 9.465330659053137, 45.714726738029391 ], [ 9.465009245035713, 45.713709134736021 ], [ 9.464733542565453, 45.712999183057391 ], [ 9.464250675228698, 45.711963380333692 ], [ 9.463622500245478, 45.710966561171148 ], [ 9.462855311891033, 45.710018701705323 ], [ 9.461956794553608, 45.709129287602373 ], [ 9.460935945628268, 45.708307219212436 ], [ 9.459802985332489, 45.707560722592845 ], [ 9.458569254350964, 45.706897267286593 ], [ 9.457247100336151, 45.706323491674581 ], [ 9.455849754399665, 45.705845136643632 ], [ 9.454391198827135, 45.705466988229603 ], [ 9.452886027334182, 45.705192829805348 ], [ 9.451349299253547, 45.7050254042883 ], [ 9.449796389102007, 45.704966386742491 ], [ 9.448242833020412, 45.705016367647303 ], [ 9.447042197527264, 45.705140032951313 ], [ 9.446484688092973, 45.705159108737817 ], [ 9.445153895412114, 45.705285958769551 ], [ 9.445134365190174, 45.70528904224161 ], [ 9.445077370708688, 45.705293650503805 ], [ 9.444811788385858, 45.705301320978393 ], [ 9.444637195827474, 45.705310738591919 ], [ 9.443048294503075, 45.705454449648791 ], [ 9.441488932023978, 45.705711963811616 ], [ 9.439975664584935, 45.70608054708606 ], [ 9.438524559813793, 45.706556286188629 ], [ 9.437151026412542, 45.707134130026276 ], [ 9.435869650737889, 45.707807943241541 ], [ 9.434694042046042, 45.708570571259536 ], [ 9.434585076548856, 45.708657483695738 ], [ 9.43452980029282, 45.708672505640152 ], [ 9.433158842389615, 45.709159104794622 ], [ 9.431863140698653, 45.709738153465203 ], [ 9.430744612480654, 45.710354789346276 ], [ 9.430675453137225, 45.710320571031232 ], [ 9.4299148644246, 45.709981420186296 ], [ 9.428254602157653, 45.709337277718369 ], [ 9.42649470619026, 45.708839649530887 ], [ 9.426404507912716, 45.708818530074637 ], [ 9.425849192066771, 45.708688562719765 ], [ 9.424317234205406, 45.708390075775299 ], [ 9.422749779815138, 45.708202773213578 ], [ 9.421163220569902, 45.708128613766277 ], [ 9.41957414759405, 45.708168372977418 ], [ 9.418754680389695, 45.708248119112895 ], [ 9.418365841958241, 45.707974130835247 ], [ 9.41721993667892, 45.707308194532949 ], [ 9.415988382223075, 45.706722104139253 ], [ 9.414989294222675, 45.706338914346368 ], [ 9.414939371059642, 45.705394237607138 ], [ 9.414743979783717, 45.704365667211434 ], [ 9.414409776999818, 45.703354792921644 ], [ 9.413939803455641, 45.702370789842895 ], [ 9.413338331588998, 45.701422588718088 ], [ 9.412610826519821, 45.700518794917954 ], [ 9.411763896251982, 45.699667610398357 ], [ 9.410805231543829, 45.698876759330453 ], [ 9.409743535998441, 45.69815341807594 ], [ 9.409375054940584, 45.697925257142906 ], [ 9.409366373229235, 45.697919738635946 ], [ 9.409239804152403, 45.697840165204283 ], [ 9.409011323349754, 45.697698092557516 ], [ 9.408645227771226, 45.697470447460368 ], [ 9.407517127541279, 45.696832307108252 ], [ 9.406309103147336, 45.696270592502053 ], [ 9.405329978300383, 45.69586005294768 ], [ 9.405249344659225, 45.695829811992319 ], [ 9.405201666669052, 45.695794189034586 ], [ 9.404092277890525, 45.695109217416643 ], [ 9.402895047987865, 45.69450121236293 ], [ 9.401620810914604, 45.693975674518448 ], [ 9.400281096285935, 45.693537358307701 ], [ 9.398888025158799, 45.693190228985678 ], [ 9.39745420050231, 45.692937426821331 ], [ 9.395992593343447, 45.692781238734817 ], [ 9.394516425610631, 45.692723077643215 ], [ 9.393039050726664, 45.692763469699877 ], [ 9.391573833022193, 45.692902049542091 ], [ 9.390134027051118, 45.693137563589573 ], [ 9.388732657890182, 45.693467881364256 ], [ 9.388066038661613, 45.693650170600748 ], [ 9.386645381589588, 45.694097337420217 ], [ 9.385295696250379, 45.694641885981071 ], [ 9.384672913000335, 45.694955192310083 ], [ 9.383933319776487, 45.695248980997142 ], [ 9.382726068571362, 45.695840915709773 ], [ 9.381604208769131, 45.696510294988897 ], [ 9.380737493615642, 45.697135861892633 ], [ 9.380245187055502, 45.697223906619456 ], [ 9.378828440412034, 45.697582742422902 ], [ 9.377467904539717, 45.698035991361103 ], [ 9.376176356705407, 45.698579397322582 ], [ 9.374965927350898, 45.699207857459236 ], [ 9.373847986269208, 45.699915470033602 ], [ 9.37283303587223, 45.700695589764152 ], [ 9.372282627795101, 45.701211161171081 ], [ 9.37186653376194, 45.701516303671788 ], [ 9.370892809532716, 45.702394534164284 ], [ 9.370572755703243, 45.702753556946675 ], [ 9.370404874220295, 45.702868118310413 ], [ 9.369156516547656, 45.703828048460437 ], [ 9.368080068554535, 45.70488525819362 ], [ 9.367898156090337, 45.705088546838816 ], [ 9.367270276102184, 45.705292559484825 ], [ 9.36602501782882, 45.70580017119287 ], [ 9.364852160380762, 45.706386367570012 ], [ 9.364663338166517, 45.70650061823185 ], [ 9.36439085032279, 45.706624913048522 ], [ 9.363565953654629, 45.7070908569439 ], [ 9.362572628848923, 45.707366966801537 ], [ 9.361898874907206, 45.707612735921543 ], [ 9.361849248276968, 45.707619954477856 ], [ 9.360508144976389, 45.707859095719698 ], [ 9.35920269838261, 45.708180837981189 ], [ 9.357943249599789, 45.708582632756666 ], [ 9.357319985150973, 45.708830529984439 ], [ 9.357319547306131, 45.708830439930885 ], [ 9.355833704184729, 45.708632163328176 ], [ 9.354327396520473, 45.708535974872959 ], [ 9.352814877227779, 45.708542784740736 ], [ 9.35131045790083, 45.708652528520091 ], [ 9.349828373630878, 45.708864167820188 ], [ 9.348382648540856, 45.709175700078589 ], [ 9.346986963298875, 45.709584177477204 ], [ 9.345654525854044, 45.710085734789274 ], [ 9.344397946608686, 45.710675625895639 ], [ 9.343229119200446, 45.711348268627951 ], [ 9.342159108016574, 45.712097297517374 ], [ 9.341198043500791, 45.7129156239533 ], [ 9.34035502624171, 45.713795503186596 ], [ 9.339638040750851, 45.714728607547059 ], [ 9.339053879748878, 45.715706105185916 ], [ 9.338825273557108, 45.716147823361382 ], [ 9.338614643472491, 45.716642714688128 ], [ 9.338089953504744, 45.717250477084093 ], [ 9.337679723304207, 45.717801596242957 ], [ 9.337427773902931, 45.717965210699965 ], [ 9.336441654034028, 45.718740403434765 ], [ 9.335565374714273, 45.719577845826123 ], [ 9.334806902934941, 45.720469928837694 ], [ 9.334173136288971, 45.721408546592642 ], [ 9.3336698401421, 45.722385169962848 ], [ 9.333543048461161, 45.722673563573849 ], [ 9.333179064284735, 45.7236648798375 ], [ 9.332991036029544, 45.724493031936888 ], [ 9.332620474728449, 45.724938048233646 ], [ 9.331980815543135, 45.725917304486636 ], [ 9.331482343174827, 45.726936015638358 ], [ 9.331266724785246, 45.72757736448601 ], [ 9.330639378833087, 45.728268150899424 ], [ 9.329944551294338, 45.729232635778061 ], [ 9.329389556170849, 45.730240582510177 ], [ 9.328979860713652, 45.731282075752006 ], [ 9.328719503576295, 45.732346869600121 ], [ 9.328611054780277, 45.733424488342266 ], [ 9.328655590101718, 45.734504329490733 ], [ 9.328665418878412, 45.734557762568393 ], [ 9.328554020884319, 45.734780572512896 ], [ 9.328539505714652, 45.734796690771084 ], [ 9.327785087705847, 45.735734057069983 ], [ 9.327166416489844, 45.736718975124255 ], [ 9.326689536794575, 45.737741833404904 ], [ 9.326455033542583, 45.738487600813251 ], [ 9.326111061268779, 45.738794995105003 ], [ 9.325548804493957, 45.739132734601377 ], [ 9.324486078901959, 45.739911210434485 ], [ 9.323538321101417, 45.740759364383727 ], [ 9.322714800315444, 45.741668906207089 ], [ 9.322023572611259, 45.742630945212866 ], [ 9.321471401982533, 45.743636077085611 ], [ 9.321063694007874, 45.744674475746393 ], [ 9.320804442742142, 45.745735989352816 ], [ 9.32069619136964, 45.746810239503205 ], [ 9.320693725128454, 45.746892553770103 ], [ 9.32072732581797, 45.747871883115941 ], [ 9.320737210206811, 45.747932325320335 ] ] ] } }
]
}
