{
"type": "FeatureCollection",
"name": "comuni_core_istat_2026",
"crs": { "type": "name", "properties": { "name": "urn:ogc:def:crs:OGC:1.3:CRS84" } },
"features": [
{ "type": "Feature", "properties": { "COD_RIP": 1, "COD_REG": 3, "COD_PROV": 97, "COD_CM": 0, "COD_UTS": 97, "PRO_COM": 97010, "PRO_COM_T": "097010", "COMUNE": "Brivio", "COMUNE_A": null, "CC_UTS": 0, "Shape_Leng": 19186.931790899998, "Shape_Area": 7953665.1137199998 }, "geometry": { "type": "Polygon", "coordinates": [ [ [ 9.436196331862304, 45.779346507603911 ], [ 9.43644962674666, 45.779005077126591 ], [ 9.437115250273218, 45.779020449375061 ], [ 9.437702682461234, 45.778856928657007 ], [ 9.438029108342285, 45.778049330931182 ], [ 9.438225870345525, 45.777027186532877 ], [ 9.438299683484216, 45.776650606457522 ], [ 9.438915081019381, 45.776791581198751 ], [ 9.439903344003147, 45.774885887268191 ], [ 9.440094524301319, 45.774660135148231 ], [ 9.440691937949218, 45.773757770612022 ], [ 9.44130268563319, 45.77291833827843 ], [ 9.441358079594883, 45.772854897020011 ], [ 9.441901794352468, 45.772231979471172 ], [ 9.442152338412118, 45.771813901887626 ], [ 9.442485731563554, 45.771257656978293 ], [ 9.442976842650573, 45.769932646272892 ], [ 9.443568523858209, 45.768319241389236 ], [ 9.444342645885225, 45.767011134594561 ], [ 9.44498948711383, 45.76587454255565 ], [ 9.44494389087164, 45.764992647529269 ], [ 9.444926747755169, 45.76491024426182 ], [ 9.44475670171132, 45.764093312961379 ], [ 9.444963797014898, 45.762643405085782 ], [ 9.445324320413823, 45.761084879909824 ], [ 9.445847050474804, 45.760515816027485 ], [ 9.446408042161607, 45.759910621585568 ], [ 9.447352455873789, 45.759015859776646 ], [ 9.448377096100325, 45.758507800455909 ], [ 9.449374618418577, 45.757828832704668 ], [ 9.44989266863409, 45.756692699517359 ], [ 9.449939868525641, 45.756444523557825 ], [ 9.450127121577363, 45.755458764178286 ], [ 9.450713205914735, 45.754790399904714 ], [ 9.45197905531777, 45.753813333791129 ], [ 9.45264157811784, 45.753162647698872 ], [ 9.453278449393572, 45.752422069128215 ], [ 9.453875855754703, 45.751573641057831 ], [ 9.454560207936982, 45.750747354015466 ], [ 9.454918101362026, 45.750093387157833 ], [ 9.45562074195167, 45.749541548037101 ], [ 9.456145115930827, 45.749206419952358 ], [ 9.456437810887733, 45.748836232930145 ], [ 9.456626755506729, 45.748358440035112 ], [ 9.456878667227524, 45.747718383300274 ], [ 9.457117186635347, 45.747015375157524 ], [ 9.457134141137312, 45.745944215959291 ], [ 9.456756496843072, 45.745351690958124 ], [ 9.456303522548932, 45.744856428862938 ], [ 9.456198676245618, 45.744741815198097 ], [ 9.455577840593076, 45.744276250441686 ], [ 9.454736992315075, 45.743631555622073 ], [ 9.454257411227095, 45.743325362973174 ], [ 9.454048305082544, 45.743194273663157 ], [ 9.453955396216728, 45.743138993866857 ], [ 9.453871245577101, 45.743085914090777 ], [ 9.453147738298076, 45.742638752538433 ], [ 9.452879470054686, 45.742453033382148 ], [ 9.452656496925856, 45.74229867100459 ], [ 9.451979641906149, 45.741855814836008 ], [ 9.451157250207306, 45.741296532123584 ], [ 9.450548847528491, 45.74106533710377 ], [ 9.450383630466995, 45.741002548445628 ], [ 9.450171387564598, 45.740784604308104 ], [ 9.450031936819364, 45.740641407017989 ], [ 9.44996005072373, 45.740586754000731 ], [ 9.449647607995526, 45.740360388101408 ], [ 9.449435968270853, 45.740159282426866 ], [ 9.449409419037348, 45.740122961675581 ], [ 9.449386255901441, 45.740092273777769 ], [ 9.449198065555462, 45.739886319415099 ], [ 9.449087349369936, 45.739657534927069 ], [ 9.449161829668949, 45.739355448350693 ], [ 9.449166242224589, 45.739305230144382 ], [ 9.44917058990762, 45.739255739454194 ], [ 9.449196601512668, 45.739187574313583 ], [ 9.449273752229841, 45.738855740414813 ], [ 9.449253490314097, 45.738561475284335 ], [ 9.449396104943729, 45.73833965851162 ], [ 9.449522039713255, 45.737965258694352 ], [ 9.449487259424366, 45.737646294072967 ], [ 9.449393056927152, 45.737385573108583 ], [ 9.449344389297774, 45.737165971198394 ], [ 9.449286043103232, 45.737061917766631 ], [ 9.449147957535937, 45.736925463613581 ], [ 9.449063536559004, 45.73660889193021 ], [ 9.449022750337068, 45.736539738217779 ], [ 9.448974727805377, 45.736455209912108 ], [ 9.448920280084701, 45.736365250565434 ], [ 9.448856986556622, 45.736278481613333 ], [ 9.448730243935554, 45.736179166349402 ], [ 9.448504391259794, 45.735996432091689 ], [ 9.448287780793173, 45.735826915651458 ], [ 9.4479269375967, 45.73599881447948 ], [ 9.446762179647742, 45.735004282374433 ], [ 9.446035133517533, 45.734089064203609 ], [ 9.445835162117815, 45.733189775562806 ], [ 9.446998434080722, 45.731788988777616 ], [ 9.44705857675868, 45.731699476566959 ], [ 9.447111969877689, 45.731621175101061 ], [ 9.44716627605766, 45.731542798029288 ], [ 9.447260868400107, 45.731438201482341 ], [ 9.446887714489213, 45.731403518145285 ], [ 9.446218326773542, 45.731271128213933 ], [ 9.446109595271389, 45.731177510911245 ], [ 9.445739520764205, 45.730858962406863 ], [ 9.445272998994657, 45.730374749470265 ], [ 9.444595279426181, 45.730809411651052 ], [ 9.443930467653544, 45.731253034800822 ], [ 9.443480288792619, 45.731209768427753 ], [ 9.442632432300492, 45.731258071017805 ], [ 9.442368391139492, 45.73120018087954 ], [ 9.442027305965814, 45.731125407550238 ], [ 9.441034677871752, 45.730742196721557 ], [ 9.440239052886975, 45.730898281137847 ], [ 9.439574513506319, 45.731377879180499 ], [ 9.438893708722537, 45.731425511180298 ], [ 9.438536943195814, 45.731035133150236 ], [ 9.438336287594245, 45.730815586652568 ], [ 9.437242894069463, 45.730693783453603 ], [ 9.435688524011869, 45.730789713956518 ], [ 9.434347611566404, 45.730236783069586 ], [ 9.434470875428454, 45.729561263240484 ], [ 9.433456371131353, 45.729664122519779 ], [ 9.433488942353183, 45.728889940951213 ], [ 9.433431970984513, 45.728170091082667 ], [ 9.432790452580145, 45.72830753020331 ], [ 9.431509069738281, 45.728798429897864 ], [ 9.430021128977984, 45.729173059278843 ], [ 9.429323784984906, 45.729364699082737 ], [ 9.427494612978455, 45.72986660704894 ], [ 9.426495813551336, 45.730347361296126 ], [ 9.425575253021046, 45.730980849260277 ], [ 9.424873186541181, 45.731613517417642 ], [ 9.424849995587353, 45.731946622423713 ], [ 9.424003132476811, 45.732129790171101 ], [ 9.423590841732103, 45.731996312377639 ], [ 9.422859219955317, 45.732125033379845 ], [ 9.422377141212365, 45.73221680903324 ], [ 9.42202907032897, 45.732281248316426 ], [ 9.422039867071428, 45.732551093034338 ], [ 9.422276837167397, 45.73329726898681 ], [ 9.422285739582343, 45.733619305310498 ], [ 9.422294498378886, 45.733936254910219 ], [ 9.421640039988311, 45.734073678192189 ], [ 9.420522187055903, 45.734122812748545 ], [ 9.420482270041129, 45.734042085934178 ], [ 9.420313383910408, 45.733700533136698 ], [ 9.420157475201313, 45.733476089996238 ], [ 9.419927117440745, 45.733611961976294 ], [ 9.419645176409423, 45.733720999047812 ], [ 9.418899533951093, 45.733696731229699 ], [ 9.418049576921574, 45.733474826902039 ], [ 9.417637357335046, 45.73335032276745 ], [ 9.417459297855684, 45.733602996022874 ], [ 9.417157571651316, 45.733816520795322 ], [ 9.417113773090911, 45.733847515547041 ], [ 9.417075749856464, 45.733874434351684 ], [ 9.417036721948376, 45.733874996251963 ], [ 9.416905138759253, 45.733888952429091 ], [ 9.416848089406521, 45.733893807685938 ], [ 9.416523420167069, 45.733921439645577 ], [ 9.416435992123432, 45.734263791240537 ], [ 9.416297089772673, 45.734597315143617 ], [ 9.416237305051109, 45.734830100258399 ], [ 9.416289730357352, 45.734903374435738 ], [ 9.416454993334558, 45.735091788322791 ], [ 9.417550508450141, 45.735492810068351 ], [ 9.417898906122302, 45.735595130616559 ], [ 9.418155935247677, 45.735670615720835 ], [ 9.418604662607924, 45.735551670908499 ], [ 9.418728715407351, 45.735518732553963 ], [ 9.418810142222664, 45.735497129279892 ], [ 9.418870724813249, 45.735491712844684 ], [ 9.419157257998188, 45.735504936318058 ], [ 9.419404917633191, 45.73596305674937 ], [ 9.41965012859419, 45.736097162468091 ], [ 9.420318229457406, 45.736058706198783 ], [ 9.420718007989212, 45.736237255525836 ], [ 9.420928945739789, 45.736938534818265 ], [ 9.421485020353687, 45.737386517683973 ], [ 9.422012944318565, 45.737510580536885 ], [ 9.422076473438006, 45.737808653732181 ], [ 9.421954971695744, 45.738282234030727 ], [ 9.421876851981505, 45.738400617943626 ], [ 9.421584019518324, 45.738844366323036 ], [ 9.421549269782149, 45.738919557309515 ], [ 9.42151234557935, 45.738999434903512 ], [ 9.42146967740689, 45.739036862672172 ], [ 9.421383339734613, 45.739112597628228 ], [ 9.421087728779339, 45.739371899598119 ], [ 9.420440166124829, 45.739742270682328 ], [ 9.419696575860787, 45.7398444711338 ], [ 9.419400685159742, 45.73990537494128 ], [ 9.419164833698558, 45.739951254175423 ], [ 9.418627651730318, 45.740313246959346 ], [ 9.418950618715275, 45.740528085001266 ], [ 9.41929903863902, 45.740706808571254 ], [ 9.419582565945765, 45.740804773361297 ], [ 9.419802374090361, 45.740974992072417 ], [ 9.41955138718914, 45.741158680738479 ], [ 9.419431601620344, 45.741246366709241 ], [ 9.418982783820706, 45.74176001266941 ], [ 9.418934525865714, 45.741815239169973 ], [ 9.418588748295479, 45.741602286655144 ], [ 9.418353404917763, 45.741457345341651 ], [ 9.417862072456305, 45.741311405803799 ], [ 9.417335638354286, 45.741155037181073 ], [ 9.417286705839736, 45.741194751745716 ], [ 9.417212079075227, 45.741255154756807 ], [ 9.416901195131821, 45.741507650184566 ], [ 9.416453565109347, 45.741815313887138 ], [ 9.416801851294181, 45.741976055703908 ], [ 9.416663133211367, 45.742336584801315 ], [ 9.41651107086247, 45.742634157052649 ], [ 9.415676062829823, 45.742709198694207 ], [ 9.41498485273773, 45.743107753677457 ], [ 9.414862432755621, 45.743936263316414 ], [ 9.415099690077763, 45.744727449089169 ], [ 9.415684190350293, 45.745535398134152 ], [ 9.416035328163275, 45.746100900144903 ], [ 9.416074517544729, 45.746164012921135 ], [ 9.416159855653648, 45.746322789503196 ], [ 9.4162048824703, 45.746406562896681 ], [ 9.416270545424515, 45.746391876573121 ], [ 9.416441234938263, 45.746353890636136 ], [ 9.41751400106927, 45.746113764254055 ], [ 9.418667209293794, 45.745605501248875 ], [ 9.418988993795784, 45.745658331573857 ], [ 9.419017477087824, 45.746027264270204 ], [ 9.420536501781326, 45.746300690352122 ], [ 9.421978941279894, 45.74664639952173 ], [ 9.423318085769989, 45.746929467968968 ], [ 9.423573335121814, 45.747005698003086 ], [ 9.423642168916404, 45.747026255230011 ], [ 9.423680163396938, 45.747037602001583 ], [ 9.423740562629781, 45.747055639633508 ], [ 9.423819209892725, 45.74707912610458 ], [ 9.424181391203462, 45.747187284263788 ], [ 9.42438378681697, 45.747086972660661 ], [ 9.424693725827858, 45.746933359082497 ], [ 9.424769742768811, 45.746892578514142 ], [ 9.425218603365227, 45.746643384605818 ], [ 9.425841509379653, 45.746561705002954 ], [ 9.425898334735711, 45.746556568880017 ], [ 9.425955411174249, 45.746546414773782 ], [ 9.426018203247025, 45.746538952153749 ], [ 9.426057596836419, 45.746531909783684 ], [ 9.426113743818711, 45.746526159531783 ], [ 9.426192697842923, 45.746515423269493 ], [ 9.426760087724215, 45.74645497958803 ], [ 9.427260849150018, 45.746401754252929 ], [ 9.427422336373766, 45.746086121218084 ], [ 9.427473680852856, 45.746045303330504 ], [ 9.427808887085153, 45.745778662387544 ], [ 9.42795118497464, 45.745788083412648 ], [ 9.428451993426631, 45.745821249099869 ], [ 9.429136568665591, 45.746241707145614 ], [ 9.42963634263698, 45.746032822393346 ], [ 9.430293894082219, 45.746282368020026 ], [ 9.430616838493394, 45.746223788616078 ], [ 9.431256729959275, 45.746107713593943 ], [ 9.431902621650115, 45.746510310353315 ], [ 9.431937362546192, 45.746532686299837 ], [ 9.432707009873232, 45.74703413024384 ], [ 9.432768323162598, 45.747074083671109 ], [ 9.433476857856336, 45.747260413457958 ], [ 9.434451041041756, 45.747281653438115 ], [ 9.43453122797264, 45.747283413269599 ], [ 9.435560714513551, 45.747414499122101 ], [ 9.436024444357821, 45.747641025365994 ], [ 9.43621889492271, 45.747736010598004 ], [ 9.436507071976683, 45.74830040907176 ], [ 9.436558327065301, 45.748400768708024 ], [ 9.436627649296245, 45.749048546899417 ], [ 9.43651651983871, 45.749634011121557 ], [ 9.436917920272014, 45.750001512847469 ], [ 9.437420371237538, 45.750134597013606 ], [ 9.437768767756936, 45.750295274276958 ], [ 9.437590536269665, 45.750520972987175 ], [ 9.438017470340792, 45.750757864893551 ], [ 9.437595459853613, 45.75115100719335 ], [ 9.437366644439111, 45.751484900976997 ], [ 9.436982958842487, 45.751685450246832 ], [ 9.436828838808934, 45.75176598510685 ], [ 9.436754104405868, 45.752072283492424 ], [ 9.436912632141683, 45.752571659648297 ], [ 9.436935322508369, 45.752643135979575 ], [ 9.436964997187165, 45.752737530286161 ], [ 9.437137205041557, 45.753384933948212 ], [ 9.437859291218889, 45.753652180386197 ], [ 9.438952569074345, 45.753701996100126 ], [ 9.439393972434704, 45.753731802013313 ], [ 9.439556917585776, 45.753742069745492 ], [ 9.439595777041029, 45.753744519653182 ], [ 9.439557757199799, 45.753812167883616 ], [ 9.439418247178711, 45.754060228481073 ], [ 9.439613104395288, 45.754311499618964 ], [ 9.439439551595052, 45.754820090686387 ], [ 9.4393240126309, 45.755158666660023 ], [ 9.43922560982867, 45.755726092384243 ], [ 9.43983075805567, 45.75583176517172 ], [ 9.439901059054435, 45.755861154650944 ], [ 9.439981297437184, 45.755894708263639 ], [ 9.440385472907497, 45.75606366017729 ], [ 9.44046744221243, 45.756675387089317 ], [ 9.440921366566645, 45.757168663206691 ], [ 9.441178666106424, 45.757285912627005 ], [ 9.441425356077595, 45.757402526501316 ], [ 9.441472132464055, 45.757438558426863 ], [ 9.441941112452701, 45.757668765396097 ], [ 9.441531714284674, 45.75793136502697 ], [ 9.440710498676454, 45.758150555941789 ], [ 9.439530446314748, 45.758524120894805 ], [ 9.438454249039717, 45.759023301589281 ], [ 9.437416657860725, 45.759531320536119 ], [ 9.436573744986788, 45.760272598093756 ], [ 9.435693165661823, 45.761131009849976 ], [ 9.434810646138631, 45.761746432122074 ], [ 9.433809948261336, 45.762047252820942 ], [ 9.432216076880719, 45.762134290043228 ], [ 9.430802688068113, 45.762283647745988 ], [ 9.429442312790345, 45.762639795522688 ], [ 9.428596766256248, 45.763057002080608 ], [ 9.427880906377908, 45.763617717549039 ], [ 9.427345230121349, 45.76419576423131 ], [ 9.426849268498097, 45.764926675866228 ], [ 9.426752583868922, 45.765089010434238 ], [ 9.426397774370962, 45.765684810305778 ], [ 9.4262905541281, 45.765864825192438 ], [ 9.426140698926185, 45.766450440056666 ], [ 9.426070589246454, 45.767377750436054 ], [ 9.426191964784479, 45.768115368348447 ], [ 9.426569508925375, 45.768716987679198 ], [ 9.4273855750456, 45.769478995293206 ], [ 9.428253518241503, 45.770294811334097 ], [ 9.429392166794937, 45.771190601055423 ], [ 9.43011848526251, 45.771979930018247 ], [ 9.430986991084669, 45.772858709804922 ], [ 9.431891683321579, 45.773422340158199 ], [ 9.432920463810454, 45.77340043719834 ], [ 9.433947941757678, 45.773207542538479 ], [ 9.434400241184692, 45.773484830501793 ], [ 9.434520201117156, 45.774024415096889 ], [ 9.43465567734509, 45.774905970974991 ], [ 9.434880632812973, 45.775715166870988 ], [ 9.434797521857684, 45.776606548496225 ], [ 9.434471749636858, 45.777723869593352 ], [ 9.434287269582672, 45.77881364687849 ], [ 9.43498454289573, 45.780809127234932 ], [ 9.435155985378545, 45.781366541963436 ], [ 9.435840856995615, 45.781332261685634 ], [ 9.436594245773467, 45.781136907249348 ], [ 9.436308065403242, 45.780546659972984 ], [ 9.436175196310703, 45.779920011176849 ], [ 9.436196331862304, 45.779346507603911 ] ] ] } },
{ "type": "Feature", "properties": { "COD_RIP": 1, "COD_REG": 3, "COD_PROV": 97, "COD_CM": 0, "COD_UTS": 97, "PRO_COM": 97012, "PRO_COM_T": "097012", "COMUNE": "Calco", "COMUNE_A": null, "CC_UTS": 0, "Shape_Leng": 15378.097760500001, "Shape_Area": 4588898.91414 }, "geometry": { "type": "Polygon", "coordinates": [ [ [ 9.417157571651316, 45.733816520795322 ], [ 9.417459297855684, 45.733602996022874 ], [ 9.417637357335046, 45.73335032276745 ], [ 9.418049576921574, 45.733474826902039 ], [ 9.418899533951093, 45.733696731229699 ], [ 9.419645176409423, 45.733720999047812 ], [ 9.419927117440745, 45.733611961976294 ], [ 9.420157475201313, 45.733476089996238 ], [ 9.420313383910408, 45.733700533136698 ], [ 9.420482270041129, 45.734042085934178 ], [ 9.420522187055903, 45.734122812748545 ], [ 9.421640039988311, 45.734073678192189 ], [ 9.422294498378886, 45.733936254910219 ], [ 9.422285739582343, 45.733619305310498 ], [ 9.422276837167397, 45.73329726898681 ], [ 9.422039867071428, 45.732551093034338 ], [ 9.42202907032897, 45.732281248316426 ], [ 9.422377141212365, 45.73221680903324 ], [ 9.422859219955317, 45.732125033379845 ], [ 9.423590841732103, 45.731996312377639 ], [ 9.424003132476811, 45.732129790171101 ], [ 9.424849995587353, 45.731946622423713 ], [ 9.424873186541181, 45.731613517417642 ], [ 9.425575253021046, 45.730980849260277 ], [ 9.426495813551336, 45.730347361296126 ], [ 9.427494612978455, 45.72986660704894 ], [ 9.429323784984906, 45.729364699082737 ], [ 9.430021128977984, 45.729173059278843 ], [ 9.431509069738281, 45.728798429897864 ], [ 9.432790452580145, 45.72830753020331 ], [ 9.433431970984513, 45.728170091082667 ], [ 9.433488942353183, 45.728889940951213 ], [ 9.433456371131353, 45.729664122519779 ], [ 9.434470875428454, 45.729561263240484 ], [ 9.434347611566404, 45.730236783069586 ], [ 9.435688524011869, 45.730789713956518 ], [ 9.437242894069463, 45.730693783453603 ], [ 9.438336287594245, 45.730815586652568 ], [ 9.438536943195814, 45.731035133150236 ], [ 9.438893708722537, 45.731425511180298 ], [ 9.439574513506319, 45.731377879180499 ], [ 9.440239052886975, 45.730898281137847 ], [ 9.441034677871752, 45.730742196721557 ], [ 9.442027305965814, 45.731125407550238 ], [ 9.442368391139492, 45.73120018087954 ], [ 9.442632432300492, 45.731258071017805 ], [ 9.443480288792619, 45.731209768427753 ], [ 9.443930467653544, 45.731253034800822 ], [ 9.444595279426181, 45.730809411651052 ], [ 9.445272998994657, 45.730374749470265 ], [ 9.445739520764205, 45.730858962406863 ], [ 9.446109595271389, 45.731177510911245 ], [ 9.446218326773542, 45.731271128213933 ], [ 9.446887714489213, 45.731403518145285 ], [ 9.447260868400107, 45.731438201482341 ], [ 9.447375472236837, 45.731220188723114 ], [ 9.447691210356597, 45.730626314699769 ], [ 9.447727658671187, 45.730365153825346 ], [ 9.447825817049866, 45.729779709539514 ], [ 9.448509784934643, 45.728525929004505 ], [ 9.449220157679189, 45.727362050802462 ], [ 9.449812952123652, 45.725964600617836 ], [ 9.450664546780967, 45.724791160528675 ], [ 9.450441888128053, 45.724269984851041 ], [ 9.450049498184232, 45.723416476146028 ], [ 9.449872638409534, 45.722193059893989 ], [ 9.450056563445669, 45.721094253362971 ], [ 9.449981055245402, 45.719690434205191 ], [ 9.44996653269293, 45.717881354814914 ], [ 9.450007376508029, 45.716567088177506 ], [ 9.449731849395338, 45.715857099991723 ], [ 9.449078078433452, 45.716048689331792 ], [ 9.448723868590195, 45.7161220091606 ], [ 9.448654103356564, 45.71610605110444 ], [ 9.448437561270586, 45.716045509494094 ], [ 9.448225070703957, 45.716002619248826 ], [ 9.447913122441781, 45.71600384266079 ], [ 9.447776219754205, 45.716048103390058 ], [ 9.447601803838005, 45.716083773851892 ], [ 9.447452495917705, 45.716136838770794 ], [ 9.447278427054274, 45.716216231465147 ], [ 9.447166539858443, 45.716269130602015 ], [ 9.446991912442527, 45.716278569928086 ], [ 9.446828808154589, 45.716165510738591 ], [ 9.446803349092789, 45.716104393164429 ], [ 9.446691487508124, 45.716157309738477 ], [ 9.446617014953842, 45.716210062948434 ], [ 9.446492235933233, 45.716210550657891 ], [ 9.446317287486622, 45.716176266121593 ], [ 9.446192369311387, 45.716159260092319 ], [ 9.446005200295616, 45.716159990911621 ], [ 9.445830574152218, 45.716169410456203 ], [ 9.445781002521219, 45.71621332797212 ], [ 9.445819629472021, 45.716361862362014 ], [ 9.445832451894514, 45.716405536410704 ], [ 9.445820881268133, 45.71651927876097 ], [ 9.445796813982845, 45.716633071669975 ], [ 9.445762417869828, 45.716689095439214 ], [ 9.445770205321178, 45.716943723759506 ], [ 9.446004845655949, 45.717365838343547 ], [ 9.446263873089304, 45.717522340831238 ], [ 9.446418013061688, 45.717616247027749 ], [ 9.446548298301245, 45.717840756917198 ], [ 9.446447297129957, 45.717863658131755 ], [ 9.446260040474577, 45.717903487373022 ], [ 9.446080900893616, 45.717941588864569 ], [ 9.445599050515257, 45.718042475268248 ], [ 9.445485963051521, 45.718060925972296 ], [ 9.444475602680445, 45.718219278796383 ], [ 9.444367053080665, 45.718236291312422 ], [ 9.444199468367021, 45.718268444886604 ], [ 9.443789696816799, 45.718346536898096 ], [ 9.443237833386579, 45.718429694478253 ], [ 9.442749990333041, 45.718485596223694 ], [ 9.441941370763105, 45.718596729337406 ], [ 9.441744969019714, 45.718642483868173 ], [ 9.44166479858214, 45.718660803509763 ], [ 9.441402699082573, 45.718724822897904 ], [ 9.441252968654887, 45.718695483535086 ], [ 9.440862183332577, 45.718618907541298 ], [ 9.440403650902175, 45.719133717728937 ], [ 9.440008922768524, 45.719594269251445 ], [ 9.43938017448324, 45.719704690436188 ], [ 9.439190375979953, 45.720083454445039 ], [ 9.439081584543912, 45.72095693781241 ], [ 9.438576621386039, 45.722110969635814 ], [ 9.438107384840272, 45.722292792050439 ], [ 9.438025531291348, 45.722302101288214 ], [ 9.437720169433842, 45.72217726054626 ], [ 9.437329394636896, 45.722016744600573 ], [ 9.436519593011951, 45.721983841938673 ], [ 9.435824341403935, 45.721804041161207 ], [ 9.435576408813221, 45.72173993525022 ], [ 9.435425118383762, 45.721699994880026 ], [ 9.435301299528241, 45.721642862542417 ], [ 9.434883467645562, 45.721450034854335 ], [ 9.434012825920437, 45.721858384748593 ], [ 9.432417970549066, 45.722150594257549 ], [ 9.432357474393291, 45.7221616799619 ], [ 9.431561831045336, 45.722299713491154 ], [ 9.430557255356272, 45.722006466812765 ], [ 9.430311320313677, 45.72177338001039 ], [ 9.429541503472278, 45.721929293883548 ], [ 9.428668130463022, 45.721986564460011 ], [ 9.428075111316335, 45.721736783797148 ], [ 9.42763635227792, 45.721495401048045 ], [ 9.427479832072516, 45.721189953586617 ], [ 9.427262891757534, 45.72138879599693 ], [ 9.427033312073009, 45.721614672302231 ], [ 9.426558430710408, 45.721688447202105 ], [ 9.426285912552489, 45.72133843528453 ], [ 9.425975256527765, 45.721042575048152 ], [ 9.425501717954647, 45.721296343785362 ], [ 9.425594262045717, 45.721638033647658 ], [ 9.425261747763658, 45.721846297196663 ], [ 9.425392776733789, 45.722178828743715 ], [ 9.424841190000139, 45.722306892209993 ], [ 9.425170324407887, 45.722922212910923 ], [ 9.42520618085126, 45.722989583584905 ], [ 9.424971010427091, 45.723254093469066 ], [ 9.424620052962313, 45.723648823703627 ], [ 9.424564591596411, 45.723651150401373 ], [ 9.424151162462545, 45.723668557076586 ], [ 9.424106186302019, 45.723668724039861 ], [ 9.424071853650775, 45.724226905681249 ], [ 9.423005051306289, 45.72420385625685 ], [ 9.422788092542273, 45.724180892747007 ], [ 9.421526050765321, 45.724047310209727 ], [ 9.420855865010065, 45.723788763455957 ], [ 9.42084025023776, 45.723419782382926 ], [ 9.420834172671842, 45.723388394719898 ], [ 9.420772269536966, 45.723069096539376 ], [ 9.420719950313213, 45.722799182747295 ], [ 9.420097671840098, 45.722072411308574 ], [ 9.419552919046154, 45.721399360072418 ], [ 9.419407600254107, 45.72086884242848 ], [ 9.419996660682116, 45.720596665538558 ], [ 9.420909385032257, 45.720647316775889 ], [ 9.421822788173545, 45.720787950834691 ], [ 9.422551968681978, 45.720672756307714 ], [ 9.422875228951453, 45.720622047823227 ], [ 9.423361616828029, 45.720368223428849 ], [ 9.422959947102264, 45.719928672273845 ], [ 9.422327134436086, 45.719507982218175 ], [ 9.421566470779693, 45.719168776603169 ], [ 9.421476257684205, 45.719147653346319 ], [ 9.420922861739811, 45.719018133402216 ], [ 9.420325856905478, 45.719098213414817 ], [ 9.419818889891106, 45.719166198154703 ], [ 9.41900003891892, 45.719637249027663 ], [ 9.417834052396197, 45.720082558974966 ], [ 9.416948095801107, 45.720175787368383 ], [ 9.416201100252787, 45.719944498511062 ], [ 9.4151717602711, 45.719759226981559 ], [ 9.414104448989731, 45.719655098151229 ], [ 9.413334016708045, 45.719729888959201 ], [ 9.412951133292392, 45.720082302643064 ], [ 9.412690617755251, 45.720377645489712 ], [ 9.412632547771299, 45.720443479109903 ], [ 9.412446316178659, 45.720673685261609 ], [ 9.412079822505541, 45.72041848694618 ], [ 9.411731817598524, 45.720275720823771 ], [ 9.412024524667272, 45.71988763600838 ], [ 9.412085982858645, 45.71950938012732 ], [ 9.411366877596674, 45.719574978037173 ], [ 9.411310675473619, 45.719565538732994 ], [ 9.410676991711069, 45.719449134721941 ], [ 9.410321491527355, 45.718948679854321 ], [ 9.409700178696927, 45.718329866403373 ], [ 9.40903761204007, 45.717824546042486 ], [ 9.40866649475781, 45.717541500243556 ], [ 9.408643009189849, 45.717514579157047 ], [ 9.408299813218683, 45.717125292179112 ], [ 9.408236865242701, 45.717071503335539 ], [ 9.408208104409413, 45.717017257483896 ], [ 9.408178072676574, 45.716937221678947 ], [ 9.408165672937674, 45.7169041763457 ], [ 9.408058497583172, 45.716614748791805 ], [ 9.407973595514296, 45.716372423776264 ], [ 9.407913726585504, 45.716166484150627 ], [ 9.407878582241628, 45.716013560936211 ], [ 9.407841676300608, 45.716028582708425 ], [ 9.407793406325565, 45.716046551388992 ], [ 9.407751840641829, 45.716064484421018 ], [ 9.407663420940732, 45.716100048880882 ], [ 9.407384772447779, 45.716213981230418 ], [ 9.406602256498779, 45.716387775864476 ], [ 9.406238643938693, 45.715858019500494 ], [ 9.406166672031336, 45.715843289057226 ], [ 9.405914522840767, 45.715791667322037 ], [ 9.40556609683312, 45.715721303339869 ], [ 9.404938786514279, 45.715565614821394 ], [ 9.404845727400135, 45.71513391880957 ], [ 9.404702709502031, 45.71490039388722 ], [ 9.403996392357891, 45.714947907565701 ], [ 9.403429367452288, 45.714715879576374 ], [ 9.402954640884795, 45.714807566513336 ], [ 9.403086687145434, 45.715302150146499 ], [ 9.402844232617962, 45.71553701889431 ], [ 9.403195874961519, 45.716192821512685 ], [ 9.403274722678136, 45.716435571088972 ], [ 9.402879254718009, 45.716832991522388 ], [ 9.403138892058577, 45.717201113767416 ], [ 9.403807401115264, 45.717252763119824 ], [ 9.404132117417287, 45.717668935120166 ], [ 9.404157574550631, 45.717701561163892 ], [ 9.403982032909894, 45.718305233530728 ], [ 9.403599488859355, 45.718711606021408 ], [ 9.404100711579893, 45.718727843099089 ], [ 9.404846368431119, 45.718779195463917 ], [ 9.404869808964847, 45.718811624170534 ], [ 9.405170849651935, 45.719228098424253 ], [ 9.405625005282099, 45.719838534593507 ], [ 9.405768560798871, 45.720144039192149 ], [ 9.404742670857654, 45.720435700759268 ], [ 9.404707851421639, 45.720455289217874 ], [ 9.403744426053784, 45.720997289050935 ], [ 9.403127913514657, 45.72103546651357 ], [ 9.402684992251599, 45.721184746763015 ], [ 9.402616783594722, 45.721208154284746 ], [ 9.402443542155268, 45.721187052044456 ], [ 9.402049242219688, 45.721138273461911 ], [ 9.40150173634972, 45.721842256877537 ], [ 9.40125920835812, 45.722068125956369 ], [ 9.401656332589187, 45.722508249838981 ], [ 9.401906866080552, 45.722785898199561 ], [ 9.402129455436476, 45.723361161792745 ], [ 9.402608652133502, 45.723881527907047 ], [ 9.402690803716689, 45.723912741136985 ], [ 9.402866721099929, 45.723983132665872 ], [ 9.402906679833922, 45.723999122067639 ], [ 9.402969500337498, 45.724024258429218 ], [ 9.403074418371341, 45.724134933730774 ], [ 9.403173939662295, 45.724244563185273 ], [ 9.403319164651926, 45.724401057626906 ], [ 9.403952278846619, 45.724875860738194 ], [ 9.404532836563293, 45.725188834983015 ], [ 9.404368302188091, 45.725540446226631 ], [ 9.403653608760381, 45.726227021346595 ], [ 9.403694019875289, 45.726487895865482 ], [ 9.403839624753637, 45.726696987014527 ], [ 9.403862842002418, 45.726730326651584 ], [ 9.403584997451519, 45.72684275704048 ], [ 9.4035308030758, 45.726868288367086 ], [ 9.403393146385934, 45.726918646914271 ], [ 9.403337109451666, 45.726903177092048 ], [ 9.403015250137269, 45.726814315867678 ], [ 9.402516065594421, 45.727095104359357 ], [ 9.402787521748666, 45.727281717661214 ], [ 9.402845608506755, 45.727321650048346 ], [ 9.402883176554047, 45.727347456030103 ], [ 9.403413411978827, 45.727516396460025 ], [ 9.403476185538835, 45.727536216832767 ], [ 9.403637383324925, 45.727586059926367 ], [ 9.403681388087362, 45.727599746754819 ], [ 9.403895301729747, 45.727666281476402 ], [ 9.40497919958815, 45.727828953639545 ], [ 9.405053201313867, 45.727842203278364 ], [ 9.405312058710724, 45.72792831380908 ], [ 9.405481538000307, 45.727984685587131 ], [ 9.405569914341248, 45.728209389604736 ], [ 9.405612250893661, 45.72873129262203 ], [ 9.405893836557018, 45.728988969582986 ], [ 9.406118418430228, 45.729194483750383 ], [ 9.406760769527903, 45.729456514596386 ], [ 9.406825761886626, 45.729483027202356 ], [ 9.407188486996041, 45.729877777355654 ], [ 9.407100552724318, 45.730157100405066 ], [ 9.40655047638815, 45.730510086694757 ], [ 9.40624437526659, 45.730835198944632 ], [ 9.405743370895177, 45.730863984292355 ], [ 9.4056169981663, 45.731161450501716 ], [ 9.405862023652395, 45.731277596726706 ], [ 9.406620107039803, 45.731247896210888 ], [ 9.406992353824251, 45.731183564458192 ], [ 9.406880985743213, 45.73177801586025 ], [ 9.406655332487851, 45.732561873058749 ], [ 9.406631929273384, 45.732876983404239 ], [ 9.407453761030061, 45.732775049684108 ], [ 9.408197680724399, 45.732565387263847 ], [ 9.408837601516481, 45.732194061160598 ], [ 9.4097341067417, 45.731758824144038 ], [ 9.410285097760873, 45.731531830165672 ], [ 9.41069887095118, 45.731872357663192 ], [ 9.4112920518981, 45.732140255150149 ], [ 9.412028134034587, 45.732614642173722 ], [ 9.412609387783425, 45.73300856861659 ], [ 9.412946155017554, 45.733358380237746 ], [ 9.413103094989468, 45.733726831933751 ], [ 9.413485295477919, 45.733708176884775 ], [ 9.413899703965793, 45.733687948457259 ], [ 9.414415397242992, 45.733902100308711 ], [ 9.415008617380986, 45.73416997826849 ], [ 9.415472110965752, 45.73427629578422 ], [ 9.415923028448884, 45.734418657582154 ], [ 9.416297089772673, 45.734597315143617 ], [ 9.416435992123432, 45.734263791240537 ], [ 9.416523420167069, 45.733921439645577 ], [ 9.416848089406521, 45.733893807685938 ], [ 9.416905138759253, 45.733888952429091 ], [ 9.417036721948376, 45.733874996251963 ], [ 9.417075749856464, 45.733874434351684 ], [ 9.417113773090911, 45.733847515547041 ], [ 9.417157571651316, 45.733816520795322 ] ] ] } },
{ "type": "Feature", "properties": { "COD_RIP": 1, "COD_REG": 3, "COD_PROV": 97, "COD_CM": 0, "COD_UTS": 97, "PRO_COM": 97058, "PRO_COM_T": "097058", "COMUNE": "Olgiate Molgora", "COMUNE_A": null, "CC_UTS": 0, "Shape_Leng": 19297.133521799999, "Shape_Area": 7090839.3649800001 }, "geometry": { "type": "Polygon", "coordinates": [ [ [ 9.398580923233396, 45.748404562926709 ], [ 9.399120556391646, 45.748357664571429 ], [ 9.399830449060833, 45.748751205511851 ], [ 9.400217237920385, 45.748902867597486 ], [ 9.400651882438929, 45.748559331162696 ], [ 9.400432256808495, 45.748407084795019 ], [ 9.401072282099404, 45.748017812191478 ], [ 9.401750802700132, 45.747619386369479 ], [ 9.401902737460281, 45.747294830438172 ], [ 9.402017002722406, 45.747096416439852 ], [ 9.402801478560686, 45.747129653762478 ], [ 9.403545865560908, 45.746956019946978 ], [ 9.405043075278302, 45.745996645946093 ], [ 9.404950742795318, 45.745672951562533 ], [ 9.404373935013522, 45.745909006853296 ], [ 9.403664372358341, 45.745560488445065 ], [ 9.403559044340737, 45.74521884722153 ], [ 9.402978569685319, 45.744941869112346 ], [ 9.403169058246126, 45.744617175354499 ], [ 9.4040319102381, 45.744830130117975 ], [ 9.405036175521762, 45.745042595127309 ], [ 9.405989224155968, 45.745282238267038 ], [ 9.406774957204201, 45.745495464303481 ], [ 9.407329368014189, 45.745718505211052 ], [ 9.407512357552276, 45.746131867474965 ], [ 9.407579504414782, 45.74652767002366 ], [ 9.408159126792253, 45.746678616319862 ], [ 9.408620084475993, 45.746424946734912 ], [ 9.409171815655988, 45.746278952949652 ], [ 9.409573765428862, 45.74674555451756 ], [ 9.409396416817255, 45.747106212956503 ], [ 9.409129208079158, 45.747485202511143 ], [ 9.408824276959434, 45.747981323535484 ], [ 9.408479943352523, 45.748360586555322 ], [ 9.408315824830053, 45.748775205798282 ], [ 9.408408181990611, 45.749098898102694 ], [ 9.408884635612512, 45.749205213758493 ], [ 9.40927085982263, 45.749275830585084 ], [ 9.40988682216984, 45.749120607075803 ], [ 9.410718658894574, 45.748595586368445 ], [ 9.411499892753172, 45.748187738949987 ], [ 9.412476665064299, 45.748148215605177 ], [ 9.413489613997283, 45.747784531424522 ], [ 9.414580959417487, 45.747591559939721 ], [ 9.415531086515189, 45.747426098459393 ], [ 9.416054171134201, 45.746884150723439 ], [ 9.4162048824703, 45.746406562896681 ], [ 9.416159855653648, 45.746322789503196 ], [ 9.416074517544729, 45.746164012921135 ], [ 9.416035328163275, 45.746100900144903 ], [ 9.415684190350293, 45.745535398134152 ], [ 9.415099690077763, 45.744727449089169 ], [ 9.414862432755621, 45.743936263316414 ], [ 9.41498485273773, 45.743107753677457 ], [ 9.415676062829823, 45.742709198694207 ], [ 9.41651107086247, 45.742634157052649 ], [ 9.416663133211367, 45.742336584801315 ], [ 9.416801851294181, 45.741976055703908 ], [ 9.416453565109347, 45.741815313887138 ], [ 9.416901195131821, 45.741507650184566 ], [ 9.417212079075227, 45.741255154756807 ], [ 9.417286705839736, 45.741194751745716 ], [ 9.417335638354286, 45.741155037181073 ], [ 9.417862072456305, 45.741311405803799 ], [ 9.418353404917763, 45.741457345341651 ], [ 9.418588748295479, 45.741602286655144 ], [ 9.418934525865714, 45.741815239169973 ], [ 9.418982783820706, 45.74176001266941 ], [ 9.419431601620344, 45.741246366709241 ], [ 9.41955138718914, 45.741158680738479 ], [ 9.419802374090361, 45.740974992072417 ], [ 9.419582565945765, 45.740804773361297 ], [ 9.41929903863902, 45.740706808571254 ], [ 9.418950618715275, 45.740528085001266 ], [ 9.418627651730318, 45.740313246959346 ], [ 9.419164833698558, 45.739951254175423 ], [ 9.419400685159742, 45.73990537494128 ], [ 9.419696575860787, 45.7398444711338 ], [ 9.420440166124829, 45.739742270682328 ], [ 9.421087728779339, 45.739371899598119 ], [ 9.421383339734613, 45.739112597628228 ], [ 9.42146967740689, 45.739036862672172 ], [ 9.42151234557935, 45.738999434903512 ], [ 9.421549269782149, 45.738919557309515 ], [ 9.421584019518324, 45.738844366323036 ], [ 9.421876851981505, 45.738400617943626 ], [ 9.421954971695744, 45.738282234030727 ], [ 9.422076473438006, 45.737808653732181 ], [ 9.422012944318565, 45.737510580536885 ], [ 9.421485020353687, 45.737386517683973 ], [ 9.420928945739789, 45.736938534818265 ], [ 9.420718007989212, 45.736237255525836 ], [ 9.420318229457406, 45.736058706198783 ], [ 9.41965012859419, 45.736097162468091 ], [ 9.419404917633191, 45.73596305674937 ], [ 9.419157257998188, 45.735504936318058 ], [ 9.418870724813249, 45.735491712844684 ], [ 9.418810142222664, 45.735497129279892 ], [ 9.418728715407351, 45.735518732553963 ], [ 9.418604662607924, 45.735551670908499 ], [ 9.418155935247677, 45.735670615720835 ], [ 9.417898906122302, 45.735595130616559 ], [ 9.417550508450141, 45.735492810068351 ], [ 9.416454993334558, 45.735091788322791 ], [ 9.416289730357352, 45.734903374435738 ], [ 9.416237305051109, 45.734830100258399 ], [ 9.416297089772673, 45.734597315143617 ], [ 9.415923028448884, 45.734418657582154 ], [ 9.415472110965752, 45.73427629578422 ], [ 9.415008617380986, 45.73416997826849 ], [ 9.414415397242992, 45.733902100308711 ], [ 9.413899703965793, 45.733687948457259 ], [ 9.413485295477919, 45.733708176884775 ], [ 9.413103094989468, 45.733726831933751 ], [ 9.412946155017554, 45.733358380237746 ], [ 9.412609387783425, 45.73300856861659 ], [ 9.412028134034587, 45.732614642173722 ], [ 9.4112920518981, 45.732140255150149 ], [ 9.41069887095118, 45.731872357663192 ], [ 9.410285097760873, 45.731531830165672 ], [ 9.4097341067417, 45.731758824144038 ], [ 9.408837601516481, 45.732194061160598 ], [ 9.408197680724399, 45.732565387263847 ], [ 9.407453761030061, 45.732775049684108 ], [ 9.406631929273384, 45.732876983404239 ], [ 9.406655332487851, 45.732561873058749 ], [ 9.406880985743213, 45.73177801586025 ], [ 9.406992353824251, 45.731183564458192 ], [ 9.406620107039803, 45.731247896210888 ], [ 9.405862023652395, 45.731277596726706 ], [ 9.4056169981663, 45.731161450501716 ], [ 9.405743370895177, 45.730863984292355 ], [ 9.40624437526659, 45.730835198944632 ], [ 9.40655047638815, 45.730510086694757 ], [ 9.407100552724318, 45.730157100405066 ], [ 9.407188486996041, 45.729877777355654 ], [ 9.406825761886626, 45.729483027202356 ], [ 9.406760769527903, 45.729456514596386 ], [ 9.406118418430228, 45.729194483750383 ], [ 9.405893836557018, 45.728988969582986 ], [ 9.405612250893661, 45.72873129262203 ], [ 9.405569914341248, 45.728209389604736 ], [ 9.405481538000307, 45.727984685587131 ], [ 9.405312058710724, 45.72792831380908 ], [ 9.405053201313867, 45.727842203278364 ], [ 9.40497919958815, 45.727828953639545 ], [ 9.403895301729747, 45.727666281476402 ], [ 9.403681388087362, 45.727599746754819 ], [ 9.403637383324925, 45.727586059926367 ], [ 9.403476185538835, 45.727536216832767 ], [ 9.403413411978827, 45.727516396460025 ], [ 9.402883176554047, 45.727347456030103 ], [ 9.402845608506755, 45.727321650048346 ], [ 9.402787521748666, 45.727281717661214 ], [ 9.402516065594421, 45.727095104359357 ], [ 9.403015250137269, 45.726814315867678 ], [ 9.403337109451666, 45.726903177092048 ], [ 9.403393146385934, 45.726918646914271 ], [ 9.4035308030758, 45.726868288367086 ], [ 9.403584997451519, 45.72684275704048 ], [ 9.403862842002418, 45.726730326651584 ], [ 9.403839624753637, 45.726696987014527 ], [ 9.403694019875289, 45.726487895865482 ], [ 9.403653608760381, 45.726227021346595 ], [ 9.404368302188091, 45.725540446226631 ], [ 9.404532836563293, 45.725188834983015 ], [ 9.403952278846619, 45.724875860738194 ], [ 9.403319164651926, 45.724401057626906 ], [ 9.403173939662295, 45.724244563185273 ], [ 9.403074418371341, 45.724134933730774 ], [ 9.402969500337498, 45.724024258429218 ], [ 9.402906679833922, 45.723999122067639 ], [ 9.402866721099929, 45.723983132665872 ], [ 9.402690803716689, 45.723912741136985 ], [ 9.402608652133502, 45.723881527907047 ], [ 9.402129455436476, 45.723361161792745 ], [ 9.401906866080552, 45.722785898199561 ], [ 9.401656332589187, 45.722508249838981 ], [ 9.40125920835812, 45.722068125956369 ], [ 9.40150173634972, 45.721842256877537 ], [ 9.402049242219688, 45.721138273461911 ], [ 9.402443542155268, 45.721187052044456 ], [ 9.402616783594722, 45.721208154284746 ], [ 9.402684992251599, 45.721184746763015 ], [ 9.403127913514657, 45.72103546651357 ], [ 9.403744426053784, 45.720997289050935 ], [ 9.404707851421639, 45.720455289217874 ], [ 9.404742670857654, 45.720435700759268 ], [ 9.405768560798871, 45.720144039192149 ], [ 9.405625005282099, 45.719838534593507 ], [ 9.405170849651935, 45.719228098424253 ], [ 9.404869808964847, 45.718811624170534 ], [ 9.404846368431119, 45.718779195463917 ], [ 9.404100711579893, 45.718727843099089 ], [ 9.403599488859355, 45.718711606021408 ], [ 9.403116068477232, 45.719388365092428 ], [ 9.40303788171838, 45.719322041362801 ], [ 9.402968191409924, 45.719262875645775 ], [ 9.402469663869788, 45.718841603665908 ], [ 9.402321156972757, 45.718668056745138 ], [ 9.402223767057768, 45.7185542470706 ], [ 9.402186838890428, 45.718511092248548 ], [ 9.402034417824186, 45.718332969218423 ], [ 9.401996402761144, 45.71828854274515 ], [ 9.401890877829748, 45.718165222359552 ], [ 9.401640391366167, 45.717873287513946 ], [ 9.401741998343061, 45.717811875174917 ], [ 9.401814802725884, 45.717768487331895 ], [ 9.401904359058491, 45.717715117136166 ], [ 9.402045958662834, 45.717630731513424 ], [ 9.402126528904244, 45.717582715834908 ], [ 9.402007158795724, 45.717061080695167 ], [ 9.401956716375786, 45.7170764362181 ], [ 9.40180819679393, 45.71712164760384 ], [ 9.401685329699419, 45.717159049525307 ], [ 9.401468665966043, 45.7172250047483 ], [ 9.400961705087392, 45.716407711561537 ], [ 9.400457970956458, 45.716508864223911 ], [ 9.400377801776116, 45.716525942486129 ], [ 9.400176957690803, 45.716565291973588 ], [ 9.400140550648846, 45.716572602125346 ], [ 9.400093333319868, 45.717157810330555 ], [ 9.399794876831944, 45.717199371294711 ], [ 9.399130638954485, 45.7172962029939 ], [ 9.398550001276762, 45.716956196069646 ], [ 9.398478547087413, 45.716843927237932 ], [ 9.398368071011818, 45.716668807744497 ], [ 9.398230881025761, 45.715944665035948 ], [ 9.398207887935177, 45.715823287495034 ], [ 9.398646803500357, 45.715474703126127 ], [ 9.398820454528082, 45.715336789880311 ], [ 9.398891904312698, 45.714443788824809 ], [ 9.398156810321568, 45.714059323892542 ], [ 9.397630308583594, 45.714097158026405 ], [ 9.397151120416018, 45.713994548675302 ], [ 9.397051304909539, 45.713973019157031 ], [ 9.397058316772924, 45.713875110164793 ], [ 9.397062934795381, 45.713811106511777 ], [ 9.397109607549332, 45.713144905584706 ], [ 9.397080316053398, 45.713069797578697 ], [ 9.396769394001849, 45.712273003295891 ], [ 9.396762579468525, 45.711309949770452 ], [ 9.396853739019342, 45.711166920872017 ], [ 9.397026946100874, 45.710894976273934 ], [ 9.397416525570002, 45.71028324373237 ], [ 9.397486239385668, 45.710203137942607 ], [ 9.397971467425224, 45.709667613500642 ], [ 9.398618006088402, 45.70868540449144 ], [ 9.398695942394221, 45.708567002305436 ], [ 9.398631922457488, 45.708483557761838 ], [ 9.398286149396197, 45.708032869866152 ], [ 9.398242081908812, 45.707974529008055 ], [ 9.398574347671751, 45.70749769182482 ], [ 9.398596354161674, 45.707459497509653 ], [ 9.398711880683123, 45.707297421803759 ], [ 9.398801337843327, 45.707173498715221 ], [ 9.398956297774497, 45.706967695061643 ], [ 9.399450726909928, 45.706314165426484 ], [ 9.39900635395723, 45.706038981890416 ], [ 9.398922672735864, 45.705985784068851 ], [ 9.39885514267065, 45.705944177755718 ], [ 9.398807494301645, 45.705914157158482 ], [ 9.398694184602657, 45.705843691015545 ], [ 9.398328099151147, 45.70561602682286 ], [ 9.397348868650159, 45.705205419890248 ], [ 9.396365315472961, 45.705684955216221 ], [ 9.395910477618605, 45.705264403940959 ], [ 9.39519805866971, 45.704429803560771 ], [ 9.394383000692006, 45.703613544707942 ], [ 9.393716279693143, 45.703795866925674 ], [ 9.393474682196025, 45.70435012891835 ], [ 9.393425513021304, 45.704462927271329 ], [ 9.392230786711329, 45.704458039747252 ], [ 9.391989239510506, 45.704818894220146 ], [ 9.391555670222379, 45.705279413594127 ], [ 9.390864120029132, 45.705587814715102 ], [ 9.390005927885339, 45.705950772896905 ], [ 9.389455417255622, 45.706222665348108 ], [ 9.389380580961609, 45.706546963227765 ], [ 9.389397231800841, 45.707095949780715 ], [ 9.388679406649537, 45.70732341171275 ], [ 9.387868821808029, 45.707146144821351 ], [ 9.387111364034908, 45.707220714930855 ], [ 9.387100326885724, 45.707481789385 ], [ 9.387397989384985, 45.707795790867408 ], [ 9.387540917041996, 45.708029338034741 ], [ 9.387143098452114, 45.708093696046255 ], [ 9.386953760040614, 45.708580374956469 ], [ 9.386897396313545, 45.709723665940892 ], [ 9.38686549494339, 45.710686851399821 ], [ 9.386422126844444, 45.71159741888124 ], [ 9.386234414967142, 45.712327117021722 ], [ 9.385850728275726, 45.712580436891592 ], [ 9.38503063539499, 45.712898232640754 ], [ 9.384699873700448, 45.713376368716283 ], [ 9.385231386821916, 45.714067640450629 ], [ 9.385928524339192, 45.714551323765562 ], [ 9.386252767651913, 45.714991269063262 ], [ 9.386591372070351, 45.715647184899495 ], [ 9.38694292265232, 45.71632104930837 ], [ 9.386482362398018, 45.71661063103879 ], [ 9.385584680194112, 45.716865686492092 ], [ 9.385509091769141, 45.717081945399975 ], [ 9.385950891624079, 45.717800522012737 ], [ 9.386952054628551, 45.71764411935326 ], [ 9.387466406259101, 45.717696385426635 ], [ 9.386906813421859, 45.718535346811166 ], [ 9.386689878819471, 45.7188540586138 ], [ 9.386372536861206, 45.719320205956251 ], [ 9.385734346978698, 45.719943423414065 ], [ 9.38549102316613, 45.720061245066496 ], [ 9.385865453537292, 45.720321018464993 ], [ 9.385533541340326, 45.720637148671813 ], [ 9.385354819987722, 45.720808777451595 ], [ 9.385498329701878, 45.72112332099757 ], [ 9.385654684375703, 45.721437803887156 ], [ 9.385988486859947, 45.721391680796806 ], [ 9.386525859354373, 45.721056844713232 ], [ 9.386872191522228, 45.720965661892137 ], [ 9.387762107583661, 45.721439685117915 ], [ 9.387269423228856, 45.722665450023882 ], [ 9.387311584747396, 45.723187341992649 ], [ 9.388304985852237, 45.723751021415886 ], [ 9.388551629079277, 45.724110207131382 ], [ 9.387426413628358, 45.724924105258424 ], [ 9.386223840678053, 45.725711231561888 ], [ 9.385868415066208, 45.726351483596737 ], [ 9.386219679728722, 45.726971338054966 ], [ 9.386671085904613, 45.727203843225972 ], [ 9.387480126997476, 45.727120086224403 ], [ 9.388209768604391, 45.726703576090543 ], [ 9.388297295420514, 45.72635224905158 ], [ 9.388358820380272, 45.725956016297239 ], [ 9.388861191171742, 45.726125314327376 ], [ 9.388902994391408, 45.726593216324481 ], [ 9.388357077606742, 45.727558147870901 ], [ 9.388182019936963, 45.728260796416123 ], [ 9.388545703581126, 45.72881759587694 ], [ 9.388549811584245, 45.728871057331439 ], [ 9.388573975852054, 45.729186537032781 ], [ 9.387897201917536, 45.729818892077979 ], [ 9.387470892708325, 45.730315369655408 ], [ 9.387426283134289, 45.730369530991382 ], [ 9.387348998224773, 45.730459803497006 ], [ 9.387025882425645, 45.730780423336491 ], [ 9.38700434867248, 45.73080298561689 ], [ 9.386768179809232, 45.731033745249377 ], [ 9.386736283237388, 45.73106491129591 ], [ 9.386725710297956, 45.731397983847224 ], [ 9.38694733624, 45.731734758891783 ], [ 9.386023758968166, 45.732111408920233 ], [ 9.386201807629346, 45.732532454716406 ], [ 9.386232791820934, 45.732605751277639 ], [ 9.386356148244669, 45.732962095108526 ], [ 9.386416389421086, 45.733136161623662 ], [ 9.386301329736574, 45.733572449966609 ], [ 9.386269197990615, 45.733694288629032 ], [ 9.385766933725668, 45.734011419405057 ], [ 9.385063323359178, 45.734245153235818 ], [ 9.384956219736006, 45.734276784630282 ], [ 9.384937083527026, 45.734824293900736 ], [ 9.385685080798106, 45.735190790228607 ], [ 9.386508165259942, 45.735260010401582 ], [ 9.387110259542183, 45.734969949177959 ], [ 9.388027377469196, 45.734865675774067 ], [ 9.388051472494068, 45.734813758510583 ], [ 9.38832617478773, 45.734227767050811 ], [ 9.388603543796027, 45.734304133392193 ], [ 9.388679352532575, 45.734138634884665 ], [ 9.389774513231744, 45.734452367420893 ], [ 9.389700415356334, 45.73477214569737 ], [ 9.389694969618306, 45.734799151278061 ], [ 9.389692509094456, 45.73498906059428 ], [ 9.389876217856678, 45.735561363361242 ], [ 9.389932430559801, 45.735759644756335 ], [ 9.389870158464216, 45.736003141710533 ], [ 9.389762188599459, 45.736246794523289 ], [ 9.389745085723545, 45.736404966635497 ], [ 9.389719252559214, 45.736643886492224 ], [ 9.38972299361563, 45.737181669486965 ], [ 9.389606019437007, 45.73744456044777 ], [ 9.389397184735669, 45.737637329810255 ], [ 9.389297571082423, 45.737765726748393 ], [ 9.389599293958598, 45.738021734002629 ], [ 9.389557272570828, 45.738247741555043 ], [ 9.389537352831034, 45.73835498156393 ], [ 9.389424097457455, 45.738706377608828 ], [ 9.389481037005552, 45.739228605778983 ], [ 9.389516165161199, 45.739551013024474 ], [ 9.389520208831106, 45.739588126480044 ], [ 9.38953068083701, 45.739727631382564 ], [ 9.389591065886551, 45.740532966573177 ], [ 9.38966415491244, 45.741801802752541 ], [ 9.389398026215398, 45.742351749098709 ], [ 9.389467169477699, 45.743053568842754 ], [ 9.389458764462393, 45.743692646640895 ], [ 9.389424827817537, 45.744358817255034 ], [ 9.389530818019448, 45.744808489130371 ], [ 9.390312719053846, 45.7444817980466 ], [ 9.390712902460532, 45.744723456889695 ], [ 9.391174516276838, 45.744550851355129 ], [ 9.391792174967762, 45.744638745218765 ], [ 9.392129361407672, 45.74506061666554 ], [ 9.39183741913064, 45.745592667170186 ], [ 9.3915376711562, 45.745701695699225 ], [ 9.391453893875708, 45.745731825659519 ], [ 9.391209075608991, 45.745819836471384 ], [ 9.391169310459494, 45.745841786843975 ], [ 9.391067576273233, 45.745897942466073 ], [ 9.390684027340608, 45.746109654400968 ], [ 9.390899408702484, 45.746345197331834 ], [ 9.390930156899646, 45.746378825142365 ], [ 9.391029181826971, 45.746405491228906 ], [ 9.391612759567838, 45.74655650882795 ], [ 9.392345461223108, 45.746544999741005 ], [ 9.392783735248225, 45.746714500034123 ], [ 9.393070810451903, 45.747316561207796 ], [ 9.3934209974623, 45.747756393520454 ], [ 9.394025975929468, 45.74786231052363 ], [ 9.394666571610912, 45.747545071500063 ], [ 9.395296484112174, 45.747542893858643 ], [ 9.395623535556405, 45.748342822176582 ], [ 9.39588460898489, 45.748899970513023 ], [ 9.396517239032649, 45.749275808993119 ], [ 9.396866317095785, 45.749553604821685 ], [ 9.397315521807785, 45.749444042753119 ], [ 9.398060367559111, 45.749324435038837 ], [ 9.398534497648372, 45.749106760668127 ], [ 9.398545168311845, 45.748800710648005 ], [ 9.398580923233396, 45.748404562926709 ] ] ] } },
{ "type": "Feature", "properties": { "COD_RIP": 1, "COD_REG": 3, "COD_PROV": 97, "COD_CM": 0, "COD_UTS": 97, "PRO_COM": 97074, "PRO_COM_T": "097074", "COMUNE": "Santa Maria HoÃ¨", "COMUNE_A": null, "CC_UTS": 0, "Shape_Leng": 14129.5200391, "Shape_Area": 2834368.2894100002 }, "geometry": { "type": "Polygon", "coordinates": [ [ [ 9.365864360310358, 45.752744327405516 ], [ 9.365911961543555, 45.752159118721494 ], [ 9.365833400850944, 45.751943367802426 ], [ 9.366089663964136, 45.751807522357048 ], [ 9.36648626133603, 45.751509233623715 ], [ 9.36685653351787, 45.75111202255718 ], [ 9.36721752503399, 45.751263878215681 ], [ 9.367413086510309, 45.751677281852508 ], [ 9.367658360852314, 45.75182949016034 ], [ 9.367837056418363, 45.751630903177102 ], [ 9.36833533245656, 45.751152260365451 ], [ 9.368815677961528, 45.750759185684608 ], [ 9.368922705548668, 45.750538321928509 ], [ 9.369859550819257, 45.750283271320022 ], [ 9.370604169706088, 45.75011884774495 ], [ 9.370498823123956, 45.749741157225515 ], [ 9.370818800127511, 45.749524116584709 ], [ 9.371551067881617, 45.749440722810093 ], [ 9.371188883370616, 45.74910888325325 ], [ 9.371995334838823, 45.748584207208609 ], [ 9.372648613278978, 45.748222056568999 ], [ 9.373164582626998, 45.748204316995995 ], [ 9.37380540277084, 45.748182277463101 ], [ 9.373996343079014, 45.748186260986294 ], [ 9.37492406227468, 45.748205616107533 ], [ 9.375824624842201, 45.748301662890086 ], [ 9.375918301451108, 45.748850393084048 ], [ 9.37601168037741, 45.74935412850013 ], [ 9.376525316866788, 45.749262426803156 ], [ 9.377348354765875, 45.74929571269594 ], [ 9.37801743353903, 45.74937451577761 ], [ 9.37792385558132, 45.74884377681785 ], [ 9.377958783168928, 45.748303619154193 ], [ 9.378109823453892, 45.747826081564973 ], [ 9.378156624425806, 45.747141880562545 ], [ 9.378682989191924, 45.747032136299211 ], [ 9.379060429783539, 45.747714929012488 ], [ 9.379322251436669, 45.748407119459522 ], [ 9.379122209412268, 45.749244843868503 ], [ 9.378384221408085, 45.750381367993604 ], [ 9.378208388961811, 45.750759982322393 ], [ 9.378658591966785, 45.751028502662201 ], [ 9.37918716065356, 45.751242771106874 ], [ 9.379648287774085, 45.750989218980365 ], [ 9.379981019174284, 45.750758597524374 ], [ 9.381081989468727, 45.75006638903249 ], [ 9.381582958042172, 45.750001711795953 ], [ 9.382019471945522, 45.749910242054618 ], [ 9.382940688328233, 45.749259113482239 ], [ 9.383353380117343, 45.749446728100317 ], [ 9.383767246829402, 45.749805379341538 ], [ 9.384141187120358, 45.749966134318612 ], [ 9.384822884416421, 45.750008835932064 ], [ 9.385242862832538, 45.749386380877667 ], [ 9.385625775335056, 45.748980052842597 ], [ 9.385943826840126, 45.748492944884042 ], [ 9.386636056732193, 45.748202583245671 ], [ 9.386375761661268, 45.74774443552802 ], [ 9.385524689424072, 45.747369278099839 ], [ 9.385405507976676, 45.746865637311785 ], [ 9.386240246185485, 45.746736807988349 ], [ 9.386834278294767, 45.747121826037557 ], [ 9.38714630500467, 45.747624811126265 ], [ 9.388303193068886, 45.747602876485381 ], [ 9.389498214833601, 45.747517811994278 ], [ 9.389462798761459, 45.747967964759852 ], [ 9.389837557528262, 45.748245713480046 ], [ 9.390907229391303, 45.748620073023531 ], [ 9.391616023812148, 45.748860671338619 ], [ 9.392212194275443, 45.749542670486839 ], [ 9.393320859240253, 45.749970901366055 ], [ 9.39353758783772, 45.749709138850392 ], [ 9.393699070685084, 45.748907521497301 ], [ 9.39440445744156, 45.748662063105996 ], [ 9.395059787614885, 45.748614803390865 ], [ 9.395623535556405, 45.748342822176582 ], [ 9.395296484112174, 45.747542893858643 ], [ 9.394666571610912, 45.747545071500063 ], [ 9.394025975929468, 45.74786231052363 ], [ 9.3934209974623, 45.747756393520454 ], [ 9.393070810451903, 45.747316561207796 ], [ 9.392783735248225, 45.746714500034123 ], [ 9.392345461223108, 45.746544999741005 ], [ 9.391612759567838, 45.74655650882795 ], [ 9.391029181826971, 45.746405491228906 ], [ 9.390930156899646, 45.746378825142365 ], [ 9.390899408702484, 45.746345197331834 ], [ 9.390684027340608, 45.746109654400968 ], [ 9.391067576273233, 45.745897942466073 ], [ 9.391169310459494, 45.745841786843975 ], [ 9.391209075608991, 45.745819836471384 ], [ 9.391453893875708, 45.745731825659519 ], [ 9.3915376711562, 45.745701695699225 ], [ 9.39183741913064, 45.745592667170186 ], [ 9.392129361407672, 45.74506061666554 ], [ 9.391792174967762, 45.744638745218765 ], [ 9.391174516276838, 45.744550851355129 ], [ 9.390712902460532, 45.744723456889695 ], [ 9.390312719053846, 45.7444817980466 ], [ 9.389530818019448, 45.744808489130371 ], [ 9.389424827817537, 45.744358817255034 ], [ 9.389458764462393, 45.743692646640895 ], [ 9.389467169477699, 45.743053568842754 ], [ 9.389398026215398, 45.742351749098709 ], [ 9.38966415491244, 45.741801802752541 ], [ 9.389591065886551, 45.740532966573177 ], [ 9.38953068083701, 45.739727631382564 ], [ 9.389520208831106, 45.739588126480044 ], [ 9.389516165161199, 45.739551013024474 ], [ 9.389481037005552, 45.739228605778983 ], [ 9.389424097457455, 45.738706377608828 ], [ 9.389537352831034, 45.73835498156393 ], [ 9.389557272570828, 45.738247741555043 ], [ 9.389599293958598, 45.738021734002629 ], [ 9.389297571082423, 45.737765726748393 ], [ 9.389397184735669, 45.737637329810255 ], [ 9.389606019437007, 45.73744456044777 ], [ 9.38972299361563, 45.737181669486965 ], [ 9.389719252559214, 45.736643886492224 ], [ 9.389745085723545, 45.736404966635497 ], [ 9.389762188599459, 45.736246794523289 ], [ 9.389870158464216, 45.736003141710533 ], [ 9.389932430559801, 45.735759644756335 ], [ 9.389876217856678, 45.735561363361242 ], [ 9.389692509094456, 45.73498906059428 ], [ 9.389694969618306, 45.734799151278061 ], [ 9.389700415356334, 45.73477214569737 ], [ 9.389774513231744, 45.734452367420893 ], [ 9.388679352532575, 45.734138634884665 ], [ 9.388603543796027, 45.734304133392193 ], [ 9.38832617478773, 45.734227767050811 ], [ 9.388051472494068, 45.734813758510583 ], [ 9.388027377469196, 45.734865675774067 ], [ 9.387110259542183, 45.734969949177959 ], [ 9.386508165259942, 45.735260010401582 ], [ 9.385685080798106, 45.735190790228607 ], [ 9.384937083527026, 45.734824293900736 ], [ 9.384956219736006, 45.734276784630282 ], [ 9.385063323359178, 45.734245153235818 ], [ 9.385766933725668, 45.734011419405057 ], [ 9.386269197990615, 45.733694288629032 ], [ 9.386301329736574, 45.733572449966609 ], [ 9.386416389421086, 45.733136161623662 ], [ 9.386356148244669, 45.732962095108526 ], [ 9.386232791820934, 45.732605751277639 ], [ 9.386201807629346, 45.732532454716406 ], [ 9.386023758968166, 45.732111408920233 ], [ 9.38694733624, 45.731734758891783 ], [ 9.386725710297956, 45.731397983847224 ], [ 9.386736283237388, 45.73106491129591 ], [ 9.386768179809232, 45.731033745249377 ], [ 9.386635101491365, 45.730930978383547 ], [ 9.386426866045895, 45.73080625707172 ], [ 9.386337693370129, 45.73075284831306 ], [ 9.386163326004979, 45.730648410446513 ], [ 9.385869879237996, 45.730444876372211 ], [ 9.385561411848233, 45.730351946960454 ], [ 9.385484748871752, 45.730338013222685 ], [ 9.385024018956283, 45.730254264636855 ], [ 9.384463323690643, 45.730211931067032 ], [ 9.384132166791931, 45.730262794936792 ], [ 9.384140665434723, 45.73035120978836 ], [ 9.383897502624551, 45.730573134755588 ], [ 9.383512756943805, 45.730867395828497 ], [ 9.383448396626882, 45.730990843261829 ], [ 9.383096207973997, 45.731128596178749 ], [ 9.382568774785218, 45.731334888987732 ], [ 9.382261476874032, 45.731413305307946 ], [ 9.382017057120461, 45.731452816248016 ], [ 9.38181183988225, 45.731453502235112 ], [ 9.381638382271793, 45.731481721347976 ], [ 9.381488940769829, 45.731559607287949 ], [ 9.381442148672086, 45.731642680447408 ], [ 9.381316084515872, 45.731676266407256 ], [ 9.381364717006328, 45.732314704452634 ], [ 9.38148763532625, 45.732526961650763 ], [ 9.381631405409955, 45.732775228655697 ], [ 9.381616258706389, 45.732869250908742 ], [ 9.381285083474102, 45.732920105660703 ], [ 9.381029542805164, 45.732977786343966 ], [ 9.380685363269922, 45.733326411142521 ], [ 9.380829915478273, 45.733793970390941 ], [ 9.381728503461821, 45.733628959580543 ], [ 9.382098714931129, 45.733800019318458 ], [ 9.38213114887121, 45.733815001535497 ], [ 9.382325161739759, 45.733806586605702 ], [ 9.381888622340748, 45.734046705598132 ], [ 9.3817828187376, 45.734145590627222 ], [ 9.381563196071244, 45.734350849693406 ], [ 9.38137454421188, 45.734467561593583 ], [ 9.381195710226502, 45.734675534325021 ], [ 9.38118690823992, 45.734733516943585 ], [ 9.381109966007429, 45.73502674234728 ], [ 9.381048365736048, 45.735404399526061 ], [ 9.381046615596359, 45.735498019649363 ], [ 9.380317261274385, 45.735698237178255 ], [ 9.37968885974672, 45.735920866736443 ], [ 9.379041151621443, 45.736094944640222 ], [ 9.378418746379445, 45.736273894484945 ], [ 9.37807560782548, 45.736360275845428 ], [ 9.378116306648492, 45.736432333607219 ], [ 9.378570261586711, 45.736761387984551 ], [ 9.379713497545296, 45.736256572864207 ], [ 9.379703590610772, 45.736652653005258 ], [ 9.379693620507823, 45.736812983477741 ], [ 9.378627293554201, 45.737426494159266 ], [ 9.378650082676957, 45.737753104080568 ], [ 9.37861356918803, 45.737954803496407 ], [ 9.378615074928751, 45.738177597110379 ], [ 9.378410751067852, 45.738210102522999 ], [ 9.377979231452862, 45.738253968620413 ], [ 9.377821362120908, 45.738434850779356 ], [ 9.377451518222392, 45.73863765339879 ], [ 9.37721052871915, 45.738850637766816 ], [ 9.377052090828057, 45.739012979150353 ], [ 9.376924832829044, 45.739175167945852 ], [ 9.376774603731782, 45.739366633520383 ], [ 9.376458398703289, 45.739462119029312 ], [ 9.37617497806794, 45.739580073233824 ], [ 9.376096905965479, 45.73990134419806 ], [ 9.375960212719857, 45.740158845901213 ], [ 9.375771001427477, 45.740816896458206 ], [ 9.375669635557138, 45.741260509075254 ], [ 9.375402150541287, 45.741277001880434 ], [ 9.375123727285491, 45.741945740198886 ], [ 9.374725044349995, 45.741934550932548 ], [ 9.374617077139161, 45.74193834237883 ], [ 9.374156777098477, 45.741962567708299 ], [ 9.374168320730433, 45.74210804244801 ], [ 9.373999488507916, 45.742055742785446 ], [ 9.373529895864138, 45.74198958429978 ], [ 9.373027461402469, 45.741914546557751 ], [ 9.37253404484505, 45.741592709726419 ], [ 9.372308396127275, 45.741526660528798 ], [ 9.371263629766048, 45.740990015643206 ], [ 9.37096719364197, 45.740873963254735 ], [ 9.370276220407206, 45.741353243086039 ], [ 9.369837257722404, 45.74106664327681 ], [ 9.369260967216128, 45.741392529177276 ], [ 9.368643352078038, 45.741304532227851 ], [ 9.368258738153134, 45.741458770142529 ], [ 9.368777647095222, 45.742177160631286 ], [ 9.369232131260949, 45.742868733924801 ], [ 9.369694735591295, 45.743276312433323 ], [ 9.370001277993968, 45.743462957072211 ], [ 9.369239983034857, 45.743920167754965 ], [ 9.368742782228226, 45.744124787313567 ], [ 9.368857214756837, 45.744518949768185 ], [ 9.368489794465397, 45.744686317164309 ], [ 9.368223984530523, 45.744859701473317 ], [ 9.368353742257998, 45.745074942139688 ], [ 9.368344703904626, 45.745261875499502 ], [ 9.368104061833201, 45.745359698964542 ], [ 9.367966517611711, 45.745521885533044 ], [ 9.367680048791733, 45.745677364182328 ], [ 9.367629537520045, 45.745803327522381 ], [ 9.367672210809388, 45.745958986007381 ], [ 9.367887873336583, 45.746054098488457 ], [ 9.36813331869419, 45.746159613078255 ], [ 9.367592738016034, 45.74645401748549 ], [ 9.367260591621166, 45.746173146122068 ], [ 9.36724779718533, 45.746079389524965 ], [ 9.367170966377529, 45.745922831675841 ], [ 9.367362724282644, 45.745787336317726 ], [ 9.367004785855016, 45.745584210090705 ], [ 9.366987647892802, 45.745549287319072 ], [ 9.366961149192162, 45.745495252711343 ], [ 9.366538493839633, 45.745739635107469 ], [ 9.365718805509996, 45.746210304461755 ], [ 9.364860206159522, 45.746627064259172 ], [ 9.363874117878972, 45.747215266701495 ], [ 9.363143092977309, 45.747487605076529 ], [ 9.362269543110527, 45.747589383743879 ], [ 9.361667765417486, 45.747969322551519 ], [ 9.360502560928238, 45.748702063737781 ], [ 9.360582487414627, 45.749133834734131 ], [ 9.359786835197212, 45.749361359853701 ], [ 9.358928001058306, 45.749760101978687 ], [ 9.35905824398489, 45.750020709840889 ], [ 9.359432981831693, 45.750316548923536 ], [ 9.359889037115442, 45.750760648315755 ], [ 9.359489662353823, 45.751135439135318 ], [ 9.358956101681608, 45.750759084579109 ], [ 9.358507899653361, 45.750409465532321 ], [ 9.358288240008315, 45.750239148536913 ], [ 9.357734438164833, 45.750087867600918 ], [ 9.356965231315547, 45.750432305293856 ], [ 9.356618319859185, 45.750679492350763 ], [ 9.356508491878287, 45.750757752733712 ], [ 9.356542260242756, 45.750780321133277 ], [ 9.356749787820362, 45.750919011137128 ], [ 9.357651685913645, 45.751222204129355 ], [ 9.358141628084775, 45.751436690825152 ], [ 9.3572080715656, 45.752222680538814 ], [ 9.358085931905268, 45.752777966812481 ], [ 9.358629017858382, 45.753262297074698 ], [ 9.359478352151399, 45.753376642991832 ], [ 9.360646043924035, 45.753012940756058 ], [ 9.361467152605874, 45.752740314770662 ], [ 9.361788170391916, 45.752676293535615 ], [ 9.361879856899419, 45.752937019233762 ], [ 9.361805788783313, 45.75341429119743 ], [ 9.362236706020878, 45.754439001881479 ], [ 9.362819089301013, 45.755022210902055 ], [ 9.363166051878467, 45.754994103678087 ], [ 9.363612736484278, 45.754479644580591 ], [ 9.364035035050929, 45.754172269365412 ], [ 9.364549054437926, 45.754125634868231 ], [ 9.365164900776344, 45.753925656508294 ], [ 9.365573101666234, 45.753429305113407 ], [ 9.365864360310358, 45.752744327405516 ] ] ] } },
{ "type": "Feature", "properties": { "COD_RIP": 1, "COD_REG": 3, "COD_PROV": 97, "COD_CM": 0, "COD_UTS": 97, "PRO_COM": 97092, "PRO_COM_T": "097092", "COMUNE": "La Valletta Brianza", "COMUNE_A": null, "CC_UTS": 0, "Shape_Leng": 19498.259004899999, "Shape_Area": 8784731.7561700009 }, "geometry": { "type": "Polygon", "coordinates": [ [ [ 9.336584128336295, 45.749900113224889 ], [ 9.337059534404315, 45.749853716110763 ], [ 9.337908066449421, 45.749851209726593 ], [ 9.339219017333487, 45.749784320756333 ], [ 9.340708172268766, 45.749419848301017 ], [ 9.340410439961746, 45.749087717185006 ], [ 9.341243807969164, 45.748707199883491 ], [ 9.341605594656544, 45.749003136172256 ], [ 9.342182509922575, 45.748740392688283 ], [ 9.342384810337096, 45.748181752958445 ], [ 9.342936566776805, 45.748009091190269 ], [ 9.344003601107188, 45.748005883482669 ], [ 9.344790635053371, 45.748462539311618 ], [ 9.345474339921404, 45.748838506258529 ], [ 9.346182331423963, 45.748980365322225 ], [ 9.34709489727771, 45.748941595487928 ], [ 9.347130097209629, 45.748915902128076 ], [ 9.347478835312041, 45.748661399945519 ], [ 9.347784816259422, 45.748246437321811 ], [ 9.348129933506499, 45.747728071028028 ], [ 9.348205138139306, 45.747615121891414 ], [ 9.349090243266236, 45.747297393899466 ], [ 9.349422014501256, 45.746900338684242 ], [ 9.350230748894656, 45.746708864746843 ], [ 9.35055219456817, 45.746716874294499 ], [ 9.350653567527162, 45.746482550931084 ], [ 9.351140676292115, 45.746256038874272 ], [ 9.352075722591088, 45.745713118105741 ], [ 9.351918525973588, 45.745245559731323 ], [ 9.351747045576991, 45.744553028962741 ], [ 9.352361952765767, 45.744209120010154 ], [ 9.353529417802644, 45.743836476347603 ], [ 9.353914343228794, 45.743718269440699 ], [ 9.354073371610603, 45.744473841822092 ], [ 9.354357090997956, 45.744616982368093 ], [ 9.355462343298905, 45.744568534527559 ], [ 9.356117057301502, 45.74442249358146 ], [ 9.356101664851149, 45.744026500305473 ], [ 9.356718201747135, 45.74394358015963 ], [ 9.357898391330327, 45.743552861393681 ], [ 9.359208015059387, 45.743305725725982 ], [ 9.360071318279449, 45.74361803559502 ], [ 9.360944926282297, 45.743534264180269 ], [ 9.362434823162062, 45.743331535544442 ], [ 9.363271430620269, 45.743490889485997 ], [ 9.363917330653125, 45.743974867545909 ], [ 9.364538132730678, 45.744548933127561 ], [ 9.365261841372396, 45.745131679694289 ], [ 9.366110273595451, 45.745128964161808 ], [ 9.366961149192162, 45.745495252711343 ], [ 9.366987647892802, 45.745549287319072 ], [ 9.367004785855016, 45.745584210090705 ], [ 9.367362724282644, 45.745787336317726 ], [ 9.367170966377529, 45.745922831675841 ], [ 9.36724779718533, 45.746079389524965 ], [ 9.367260591621166, 45.746173146122068 ], [ 9.367592738016034, 45.74645401748549 ], [ 9.36813331869419, 45.746159613078255 ], [ 9.367887873336583, 45.746054098488457 ], [ 9.367672210809388, 45.745958986007381 ], [ 9.367629537520045, 45.745803327522381 ], [ 9.367680048791733, 45.745677364182328 ], [ 9.367966517611711, 45.745521885533044 ], [ 9.368104061833201, 45.745359698964542 ], [ 9.368344703904626, 45.745261875499502 ], [ 9.368353742257998, 45.745074942139688 ], [ 9.368223984530523, 45.744859701473317 ], [ 9.368489794465397, 45.744686317164309 ], [ 9.368857214756837, 45.744518949768185 ], [ 9.368742782228226, 45.744124787313567 ], [ 9.369239983034857, 45.743920167754965 ], [ 9.370001277993968, 45.743462957072211 ], [ 9.369694735591295, 45.743276312433323 ], [ 9.369232131260949, 45.742868733924801 ], [ 9.368777647095222, 45.742177160631286 ], [ 9.368258738153134, 45.741458770142529 ], [ 9.368643352078038, 45.741304532227851 ], [ 9.369260967216128, 45.741392529177276 ], [ 9.369837257722404, 45.74106664327681 ], [ 9.370276220407206, 45.741353243086039 ], [ 9.37096719364197, 45.740873963254735 ], [ 9.371263629766048, 45.740990015643206 ], [ 9.372308396127275, 45.741526660528798 ], [ 9.37253404484505, 45.741592709726419 ], [ 9.373027461402469, 45.741914546557751 ], [ 9.373529895864138, 45.74198958429978 ], [ 9.373999488507916, 45.742055742785446 ], [ 9.374168320730433, 45.74210804244801 ], [ 9.374156777098477, 45.741962567708299 ], [ 9.374617077139161, 45.74193834237883 ], [ 9.374725044349995, 45.741934550932548 ], [ 9.375123727285491, 45.741945740198886 ], [ 9.375402150541287, 45.741277001880434 ], [ 9.375669635557138, 45.741260509075254 ], [ 9.375771001427477, 45.740816896458206 ], [ 9.375960212719857, 45.740158845901213 ], [ 9.376096905965479, 45.73990134419806 ], [ 9.37617497806794, 45.739580073233824 ], [ 9.376458398703289, 45.739462119029312 ], [ 9.376774603731782, 45.739366633520383 ], [ 9.376924832829044, 45.739175167945852 ], [ 9.377052090828057, 45.739012979150353 ], [ 9.37721052871915, 45.738850637766816 ], [ 9.377451518222392, 45.73863765339879 ], [ 9.377821362120908, 45.738434850779356 ], [ 9.377979231452862, 45.738253968620413 ], [ 9.378410751067852, 45.738210102522999 ], [ 9.378615074928751, 45.738177597110379 ], [ 9.37861356918803, 45.737954803496407 ], [ 9.378650082676957, 45.737753104080568 ], [ 9.378627293554201, 45.737426494159266 ], [ 9.379693620507823, 45.736812983477741 ], [ 9.379703590610772, 45.736652653005258 ], [ 9.379713497545296, 45.736256572864207 ], [ 9.378570261586711, 45.736761387984551 ], [ 9.378116306648492, 45.736432333607219 ], [ 9.37807560782548, 45.736360275845428 ], [ 9.378418746379445, 45.736273894484945 ], [ 9.379041151621443, 45.736094944640222 ], [ 9.37968885974672, 45.735920866736443 ], [ 9.380317261274385, 45.735698237178255 ], [ 9.381046615596359, 45.735498019649363 ], [ 9.381048365736048, 45.735404399526061 ], [ 9.381109966007429, 45.73502674234728 ], [ 9.38118690823992, 45.734733516943585 ], [ 9.381195710226502, 45.734675534325021 ], [ 9.38137454421188, 45.734467561593583 ], [ 9.381563196071244, 45.734350849693406 ], [ 9.3817828187376, 45.734145590627222 ], [ 9.381888622340748, 45.734046705598132 ], [ 9.382325161739759, 45.733806586605702 ], [ 9.38213114887121, 45.733815001535497 ], [ 9.382098714931129, 45.733800019318458 ], [ 9.381728503461821, 45.733628959580543 ], [ 9.380829915478273, 45.733793970390941 ], [ 9.380685363269922, 45.733326411142521 ], [ 9.381029542805164, 45.732977786343966 ], [ 9.381285083474102, 45.732920105660703 ], [ 9.381616258706389, 45.732869250908742 ], [ 9.381631405409955, 45.732775228655697 ], [ 9.38148763532625, 45.732526961650763 ], [ 9.381364717006328, 45.732314704452634 ], [ 9.381316084515872, 45.731676266407256 ], [ 9.381442148672086, 45.731642680447408 ], [ 9.381488940769829, 45.731559607287949 ], [ 9.381638382271793, 45.731481721347976 ], [ 9.38181183988225, 45.731453502235112 ], [ 9.382017057120461, 45.731452816248016 ], [ 9.382261476874032, 45.731413305307946 ], [ 9.382568774785218, 45.731334888987732 ], [ 9.383096207973997, 45.731128596178749 ], [ 9.383448396626882, 45.730990843261829 ], [ 9.383512756943805, 45.730867395828497 ], [ 9.383897502624551, 45.730573134755588 ], [ 9.384140665434723, 45.73035120978836 ], [ 9.384132166791931, 45.730262794936792 ], [ 9.384463323690643, 45.730211931067032 ], [ 9.385024018956283, 45.730254264636855 ], [ 9.385484748871752, 45.730338013222685 ], [ 9.385561411848233, 45.730351946960454 ], [ 9.385869879237996, 45.730444876372211 ], [ 9.386163326004979, 45.730648410446513 ], [ 9.386337693370129, 45.73075284831306 ], [ 9.386426866045895, 45.73080625707172 ], [ 9.386635101491365, 45.730930978383547 ], [ 9.386768179809232, 45.731033745249377 ], [ 9.38700434867248, 45.73080298561689 ], [ 9.387025882425645, 45.730780423336491 ], [ 9.387348998224773, 45.730459803497006 ], [ 9.387426283134289, 45.730369530991382 ], [ 9.387470892708325, 45.730315369655408 ], [ 9.387897201917536, 45.729818892077979 ], [ 9.388573975852054, 45.729186537032781 ], [ 9.388549811584245, 45.728871057331439 ], [ 9.388545703581126, 45.72881759587694 ], [ 9.388182019936963, 45.728260796416123 ], [ 9.388357077606742, 45.727558147870901 ], [ 9.388902994391408, 45.726593216324481 ], [ 9.388861191171742, 45.726125314327376 ], [ 9.388358820380272, 45.725956016297239 ], [ 9.388297295420514, 45.72635224905158 ], [ 9.388209768604391, 45.726703576090543 ], [ 9.387480126997476, 45.727120086224403 ], [ 9.386671085904613, 45.727203843225972 ], [ 9.386219679728722, 45.726971338054966 ], [ 9.385868415066208, 45.726351483596737 ], [ 9.386223840678053, 45.725711231561888 ], [ 9.387426413628358, 45.724924105258424 ], [ 9.388551629079277, 45.724110207131382 ], [ 9.388304985852237, 45.723751021415886 ], [ 9.387311584747396, 45.723187341992649 ], [ 9.387269423228856, 45.722665450023882 ], [ 9.387762107583661, 45.721439685117915 ], [ 9.386872191522228, 45.720965661892137 ], [ 9.386525859354373, 45.721056844713232 ], [ 9.385988486859947, 45.721391680796806 ], [ 9.385654684375703, 45.721437803887156 ], [ 9.385498329701878, 45.72112332099757 ], [ 9.385354819987722, 45.720808777451595 ], [ 9.385533541340326, 45.720637148671813 ], [ 9.385865453537292, 45.720321018464993 ], [ 9.38549102316613, 45.720061245066496 ], [ 9.385734346978698, 45.719943423414065 ], [ 9.386372536861206, 45.719320205956251 ], [ 9.386689878819471, 45.7188540586138 ], [ 9.386906813421859, 45.718535346811166 ], [ 9.387466406259101, 45.717696385426635 ], [ 9.386952054628551, 45.71764411935326 ], [ 9.385950891624079, 45.717800522012737 ], [ 9.385509091769141, 45.717081945399975 ], [ 9.385584680194112, 45.716865686492092 ], [ 9.386482362398018, 45.71661063103879 ], [ 9.38694292265232, 45.71632104930837 ], [ 9.386591372070351, 45.715647184899495 ], [ 9.386252767651913, 45.714991269063262 ], [ 9.385928524339192, 45.714551323765562 ], [ 9.385231386821916, 45.714067640450629 ], [ 9.384699873700448, 45.713376368716283 ], [ 9.38503063539499, 45.712898232640754 ], [ 9.385850728275726, 45.712580436891592 ], [ 9.386234414967142, 45.712327117021722 ], [ 9.386422126844444, 45.71159741888124 ], [ 9.38686549494339, 45.710686851399821 ], [ 9.386897396313545, 45.709723665940892 ], [ 9.386953760040614, 45.708580374956469 ], [ 9.387143098452114, 45.708093696046255 ], [ 9.386537759747382, 45.707870728099905 ], [ 9.385585057642446, 45.707576909802505 ], [ 9.384814627172139, 45.707633517636374 ], [ 9.384240591084339, 45.708229506809019 ], [ 9.383639508233195, 45.708627552535276 ], [ 9.383513989402708, 45.709060000218841 ], [ 9.38299158140388, 45.709691811079253 ], [ 9.381979915308122, 45.71017223897298 ], [ 9.381250991019083, 45.710669723520716 ], [ 9.381008709237051, 45.710940546057593 ], [ 9.381293979113426, 45.711326625427148 ], [ 9.380614648804876, 45.711562903432423 ], [ 9.380822667583297, 45.711922253253483 ], [ 9.380555735445583, 45.712346174206907 ], [ 9.379570291614433, 45.712916503916894 ], [ 9.379420147636202, 45.713511040325905 ], [ 9.378662895056793, 45.713630568454548 ], [ 9.377792812356528, 45.714164481788238 ], [ 9.376996905976126, 45.714266116966478 ], [ 9.376239940005361, 45.714430642876884 ], [ 9.375252575021001, 45.714721913945169 ], [ 9.374457470628117, 45.714949540887979 ], [ 9.374035344657937, 45.715229933126302 ], [ 9.373522795118459, 45.715438636460355 ], [ 9.373550277040982, 45.715708560678486 ], [ 9.373255792385139, 45.71586253941679 ], [ 9.373155286310006, 45.716204901660305 ], [ 9.372733897929804, 45.716602302384281 ], [ 9.371720585450793, 45.716866621466558 ], [ 9.371373002841121, 45.716768745751573 ], [ 9.370538854141138, 45.716924470368411 ], [ 9.369898614290992, 45.717259564580125 ], [ 9.369037796695807, 45.717271362625937 ], [ 9.36853876093833, 45.717587983315774 ], [ 9.368360353095335, 45.717813576755674 ], [ 9.368002232003411, 45.718066753092089 ], [ 9.367513986712028, 45.718068324690897 ], [ 9.367255758044074, 45.717880138355746 ], [ 9.366511407486191, 45.71801755315461 ], [ 9.365895520299095, 45.718154533757946 ], [ 9.365009765501688, 45.71828337813912 ], [ 9.363959121082853, 45.71874576142249 ], [ 9.363115784716436, 45.719477508203703 ], [ 9.362335759031726, 45.72006502623109 ], [ 9.360951904315552, 45.72067245781831 ], [ 9.35944044152939, 45.721424276839976 ], [ 9.35832824739569, 45.722327859224094 ], [ 9.357432295727241, 45.722888701927374 ], [ 9.356856003162454, 45.723196536443965 ], [ 9.356136383559829, 45.723198781859239 ], [ 9.355400439881198, 45.722652013814987 ], [ 9.354404200758449, 45.72158403086555 ], [ 9.354181109872181, 45.720846665119055 ], [ 9.35458877057525, 45.72028734531041 ], [ 9.354804001555166, 45.719782649893801 ], [ 9.353670940065951, 45.719417124194649 ], [ 9.353442434265702, 45.719858871034496 ], [ 9.353127069944987, 45.720795917664475 ], [ 9.352942665586861, 45.721092252533531 ], [ 9.352745442107368, 45.72140914396774 ], [ 9.351877137042599, 45.722284904317455 ], [ 9.351125290587902, 45.723295288474482 ], [ 9.351348828301019, 45.724104661173804 ], [ 9.351444820880317, 45.725067440851852 ], [ 9.351603838763952, 45.725839424884498 ], [ 9.351617140017797, 45.725903992464886 ], [ 9.350999948221844, 45.725851881053046 ], [ 9.349674960856628, 45.725639921571414 ], [ 9.348530905376021, 45.725589407207011 ], [ 9.348404183109325, 45.725877816946571 ], [ 9.348703238669437, 45.72643495937033 ], [ 9.348821234553666, 45.726812631981119 ], [ 9.348978380883285, 45.72728017826747 ], [ 9.349301622341175, 45.727594217770886 ], [ 9.349521783179695, 45.727863576841472 ], [ 9.349357119865077, 45.728251109450426 ], [ 9.349591530991775, 45.728745422625437 ], [ 9.34951828842688, 45.729366706638125 ], [ 9.349199464981677, 45.729763705793019 ], [ 9.348237319645296, 45.730045669187064 ], [ 9.347028647546292, 45.729950340959569 ], [ 9.346424619035909, 45.729952174034366 ], [ 9.346526084088982, 45.730020143520456 ], [ 9.34716023706118, 45.730444972137192 ], [ 9.347187693736624, 45.730483001586919 ], [ 9.34740657013861, 45.730786281618471 ], [ 9.347311310083287, 45.731034087126204 ], [ 9.347191538432824, 45.731344970647299 ], [ 9.34710530854095, 45.731948283545499 ], [ 9.34627220062424, 45.732319848600511 ], [ 9.345466323693524, 45.732943329710601 ], [ 9.344159675447751, 45.733649329651151 ], [ 9.344546985039402, 45.733927188872059 ], [ 9.345240360560286, 45.733817076649252 ], [ 9.345445644420185, 45.733946217546318 ], [ 9.345653217073645, 45.734076816472609 ], [ 9.345655327118667, 45.734418842007955 ], [ 9.34538674753505, 45.73463567538515 ], [ 9.345080600810622, 45.735014633614256 ], [ 9.344402406185614, 45.735502714203278 ], [ 9.34429175776733, 45.735748495894974 ], [ 9.344217642528749, 45.735913202816448 ], [ 9.344098121383228, 45.736178722711067 ], [ 9.344128401269121, 45.736925683326874 ], [ 9.344107133737772, 45.737645812109825 ], [ 9.343530921631659, 45.738007569419189 ], [ 9.343249965578464, 45.738305430907474 ], [ 9.343638601111232, 45.738799310886556 ], [ 9.344144602741371, 45.739562848061873 ], [ 9.343608013564923, 45.740095494415293 ], [ 9.342683486561302, 45.740260282087476 ], [ 9.341963948485358, 45.740307452550354 ], [ 9.341695820532136, 45.740605272598451 ], [ 9.342507324264295, 45.740881868983017 ], [ 9.342535576415257, 45.741295816456059 ], [ 9.342858642744728, 45.741573857418409 ], [ 9.343711301509874, 45.742264354700907 ], [ 9.34361010224427, 45.742534689876848 ], [ 9.343148220036257, 45.74268008021258 ], [ 9.342660666718993, 45.742834558126951 ], [ 9.341466714759166, 45.743090153837002 ], [ 9.34090456392296, 45.743658863864155 ], [ 9.340099723000458, 45.744489327274316 ], [ 9.338986024290563, 45.745266693565497 ], [ 9.338370206153852, 45.745475544386451 ], [ 9.338527842006643, 45.746033097865279 ], [ 9.338379329634614, 45.74634938941756 ], [ 9.338317415798789, 45.746618198334438 ], [ 9.338264175041838, 45.746629840028888 ], [ 9.337764006559047, 45.746750744386659 ], [ 9.336248460247637, 45.747037581658844 ], [ 9.336246016859175, 45.747119896194057 ], [ 9.33636365139126, 45.747443571472445 ], [ 9.336930922135988, 45.747711931455598 ], [ 9.337215886595718, 45.748062118093941 ], [ 9.337076749076871, 45.748440542023836 ], [ 9.336486936121361, 45.748703315723816 ], [ 9.336372067065728, 45.748897333810483 ], [ 9.336353317152337, 45.748929008629055 ], [ 9.336279689293827, 45.749053388841524 ], [ 9.336156009041837, 45.749262323464635 ], [ 9.336260717905493, 45.749568046968754 ], [ 9.336584128336295, 45.749900113224889 ] ] ] } }
]
}
